{"province_id":10,"province_name":"สระบุรี","districts":[{"name":"ดอนพุด","subdistricts":[{"name":"บ้านหลวง","zipcode":"18210"},{"name":"ดอนพุด","zipcode":"18210"},{"name":"ดงตะงาว","zipcode":"18210"},{"name":"ไผ่หลิ่ว","zipcode":"18210"}]},{"name":"บ้านหมอ","subdistricts":[{"name":"ไผ่ขวาง","zipcode":"18130"},{"name":"หรเทพ","zipcode":"18130"},{"name":"สร่างโศก","zipcode":"18130"},{"name":"บ้านครัว","zipcode":"18270"},{"name":"บ้านหมอ","zipcode":"18130"},{"name":"โคกใหญ่","zipcode":"18130"},{"name":"ตลาดน้อย","zipcode":"18130"},{"name":"หนองบัว","zipcode":"18130"},{"name":"บางโขมด","zipcode":"18130"}]},{"name":"พระพุทธบาท","subdistricts":[{"name":"หนองแก","zipcode":"18120"},{"name":"ขุนโขลน","zipcode":"18120"},{"name":"ห้วยป่าหวาย","zipcode":"18120"},{"name":"พุคำจาน","zipcode":"18120"},{"name":"ธารเกษม","zipcode":"18120"},{"name":"พุกร่าง","zipcode":"18120"},{"name":"พระพุทธบาท","zipcode":"18120"},{"name":"เขาวง","zipcode":"18120"},{"name":"นายาว","zipcode":"18120"}]},{"name":"มวกเหล็ก","subdistricts":[{"name":"ลำพญากลาง","zipcode":"18180"},{"name":"หนองย่างเสือ","zipcode":"18180"},{"name":"มวกเหล็ก","zipcode":"18180"},{"name":"ซับสนุ่น","zipcode":"18220"},{"name":"ลำสมพุง","zipcode":"18180"},{"name":"มิตรภาพ","zipcode":"18180"}]},{"name":"วังม่วง","subdistricts":[{"name":"แสลงพัน","zipcode":"18220"},{"name":"คำพราน","zipcode":"18220"},{"name":"วังม่วง","zipcode":"18220"}]},{"name":"วิหารแดง","subdistricts":[{"name":"คลองเรือ","zipcode":"18150"},{"name":"หนองหมู","zipcode":"18150"},{"name":"เจริญธรรม","zipcode":"18150"},{"name":"วิหารแดง","zipcode":"18150"},{"name":"บ้านลำ","zipcode":"18150"},{"name":"หนองสรวง","zipcode":"18150"}]},{"name":"หนองแค","subdistricts":[{"name":"กุ่มหัก","zipcode":"18140"},{"name":"หนองจรเข้","zipcode":"18140"},{"name":"ไผ่ต่ำ","zipcode":"18140"},{"name":"หนองแขม","zipcode":"18140"},{"name":"โคกแย้","zipcode":"18230"},{"name":"หนองปลิง","zipcode":"18140"},{"name":"ห้วยทราย","zipcode":"18230"},{"name":"คชสิทธิ์","zipcode":"18250"},{"name":"หนองนาก","zipcode":"18230"},{"name":"โพนทอง","zipcode":"18250"},{"name":"หนองแค","zipcode":"18140"},{"name":"หนองจิก","zipcode":"18230"},{"name":"บัวลอย","zipcode":"18230"},{"name":"หนองโรง","zipcode":"18140"},{"name":"หนองไข่น้ำ","zipcode":"18140"},{"name":"โคกตูม","zipcode":"18250"},{"name":"หนองปลาหมอ","zipcode":"18140"},{"name":"ห้วยขมิ้น","zipcode":"18230"}]},{"name":"หนองแซง","subdistricts":[{"name":"เขาดิน","zipcode":"18170"},{"name":"หนองควายโซ","zipcode":"18170"},{"name":"โคกสะอาด","zipcode":"18170"},{"name":"หนองกบ","zipcode":"18170"},{"name":"หนองหัวโพ","zipcode":"18170"},{"name":"ม่วงหวาน","zipcode":"18170"},{"name":"หนองแซง","zipcode":"18170"},{"name":"ไก่เส่า","zipcode":"18170"},{"name":"หนองสีดา","zipcode":"18170"}]},{"name":"หนองโดน","subdistricts":[{"name":"หนองโดน","zipcode":"18190"},{"name":"บ้านโปร่ง","zipcode":"18190"},{"name":"บ้านกลับ","zipcode":"18190"},{"name":"ดอนทอง","zipcode":"18190"}]},{"name":"เฉลิมพระเกียรติ","subdistricts":[{"name":"ห้วยบง","zipcode":"18000"},{"name":"ผึ้งรวง","zipcode":"18000"},{"name":"เขาดินพัฒนา","zipcode":"18000"},{"name":"หน้าพระลาน","zipcode":"18240"},{"name":"พุแค","zipcode":"18240"},{"name":"บ้านแก้ง","zipcode":"18000"}]},{"name":"เมืองสระบุรี","subdistricts":[{"name":"หนองปลาไหล","zipcode":"18000"},{"name":"ปากเพรียว","zipcode":"18000"},{"name":"หนองยาว","zipcode":"18000"},{"name":"ตะกุด","zipcode":"18000"},{"name":"โคกสว่าง","zipcode":"18000"},{"name":"กุดนกเปล้า","zipcode":"18000"},{"name":"ดาวเรือง","zipcode":"18000"},{"name":"ปากข้าวสาร","zipcode":"18000"},{"name":"หนองโน","zipcode":"18000"},{"name":"ตลิ่งชัน","zipcode":"18000"},{"name":"นาโฉง","zipcode":"18000"}]},{"name":"เสาไห้","subdistricts":[{"name":"ท่าช้าง","zipcode":"18160"},{"name":"สวนดอกไม้","zipcode":"18160"},{"name":"ศาลารีไทย","zipcode":"18160"},{"name":"เริงราง","zipcode":"18160"},{"name":"หัวปลวก","zipcode":"18160"},{"name":"พระยาทด","zipcode":"18160"},{"name":"เสาไห้","zipcode":"18160"},{"name":"ต้นตาล","zipcode":"18160"},{"name":"เมืองเก่า","zipcode":"18160"},{"name":"งิ้วงาม","zipcode":"18160"},{"name":"ม่วงงาม","zipcode":"18160"},{"name":"บ้านยาง","zipcode":"18160"}]},{"name":"แก่งคอย","subdistricts":[{"name":"ท่าตูม","zipcode":"18110"},{"name":"ทับกวาง","zipcode":"18260"},{"name":"ท่ามะปราง","zipcode":"18110"},{"name":"บ้านธาตุ","zipcode":"18110"},{"name":"เตาปูน","zipcode":"18110"},{"name":"ท่าคล้อ","zipcode":"18110"},{"name":"ชะอม","zipcode":"18110"},{"name":"ตาลเดี่ยว","zipcode":"18110"},{"name":"บ้านป่า","zipcode":"18110"},{"name":"แก่งคอย","zipcode":"18110"},{"name":"ชำผักแพว","zipcode":"18110"},{"name":"หินซ้อน","zipcode":"18110"},{"name":"สองคอน","zipcode":"18110"},{"name":"ห้วยแห้ง","zipcode":"18110"}]}]}
