{"province_id":11,"province_name":"ชลบุรี","districts":[{"name":"บ่อทอง","subdistricts":[{"name":"เกษตรสุวรรณ","zipcode":"20270"},{"name":"บ่อกวางทอง","zipcode":"20270"},{"name":"บ่อทอง","zipcode":"20270"},{"name":"พลวงทอง","zipcode":"20270"},{"name":"ธาตุทอง","zipcode":"20270"},{"name":"วัดสุวรรณ","zipcode":"20270"}]},{"name":"บางละมุง","subdistricts":[{"name":"บางละมุง","zipcode":"20150"},{"name":"ห้วยใหญ่","zipcode":"20150"},{"name":"โป่ง","zipcode":"20150"},{"name":"หนองปรือ","zipcode":"20150"},{"name":"ตะเคียนเตี้ย","zipcode":"20150"},{"name":"เขาไม้แก้ว","zipcode":"20150"},{"name":"หนองปลาไหล","zipcode":"20150"},{"name":"นาเกลือ","zipcode":"20150"}]},{"name":"บ้านบึง","subdistricts":[{"name":"หนองอิรุณ","zipcode":"20220"},{"name":"หนองบอนแดง","zipcode":"20170"},{"name":"มาบไผ่","zipcode":"20170"},{"name":"หนองไผ่แก้ว","zipcode":"20220"},{"name":"บ้านบึง","zipcode":"20170"},{"name":"หนองชาก","zipcode":"20170"},{"name":"หนองซ้ำซาก","zipcode":"20170"},{"name":"คลองกิ่ว","zipcode":"20220"}]},{"name":"พนัสนิคม","subdistricts":[{"name":"พนัสนิคม","zipcode":"20140"},{"name":"นามะตูม","zipcode":"20140"},{"name":"หนองขยาด","zipcode":"20140"},{"name":"หมอนนาง","zipcode":"20140"},{"name":"โคกเพลาะ","zipcode":"20140"},{"name":"ท่าข้าม","zipcode":"20140"},{"name":"บ้านเซิด","zipcode":"20140"},{"name":"นาวังหิน","zipcode":"20140"},{"name":"กุฎโง้ง","zipcode":"20140"},{"name":"หน้าพระธาตุ","zipcode":"20140"},{"name":"ทุ่งขวาง","zipcode":"20140"},{"name":"สระสี่เหลี่ยม","zipcode":"20140"},{"name":"ไร่หลักทอง","zipcode":"20140"},{"name":"หนองปรือ","zipcode":"20140"},{"name":"นาเริก","zipcode":"20140"},{"name":"บ้านช้าง","zipcode":"20140"},{"name":"หัวถนน","zipcode":"20140"},{"name":"วัดหลวง","zipcode":"20140"},{"name":"หนองเหียง","zipcode":"20140"},{"name":"วัดโบสถ์","zipcode":"20140"}]},{"name":"พานทอง","subdistricts":[{"name":"หนองหงษ์","zipcode":"20160"},{"name":"เกาะลอย","zipcode":"20160"},{"name":"มาบโป่ง","zipcode":"20160"},{"name":"หน้าประดู่","zipcode":"20160"},{"name":"พานทอง","zipcode":"20160"},{"name":"โคกขี้หนอน","zipcode":"20160"},{"name":"บางหัก","zipcode":"20160"},{"name":"หนองกะขะ","zipcode":"20160"},{"name":"บางนาง","zipcode":"20160"},{"name":"หนองตำลึง","zipcode":"20160"},{"name":"บ้านเก่า","zipcode":"20160"}]},{"name":"ศรีราชา","subdistricts":[{"name":"บางพระ","zipcode":"20110"},{"name":"หนองขาม","zipcode":"20110"},{"name":"ทุ่งสุขลา","zipcode":"20230"},{"name":"บ่อวิน","zipcode":"20230"},{"name":"ศรีราชา","zipcode":"20110"},{"name":"เขาคันทรง","zipcode":"20110"},{"name":"บึง","zipcode":"20230"},{"name":"สุรศักดิ์","zipcode":"20110"}]},{"name":"สัตหีบ","subdistricts":[{"name":"พลูตาหลวง","zipcode":"20180"},{"name":"สัตหีบ","zipcode":"20180"},{"name":"บางเสร่","zipcode":"20250"},{"name":"นาจอมเทียน","zipcode":"20250"},{"name":"แสมสาร","zipcode":"20180"}]},{"name":"หนองใหญ่","subdistricts":[{"name":"ห้างสูง","zipcode":"20190"},{"name":"คลองพลู","zipcode":"20190"},{"name":"เขาซก","zipcode":"20190"},{"name":"หนองเสือช้าง","zipcode":"20190"},{"name":"หนองใหญ่","zipcode":"20190"}]},{"name":"เกาะจันทร์","subdistricts":[{"name":"ท่าบุญมี","zipcode":"20240"},{"name":"เกาะจันทร์","zipcode":"20240"}]},{"name":"เกาะสีชัง","subdistricts":[{"name":"ท่าเทววงษ์","zipcode":"20120"}]},{"name":"เมืองชลบุรี","subdistricts":[{"name":"เหมือง","zipcode":"20130"},{"name":"หนองรี","zipcode":"20000"},{"name":"สำนักบก","zipcode":"20000"},{"name":"บางทราย","zipcode":"20000"},{"name":"แสนสุข","zipcode":"20000"},{"name":"เสม็ด","zipcode":"20130"},{"name":"ดอนหัวฬ่อ","zipcode":"20000"},{"name":"มะขามหย่ง","zipcode":"20000"},{"name":"บ้านปึก","zipcode":"20130"},{"name":"นาป่า","zipcode":"20000"},{"name":"คลองตำหรุ","zipcode":"20000"},{"name":"บ้านสวน","zipcode":"20000"},{"name":"อ่างศิลา","zipcode":"20000"},{"name":"หนองไม้แดง","zipcode":"20000"},{"name":"บ้านโขด","zipcode":"20000"},{"name":"ห้วยกะปิ","zipcode":"20000"},{"name":"หนองข้างคอก","zipcode":"20000"},{"name":"บางปลาสร้อย","zipcode":"20000"}]}]}
