{"province_id":12,"province_name":"ระยอง","districts":[{"name":"นิคมพัฒนา","subdistricts":[{"name":"พนานิคม","zipcode":"21180"},{"name":"นิคมพัฒนา","zipcode":"21180"},{"name":"มะขามคู่","zipcode":"21180"},{"name":"มาบข่า","zipcode":"21180"}]},{"name":"บ้านค่าย","subdistricts":[{"name":"บางบุตร","zipcode":"21120"},{"name":"หนองตะพาน","zipcode":"21120"},{"name":"บ้านค่าย","zipcode":"21120"},{"name":"หนองบัว","zipcode":"21120"},{"name":"ตาขัน","zipcode":"21120"},{"name":"หนองละลอก","zipcode":"21120"},{"name":"ชากบก","zipcode":"21120"}]},{"name":"บ้านฉาง","subdistricts":[{"name":"สำนักท้อน","zipcode":"21130"},{"name":"พลา","zipcode":"21130"},{"name":"บ้านฉาง","zipcode":"21130"}]},{"name":"ปลวกแดง","subdistricts":[{"name":"มาบยางพร","zipcode":"21140"},{"name":"ละหาร","zipcode":"21140"},{"name":"ปลวกแดง","zipcode":"21140"},{"name":"หนองไร่","zipcode":"21140"},{"name":"แม่น้ำคู้","zipcode":"21140"},{"name":"ตาสิทธิ์","zipcode":"21140"}]},{"name":"วังจันทร์","subdistricts":[{"name":"ชุมแสง","zipcode":"21210"},{"name":"ป่ายุบใน","zipcode":"21210"},{"name":"วังจันทร์","zipcode":"21210"},{"name":"พลงตาเอี่ยม","zipcode":"21210"}]},{"name":"เขาชะเมา","subdistricts":[{"name":"เขาน้อย","zipcode":"21110"},{"name":"ห้วยทับมอญ","zipcode":"21110"},{"name":"ชำฆ้อ","zipcode":"21110"},{"name":"น้ำเป็น","zipcode":"21110"}]},{"name":"เมืองระยอง","subdistricts":[{"name":"ปากน้ำ","zipcode":"21000"},{"name":"เนินพระ","zipcode":"21000"},{"name":"เชิงเนิน","zipcode":"21000"},{"name":"มาบตาพุด","zipcode":"21150"},{"name":"บ้านแลง","zipcode":"21000"},{"name":"น้ำคอก","zipcode":"21000"},{"name":"เพ","zipcode":"21160"},{"name":"กะเฉด","zipcode":"21100"},{"name":"ตะพง","zipcode":"21000"},{"name":"สำนักทอง","zipcode":"21100"},{"name":"นาตาขวัญ","zipcode":"21000"},{"name":"ท่าประดู่","zipcode":"21000"},{"name":"ห้วยโป่ง","zipcode":"21150"},{"name":"แกลง","zipcode":"21160"},{"name":"ทับมา","zipcode":"21000"}]},{"name":"แกลง","subdistricts":[{"name":"กร่ำ","zipcode":"21190"},{"name":"กองดิน","zipcode":"22160"},{"name":"ชากโดน","zipcode":"21110"},{"name":"สองสลึง","zipcode":"21110"},{"name":"บ้านนา","zipcode":"21110"},{"name":"ทางเกวียน","zipcode":"21110"},{"name":"ปากน้ำกระแส","zipcode":"21170"},{"name":"ชากพง","zipcode":"21190"},{"name":"คลองปูน","zipcode":"21170"},{"name":"เนินฆ้อ","zipcode":"21110"},{"name":"ทุ่งควายกิน","zipcode":"21110"},{"name":"วังหว้า","zipcode":"21110"},{"name":"ห้วยยาง","zipcode":"21110"},{"name":"กระแสบน","zipcode":"21110"},{"name":"พังราด","zipcode":"21110"}]}]}
