{"province_id":13,"province_name":"จันทบุรี","districts":[{"name":"ขลุง","subdistricts":[{"name":"ตกพรม","zipcode":"22110"},{"name":"ตะปอน","zipcode":"22110"},{"name":"วังสรรพรส","zipcode":"22110"},{"name":"บ่อ","zipcode":"22110"},{"name":"ซึ้ง","zipcode":"22110"},{"name":"บ่อเวฬุ","zipcode":"22150"},{"name":"บางชัน","zipcode":"22110"},{"name":"ตรอกนอง","zipcode":"22110"},{"name":"เกวียนหัก","zipcode":"22110"},{"name":"มาบไพ","zipcode":"22110"},{"name":"ขลุง","zipcode":"22110"},{"name":"วันยาว","zipcode":"22110"}]},{"name":"ท่าใหม่","subdistricts":[{"name":"เขาวัว","zipcode":"22120"},{"name":"โขมง","zipcode":"22170"},{"name":"บ่อพุ","zipcode":"22120"},{"name":"ทุ่งเบญจา","zipcode":"22170"},{"name":"ยายร้า","zipcode":"22120"},{"name":"เขาแก้ว","zipcode":"22170"},{"name":"เขาบายศรี","zipcode":"22120"},{"name":"ตะกาดเง้า","zipcode":"22120"},{"name":"พลอยแหวน","zipcode":"22120"},{"name":"รำพัน","zipcode":"22170"},{"name":"สีพยา","zipcode":"22120"},{"name":"สองพี่น้อง","zipcode":"22120"},{"name":"ท่าใหม่","zipcode":"22120"},{"name":"คลองขุด","zipcode":"22120"}]},{"name":"นายายอาม","subdistricts":[{"name":"วังโตนด","zipcode":"22170"},{"name":"ช้างข้าม","zipcode":"22160"},{"name":"กระแจะ","zipcode":"22170"},{"name":"นายายอาม","zipcode":"22160"},{"name":"วังใหม่","zipcode":"22170"},{"name":"สนามไชย","zipcode":"22170"}]},{"name":"มะขาม","subdistricts":[{"name":"อ่างคีรี","zipcode":"22150"},{"name":"วังแซ้ม","zipcode":"22150"},{"name":"ท่าหลวง","zipcode":"22150"},{"name":"ฉมัน","zipcode":"22150"},{"name":"ปัถวี","zipcode":"22150"},{"name":"มะขาม","zipcode":"22150"}]},{"name":"สอยดาว","subdistricts":[{"name":"สะตอน","zipcode":"22180"},{"name":"ทับช้าง","zipcode":"22180"},{"name":"ปะตง","zipcode":"22180"},{"name":"ทรายขาว","zipcode":"22180"},{"name":"ทุ่งขนาน","zipcode":"22180"}]},{"name":"เขาคิชฌกูฏ","subdistricts":[{"name":"ตะเคียนทอง","zipcode":"22210"},{"name":"ชากไทย","zipcode":"22210"},{"name":"คลองพลู","zipcode":"22210"},{"name":"พลวง","zipcode":"22210"},{"name":"จันทเขลม","zipcode":"22210"}]},{"name":"เมืองจันทบุรี","subdistricts":[{"name":"หนองบัว","zipcode":"22000"},{"name":"คลองนารายณ์","zipcode":"22000"},{"name":"บางกะจะ","zipcode":"22000"},{"name":"ตลาด","zipcode":"22000"},{"name":"ท่าช้าง","zipcode":"22000"},{"name":"พลับพลา","zipcode":"22000"},{"name":"เกาะขวาง","zipcode":"22000"},{"name":"แสลง","zipcode":"22000"},{"name":"วัดใหม่","zipcode":"22000"},{"name":"จันทนิมิต","zipcode":"22000"},{"name":"คมบาง","zipcode":"22000"}]},{"name":"แก่งหางแมว","subdistricts":[{"name":"เขาวงกต","zipcode":"22160"},{"name":"สามพี่น้อง","zipcode":"22160"},{"name":"แก่งหางแมว","zipcode":"22160"},{"name":"พวา","zipcode":"22160"},{"name":"ขุนซ่อง","zipcode":"22160"}]},{"name":"แหลมสิงห์","subdistricts":[{"name":"บางกะไชย","zipcode":"22120"},{"name":"คลองน้ำเค็ม","zipcode":"22190"},{"name":"หนองชิ่ม","zipcode":"22130"},{"name":"ปากน้ำแหลมสิงห์","zipcode":"22130"},{"name":"บางสระเก้า","zipcode":"22190"},{"name":"พลิ้ว","zipcode":"22190"},{"name":"เกาะเปริด","zipcode":"22130"}]},{"name":"โป่งน้ำร้อน","subdistricts":[{"name":"เทพนิมิต","zipcode":"22140"},{"name":"โป่งน้ำร้อน","zipcode":"22140"},{"name":"คลองใหญ่","zipcode":"22140"},{"name":"หนองตาคง","zipcode":"22140"},{"name":"ทับไทร","zipcode":"22140"}]}]}
