{"province_id":14,"province_name":"ตราด","districts":[{"name":"คลองใหญ่","subdistricts":[{"name":"หาดเล็ก","zipcode":"23110"},{"name":"คลองใหญ่","zipcode":"23110"},{"name":"ไม้รูด","zipcode":"23110"}]},{"name":"บ่อไร่","subdistricts":[{"name":"หนองบอน","zipcode":"23140"},{"name":"ช้างทูน","zipcode":"23140"},{"name":"นนทรีย์","zipcode":"23140"},{"name":"ด่านชุมพล","zipcode":"23140"},{"name":"บ่อพลอย","zipcode":"23140"}]},{"name":"เกาะกูด","subdistricts":[{"name":"เกาะกูด","zipcode":"23000"},{"name":"เกาะหมาก","zipcode":"23000"}]},{"name":"เกาะช้าง","subdistricts":[{"name":"เกาะช้าง","zipcode":"23170"},{"name":"เกาะช้างใต้","zipcode":"23170"}]},{"name":"เขาสมิง","subdistricts":[{"name":"สะตอ","zipcode":"23150"},{"name":"วังตะเคียน","zipcode":"23130"},{"name":"ทุ่งนนทรี","zipcode":"23130"},{"name":"เขาสมิง","zipcode":"23130"},{"name":"ประณีต","zipcode":"23150"},{"name":"ท่าโสม","zipcode":"23150"},{"name":"แสนตุ้ง","zipcode":"23150"},{"name":"เทพนิมิต","zipcode":"23150"}]},{"name":"เมืองตราด","subdistricts":[{"name":"ท่าพริก","zipcode":"23000"},{"name":"หนองโสน","zipcode":"23000"},{"name":"ห้วยแร้ง","zipcode":"23000"},{"name":"บางพระ","zipcode":"23000"},{"name":"ชำราก","zipcode":"23000"},{"name":"อ่าวใหญ่","zipcode":"23000"},{"name":"ท่ากุ่ม","zipcode":"23000"},{"name":"หนองคันทรง","zipcode":"23000"},{"name":"เนินทราย","zipcode":"23000"},{"name":"หนองเสม็ด","zipcode":"23000"},{"name":"แหลมกลัด","zipcode":"23000"},{"name":"วังกระแจะ","zipcode":"23000"},{"name":"ตะกาง","zipcode":"23000"},{"name":"ห้วงน้ำขาว","zipcode":"23000"}]},{"name":"แหลมงอบ","subdistricts":[{"name":"คลองใหญ่","zipcode":"23120"},{"name":"น้ำเชี่ยว","zipcode":"23120"},{"name":"บางปิด","zipcode":"23120"},{"name":"แหลมงอบ","zipcode":"23120"}]}]}
