{"province_id":15,"province_name":"ฉะเชิงเทรา","districts":[{"name":"คลองเขื่อน","subdistricts":[{"name":"บางตลาด","zipcode":"24110"},{"name":"บางเล่า","zipcode":"24000"},{"name":"ก้อนแก้ว","zipcode":"24000"},{"name":"บางโรง","zipcode":"24000"},{"name":"คลองเขื่อน","zipcode":"24000"}]},{"name":"ท่าตะเกียบ","subdistricts":[{"name":"คลองตะเกรา","zipcode":"24160"},{"name":"ท่าตะเกียบ","zipcode":"24160"}]},{"name":"บางคล้า","subdistricts":[{"name":"ท่าทองหลาง","zipcode":"24110"},{"name":"บางกระเจ็ด","zipcode":"24110"},{"name":"เสม็ดใต้","zipcode":"24110"},{"name":"บางคล้า","zipcode":"24110"},{"name":"สาวชะโงก","zipcode":"24110"},{"name":"ปากน้ำ","zipcode":"24110"},{"name":"หัวไทร","zipcode":"24110"},{"name":"บางสวน","zipcode":"24110"},{"name":"เสม็ดเหนือ","zipcode":"24110"}]},{"name":"บางน้ำเปรี้ยว","subdistricts":[{"name":"ดอนฉิมพลี","zipcode":"24170"},{"name":"บางน้ำเปรี้ยว","zipcode":"24150"},{"name":"ดอนเกาะกา","zipcode":"24170"},{"name":"หมอนทอง","zipcode":"24150"},{"name":"ศาลาแดง","zipcode":"24000"},{"name":"บางขนาก","zipcode":"24150"},{"name":"โยธะกา","zipcode":"24150"},{"name":"บึงน้ำรักษ์","zipcode":"24170"},{"name":"โพรงอากาศ","zipcode":"24150"},{"name":"สิงโตทอง","zipcode":"24150"}]},{"name":"บางปะกง","subdistricts":[{"name":"บางผึ้ง","zipcode":"24130"},{"name":"ท่าข้าม","zipcode":"24130"},{"name":"บางวัว","zipcode":"24180"},{"name":"หนองจอก","zipcode":"24130"},{"name":"บางปะกง","zipcode":"24130"},{"name":"บางเกลือ","zipcode":"24180"},{"name":"หอมศีล","zipcode":"24180"},{"name":"บางสมัคร","zipcode":"24180"},{"name":"พิมพา","zipcode":"24130"},{"name":"ท่าสะอ้าน","zipcode":"24130"},{"name":"สองคลอง","zipcode":"24130"},{"name":"เขาดิน","zipcode":"24130"}]},{"name":"บ้านโพธิ์","subdistricts":[{"name":"บางกรูด","zipcode":"24140"},{"name":"คลองประเวศ","zipcode":"24140"},{"name":"สิบเอ็ดศอก","zipcode":"24140"},{"name":"หนองบัว","zipcode":"24140"},{"name":"คลองขุด","zipcode":"24140"},{"name":"สนามจันทร์","zipcode":"24140"},{"name":"ท่าพลับ","zipcode":"24140"},{"name":"บ้านโพธิ์","zipcode":"24140"},{"name":"แหลมประดู่","zipcode":"24140"},{"name":"ดอนทราย","zipcode":"24140"},{"name":"บางซ่อน","zipcode":"24140"},{"name":"คลองบ้านโพธิ์","zipcode":"24140"},{"name":"แสนภูดาษ","zipcode":"24140"},{"name":"หนองตีนนก","zipcode":"24140"},{"name":"เกาะไร่","zipcode":"24140"},{"name":"ลาดขวาง","zipcode":"24140"},{"name":"เทพราช","zipcode":"24140"}]},{"name":"พนมสารคาม","subdistricts":[{"name":"บ้านซ่อง","zipcode":"24120"},{"name":"หนองแหน","zipcode":"24120"},{"name":"หนองยาว","zipcode":"24120"},{"name":"พนมสารคาม","zipcode":"24120"},{"name":"เขาหินซ้อน","zipcode":"24120"},{"name":"เกาะขนุน","zipcode":"24120"},{"name":"ท่าถ่าน","zipcode":"24120"},{"name":"เมืองเก่า","zipcode":"24120"}]},{"name":"ราชสาส์น","subdistricts":[{"name":"เมืองใหม่","zipcode":"24120"},{"name":"ดงน้อย","zipcode":"24120"},{"name":"บางคา","zipcode":"24120"}]},{"name":"สนามชัยเขต","subdistricts":[{"name":"ทุ่งพระยา","zipcode":"24160"},{"name":"คู้ยายหมี","zipcode":"24160"},{"name":"ลาดกระทิง","zipcode":"24160"},{"name":"ท่ากระดาน","zipcode":"24160"}]},{"name":"เมืองฉะเชิงเทรา","subdistricts":[{"name":"บางตีนเป็ด","zipcode":"24000"},{"name":"คลองอุดมชลจร","zipcode":"24000"},{"name":"คลองนครเนื่องเขต","zipcode":"24000"},{"name":"บ้านใหม่","zipcode":"24000"},{"name":"หนามแดง","zipcode":"24000"},{"name":"บางแก้ว","zipcode":"24000"},{"name":"หน้าเมือง","zipcode":"24000"},{"name":"บางพระ","zipcode":"24000"},{"name":"บางไผ่","zipcode":"24000"},{"name":"คลองหลวงแพ่ง","zipcode":"24000"},{"name":"วังตะเคียน","zipcode":"24000"},{"name":"คลองนา","zipcode":"24000"},{"name":"คลองเปรง","zipcode":"24000"},{"name":"บางขวัญ","zipcode":"24000"},{"name":"ท่าไข่","zipcode":"24000"},{"name":"บางกะไห","zipcode":"24000"},{"name":"คลองจุกกระเฌอ","zipcode":"24000"},{"name":"บางเตย","zipcode":"24000"},{"name":"โสธร","zipcode":"24000"}]},{"name":"แปลงยาว","subdistricts":[{"name":"หนองไม้แก่น","zipcode":"24190"},{"name":"วังเย็น","zipcode":"24190"},{"name":"หัวสำโรง","zipcode":"24190"},{"name":"แปลงยาว","zipcode":"24190"}]}]}
