{"province_id":16,"province_name":"ปราจีนบุรี","districts":[{"name":"กบินทร์บุรี","subdistricts":[{"name":"ลาดตะเคียน","zipcode":"25110"},{"name":"กบินทร์","zipcode":"25110"},{"name":"เขาไม้แก้ว","zipcode":"25110"},{"name":"วังตะเคียน","zipcode":"25110"},{"name":"หนองกี่","zipcode":"25110"},{"name":"นนทรี","zipcode":"25110"},{"name":"บ้านนา","zipcode":"25110"},{"name":"เมืองเก่า","zipcode":"25240"},{"name":"วังท่าช้าง","zipcode":"25110"},{"name":"หาดนางแก้ว","zipcode":"25110"},{"name":"นาแขม","zipcode":"25110"},{"name":"ย่านรี","zipcode":"25110"},{"name":"บ่อทอง","zipcode":"25110"},{"name":"วังดาล","zipcode":"25110"}]},{"name":"นาดี","subdistricts":[{"name":"นาดี","zipcode":"25220"},{"name":"บุพราหมณ์","zipcode":"25220"},{"name":"ทุ่งโพธิ์","zipcode":"25220"},{"name":"สำพันตา","zipcode":"25220"},{"name":"แก่งดินสอ","zipcode":"25220"},{"name":"สะพานหิน","zipcode":"25220"}]},{"name":"บ้านสร้าง","subdistricts":[{"name":"บางปลาร้า","zipcode":"25150"},{"name":"บางแตน","zipcode":"25150"},{"name":"บางเตย","zipcode":"25150"},{"name":"บางขาม","zipcode":"25150"},{"name":"บ้านสร้าง","zipcode":"25150"},{"name":"บางพลวง","zipcode":"25150"},{"name":"บางยาง","zipcode":"25150"},{"name":"กระทุ่มแพ้ว","zipcode":"25150"},{"name":"บางกระเบา","zipcode":"25150"}]},{"name":"ประจันตคาม","subdistricts":[{"name":"ดงบัง","zipcode":"25130"},{"name":"บ้านหอย","zipcode":"25130"},{"name":"หนองแก้ว","zipcode":"25130"},{"name":"ประจันตคาม","zipcode":"25130"},{"name":"คำโตนด","zipcode":"25130"},{"name":"หนองแสง","zipcode":"25130"},{"name":"โพธิ์งาม","zipcode":"25130"},{"name":"เกาะลอย","zipcode":"25130"},{"name":"บุฝ้าย","zipcode":"25130"}]},{"name":"ศรีมหาโพธิ","subdistricts":[{"name":"หัวหว้า","zipcode":"25140"},{"name":"ศรีมหาโพธิ","zipcode":"25140"},{"name":"ดงกระทงยาม","zipcode":"25140"},{"name":"ท่าตูม","zipcode":"25140"},{"name":"หาดยาง","zipcode":"25140"},{"name":"สัมพันธ์","zipcode":"25140"},{"name":"หนองโพรง","zipcode":"25140"},{"name":"บางกุ้ง","zipcode":"25140"},{"name":"กรอกสมบูรณ์","zipcode":"25140"},{"name":"บ้านทาม","zipcode":"25140"}]},{"name":"ศรีมโหสถ","subdistricts":[{"name":"คู้ลำพัน","zipcode":"25190"},{"name":"โคกปีบ","zipcode":"25190"},{"name":"ไผ่ชะเลือด","zipcode":"25190"},{"name":"โคกไทย","zipcode":"25190"}]},{"name":"เมืองปราจีนบุรี","subdistricts":[{"name":"ดงพระราม","zipcode":"25000"},{"name":"เนินหอม","zipcode":"25230"},{"name":"ท่างาม","zipcode":"25000"},{"name":"ไม้เค็ด","zipcode":"25230"},{"name":"วัดโบสถ์","zipcode":"25000"},{"name":"บ้านพระ","zipcode":"25230"},{"name":"หน้าเมือง","zipcode":"25000"},{"name":"โนนห้อม","zipcode":"25000"},{"name":"บางบริบูรณ์","zipcode":"25000"},{"name":"ดงขี้เหล็ก","zipcode":"25000"},{"name":"บางเดชะ","zipcode":"25000"},{"name":"โคกไม้ลาย","zipcode":"25230"},{"name":"รอบเมือง","zipcode":"25000"}]}]}
