{"province_id":17,"province_name":"นครนายก","districts":[{"name":"บ้านนา","subdistricts":[{"name":"พิกุลออก","zipcode":"26110"},{"name":"ทองหลาง","zipcode":"26110"},{"name":"ศรีกะอาง","zipcode":"26110"},{"name":"บ้านพริก","zipcode":"26110"},{"name":"ป่าขะ","zipcode":"26110"},{"name":"บ้านนา","zipcode":"26110"},{"name":"บางอ้อ","zipcode":"26110"},{"name":"อาษา","zipcode":"26110"},{"name":"เขาเพิ่ม","zipcode":"26110"},{"name":"บ้านพร้าว","zipcode":"26110"}]},{"name":"ปากพลี","subdistricts":[{"name":"นาหินลาด","zipcode":"26130"},{"name":"ท่าเรือ","zipcode":"26130"},{"name":"ปากพลี","zipcode":"26130"},{"name":"เกาะหวาย","zipcode":"26130"},{"name":"หนองแสง","zipcode":"26130"},{"name":"โคกกรวด","zipcode":"26130"},{"name":"เกาะโพธิ์","zipcode":"26130"}]},{"name":"องครักษ์","subdistricts":[{"name":"องครักษ์","zipcode":"26120"},{"name":"บึงศาล","zipcode":"26120"},{"name":"บางปลากด","zipcode":"26120"},{"name":"บางสมบูรณ์","zipcode":"26120"},{"name":"ชุมพล","zipcode":"26120"},{"name":"ศีรษะกระบือ","zipcode":"26120"},{"name":"บางลูกเสือ","zipcode":"26120"},{"name":"พระอาจารย์","zipcode":"26120"},{"name":"ทรายมูล","zipcode":"26120"},{"name":"คลองใหญ่","zipcode":"26120"},{"name":"โพธิ์แทน","zipcode":"26120"}]},{"name":"เมืองนครนายก","subdistricts":[{"name":"นครนายก","zipcode":"26000"},{"name":"พรหมณี","zipcode":"26000"},{"name":"ดอนยอ","zipcode":"26000"},{"name":"หินตั้ง","zipcode":"26000"},{"name":"วังกระโจม","zipcode":"26000"},{"name":"ศรีนาวา","zipcode":"26000"},{"name":"ท่าช้าง","zipcode":"26000"},{"name":"ศรีจุฬา","zipcode":"26000"},{"name":"เขาพระ","zipcode":"26000"},{"name":"ท่าทราย","zipcode":"26000"},{"name":"สาริกา","zipcode":"26000"},{"name":"บ้านใหญ่","zipcode":"26000"},{"name":"ดงละคร","zipcode":"26000"}]}]}
