{"province_id":18,"province_name":"สระแก้ว","districts":[{"name":"คลองหาด","subdistricts":[{"name":"ไทยอุดม","zipcode":"27260"},{"name":"ไทรทอง","zipcode":"27260"},{"name":"คลองไก่เถื่อน","zipcode":"27260"},{"name":"ซับมะกรูด","zipcode":"27260"},{"name":"คลองหาด","zipcode":"27260"},{"name":"เบญจขร","zipcode":"27260"},{"name":"ไทรเดี่ยว","zipcode":"27260"}]},{"name":"ตาพระยา","subdistricts":[{"name":"ทัพเสด็จ","zipcode":"27180"},{"name":"โคคลาน","zipcode":"27180"},{"name":"ทัพราช","zipcode":"27180"},{"name":"ตาพระยา","zipcode":"27180"},{"name":"ทัพไทย","zipcode":"27180"}]},{"name":"วังน้ำเย็น","subdistricts":[{"name":"ทุ่งมหาเจริญ","zipcode":"27210"},{"name":"ตาหลังใน","zipcode":"27210"},{"name":"คลองหินปูน","zipcode":"27210"},{"name":"วังน้ำเย็น","zipcode":"27210"}]},{"name":"วังสมบูรณ์","subdistricts":[{"name":"วังใหม่","zipcode":"27250"},{"name":"วังทอง","zipcode":"27250"},{"name":"วังสมบูรณ์","zipcode":"27250"}]},{"name":"วัฒนานคร","subdistricts":[{"name":"หนองน้ำใส","zipcode":"27160"},{"name":"หนองตะเคียนบอน","zipcode":"27160"},{"name":"ผักขะ","zipcode":"27160"},{"name":"แซร์ออ","zipcode":"27160"},{"name":"วัฒนานคร","zipcode":"27160"},{"name":"ช่องกุ่ม","zipcode":"27160"},{"name":"ห้วยโจด","zipcode":"27160"},{"name":"โนนหมากเค็ง","zipcode":"27160"},{"name":"หนองหมากฝ้าย","zipcode":"27160"},{"name":"ท่าเกวียน","zipcode":"27160"},{"name":"หนองแวง","zipcode":"27160"}]},{"name":"อรัญประเทศ","subdistricts":[{"name":"บ้านใหม่หนองไทร","zipcode":"27120"},{"name":"อรัญประเทศ","zipcode":"27120"},{"name":"บ้านด่าน","zipcode":"27120"},{"name":"ป่าไร่","zipcode":"27120"},{"name":"คลองทับจันทร์","zipcode":"27120"},{"name":"คลองน้ำใส","zipcode":"27120"},{"name":"ผ่านศึก","zipcode":"27120"},{"name":"เมืองไผ่","zipcode":"27120"},{"name":"ทับพริก","zipcode":"27120"},{"name":"ฟากห้วย","zipcode":"27120"},{"name":"ท่าข้าม","zipcode":"27120"},{"name":"หนองสังข์","zipcode":"27120"},{"name":"หันทราย","zipcode":"27120"}]},{"name":"เขาฉกรรจ์","subdistricts":[{"name":"หนองหว้า","zipcode":"27000"},{"name":"พระเพลิง","zipcode":"27000"},{"name":"เขาฉกรรจ์","zipcode":"27000"},{"name":"เขาสามสิบ","zipcode":"27000"}]},{"name":"เมืองสระแก้ว","subdistricts":[{"name":"ท่าแยก","zipcode":"27000"},{"name":"ศาลาลำดวน","zipcode":"27000"},{"name":"หนองบอน","zipcode":"27000"},{"name":"สระแก้ว","zipcode":"27000"},{"name":"ท่าเกษม","zipcode":"27000"},{"name":"โคกปี่ฆ้อง","zipcode":"27000"},{"name":"บ้านแก้ง","zipcode":"27000"},{"name":"สระขวัญ","zipcode":"27000"}]},{"name":"โคกสูง","subdistricts":[{"name":"หนองแวง","zipcode":"27180"},{"name":"โคกสูง","zipcode":"27120"},{"name":"โนนหมากมุ่น","zipcode":"27120"},{"name":"หนองม่วง","zipcode":"27180"}]}]}
