{"province_id":19,"province_name":"นครราชสีมา","districts":[{"name":"ขามทะเลสอ","subdistricts":[{"name":"บึงอ้อ","zipcode":"30280"},{"name":"พันดุง","zipcode":"30280"},{"name":"ขามทะเลสอ","zipcode":"30280"},{"name":"หนองสรวง","zipcode":"30280"},{"name":"โป่งแดง","zipcode":"30280"}]},{"name":"ขามสะแกแสง","subdistricts":[{"name":"ชีวึก","zipcode":"30290"},{"name":"โนนเมือง","zipcode":"30290"},{"name":"เมืองเกษตร","zipcode":"30290"},{"name":"พะงาด","zipcode":"30290"},{"name":"เมืองนาท","zipcode":"30290"},{"name":"ขามสะแกแสง","zipcode":"30290"},{"name":"หนองหัวฟาน","zipcode":"30290"}]},{"name":"คง","subdistricts":[{"name":"บ้านปรางค์","zipcode":"30260"},{"name":"ขามสมบูรณ์","zipcode":"30260"},{"name":"เทพาลัย","zipcode":"30260"},{"name":"โนนเต็ง","zipcode":"30260"},{"name":"เมืองคง","zipcode":"30260"},{"name":"หนองมะนาว","zipcode":"30260"},{"name":"ตาจั่น","zipcode":"30260"},{"name":"ดอนใหญ่","zipcode":"30260"},{"name":"คูขาด","zipcode":"30260"},{"name":"หนองบัว","zipcode":"30260"}]},{"name":"ครบุรี","subdistricts":[{"name":"โคกกระชาย","zipcode":"30250"},{"name":"ลำเพียก","zipcode":"30250"},{"name":"เฉลียง","zipcode":"30250"},{"name":"อรพิมพ์","zipcode":"30250"},{"name":"จระเข้หิน","zipcode":"30250"},{"name":"สระว่านพระยา","zipcode":"30250"},{"name":"ครบุรีใต้","zipcode":"30250"},{"name":"ครบุรี","zipcode":"30250"},{"name":"บ้านใหม่","zipcode":"30250"},{"name":"แชะ","zipcode":"30250"},{"name":"มาบตะโกเอน","zipcode":"30250"},{"name":"ตะแบกบาน","zipcode":"30250"}]},{"name":"จักราช","subdistricts":[{"name":"หนองขาม","zipcode":"30230"},{"name":"ศรีละกอ","zipcode":"30230"},{"name":"ทองหลาง","zipcode":"30230"},{"name":"หนองยาง","zipcode":"30230"},{"name":"จักราช","zipcode":"30230"},{"name":"หินโคน","zipcode":"30230"},{"name":"หนองงูเหลือม","zipcode":"30230"},{"name":"คลองเมือง","zipcode":"30230"},{"name":"สีสุก","zipcode":"30230"},{"name":"พระพุทธ","zipcode":"30230"},{"name":"ท่าช้าง","zipcode":"30230"},{"name":"หนองพลวง","zipcode":"30230"},{"name":"ช้างทอง","zipcode":"30230"}]},{"name":"ชุมพวง","subdistricts":[{"name":"ตลาดไทร","zipcode":"30270"},{"name":"หนองหลัก","zipcode":"30270"},{"name":"ท่าลาด","zipcode":"30270"},{"name":"โนนรัง","zipcode":"30270"},{"name":"ชุมพวง","zipcode":"30270"},{"name":"โนนยอ","zipcode":"30270"},{"name":"ช่องแมว","zipcode":"30270"},{"name":"ไพล","zipcode":"30270"},{"name":"สาหร่าย","zipcode":"30270"},{"name":"บ้านยาง","zipcode":"30270"},{"name":"ประสุข","zipcode":"30270"},{"name":"ขุย","zipcode":"30270"},{"name":"โนนตูม","zipcode":"30270"}]},{"name":"ด่านขุนทด","subdistricts":[{"name":"กุดพิมาน","zipcode":"30210"},{"name":"หินดาด","zipcode":"30210"},{"name":"บ้านเก่า","zipcode":"30210"},{"name":"หนองบัวตะเกียด","zipcode":"30210"},{"name":"ด่านใน","zipcode":"30210"},{"name":"หนองไทร","zipcode":"36220"},{"name":"สระจรเข้","zipcode":"30210"},{"name":"ด่านขุนทด","zipcode":"30210"},{"name":"ห้วยบง","zipcode":"30210"},{"name":"บ้านแปรง","zipcode":"36220"},{"name":"หนองบัวละคร","zipcode":"30210"},{"name":"ตะเคียน","zipcode":"30210"},{"name":"หนองกราด","zipcode":"30210"},{"name":"ด่านนอก","zipcode":"30210"},{"name":"โนนเมืองพัฒนา","zipcode":"30210"},{"name":"พันชนะ","zipcode":"30210"}]},{"name":"บัวลาย","subdistricts":[{"name":"เมืองพะไล","zipcode":"30120"},{"name":"หนองหว้า","zipcode":"30120"},{"name":"โนนจาน","zipcode":"30120"},{"name":"บัวลาย","zipcode":"30120"}]},{"name":"บัวใหญ่","subdistricts":[{"name":"กุดจอก","zipcode":"30120"},{"name":"ดอนตะหนิน","zipcode":"30120"},{"name":"หนองตาดใหญ่","zipcode":"30120"},{"name":"สีดา","zipcode":"30120"},{"name":"ห้วยยาง","zipcode":"30120"},{"name":"สามเมือง","zipcode":"30120"},{"name":"หนองหว้า","zipcode":"30120"},{"name":"หนองแจ้งใหญ่","zipcode":"30120"},{"name":"ด่านช้าง","zipcode":"30120"},{"name":"หนองบัวสะอาด","zipcode":"30120"},{"name":"เมืองพะไล","zipcode":"30120"},{"name":"โพนทอง","zipcode":"30120"},{"name":"เสมาใหญ่","zipcode":"30120"},{"name":"ขุนทอง","zipcode":"30120"},{"name":"บัวลาย","zipcode":"30120"},{"name":"บัวใหญ่","zipcode":"30120"},{"name":"โนนจาน","zipcode":"30120"},{"name":"โนนทองหลาง","zipcode":"30120"},{"name":"โนนประดู่","zipcode":"30120"}]},{"name":"บ้านเหลื่อม","subdistricts":[{"name":"วังโพธิ์","zipcode":"30350"},{"name":"โคกกระเบื้อง","zipcode":"30350"},{"name":"บ้านเหลื่อม","zipcode":"30350"},{"name":"ช่อระกา","zipcode":"30350"}]},{"name":"ประทาย","subdistricts":[{"name":"ทุ่งสว่าง","zipcode":"30180"},{"name":"ตลาดไทร","zipcode":"30180"},{"name":"นางรำ","zipcode":"30180"},{"name":"กระทุ่มราย","zipcode":"30180"},{"name":"หันห้วยทราย","zipcode":"30180"},{"name":"โคกกลาง","zipcode":"30180"},{"name":"หนองพลวง","zipcode":"30180"},{"name":"โนนเพ็ด","zipcode":"30180"},{"name":"วังไม้แดง","zipcode":"30180"},{"name":"ดอนมัน","zipcode":"30180"},{"name":"ประทาย","zipcode":"30180"},{"name":"เมืองโดน","zipcode":"30180"},{"name":"หนองค่าย","zipcode":"30180"}]},{"name":"ปักธงชัย","subdistricts":[{"name":"ตะขบ","zipcode":"30150"},{"name":"สะแกราช","zipcode":"30150"},{"name":"โคกไทย","zipcode":"30150"},{"name":"เกษมทรัพย์","zipcode":"30150"},{"name":"ตูม","zipcode":"30150"},{"name":"เมืองปัก","zipcode":"30150"},{"name":"ธงชัยเหนือ","zipcode":"30150"},{"name":"นกออก","zipcode":"30150"},{"name":"ลำนางแก้ว","zipcode":"30150"},{"name":"สำโรง","zipcode":"30150"},{"name":"บ่อปลาทอง","zipcode":"30150"},{"name":"งิ้ว","zipcode":"30150"},{"name":"ตะคุ","zipcode":"30150"},{"name":"สุขเกษม","zipcode":"30150"},{"name":"ดอน","zipcode":"30150"},{"name":"ภูหลวง","zipcode":"30150"}]},{"name":"ปากช่อง","subdistricts":[{"name":"คลองม่วง","zipcode":"30130"},{"name":"กลางดง","zipcode":"30320"},{"name":"ขนงพระ","zipcode":"30130"},{"name":"พญาเย็น","zipcode":"30320"},{"name":"หมูสี","zipcode":"30130"},{"name":"หนองน้ำแดง","zipcode":"30130"},{"name":"จันทึก","zipcode":"30130"},{"name":"โป่งตาลอง","zipcode":"30130"},{"name":"ปากช่อง","zipcode":"30130"},{"name":"หนองสาหร่าย","zipcode":"30130"},{"name":"วังไทร","zipcode":"30130"},{"name":"วังกะทะ","zipcode":"30130"}]},{"name":"พระทองคำ","subdistricts":[{"name":"พังเทียม","zipcode":"30220"},{"name":"สระพระ","zipcode":"30220"},{"name":"ทัพรั้ง","zipcode":"30220"},{"name":"มาบกราด","zipcode":"30220"},{"name":"หนองหอย","zipcode":"30220"}]},{"name":"พิมาย","subdistricts":[{"name":"นิคมสร้างตนเอง","zipcode":"30110"},{"name":"ในเมือง","zipcode":"30110"},{"name":"รังกาใหญ่","zipcode":"30110"},{"name":"ธารละหลอด","zipcode":"30110"},{"name":"กระเบื้องใหญ่","zipcode":"30110"},{"name":"กระชอน","zipcode":"30110"},{"name":"สัมฤทธิ์","zipcode":"30110"},{"name":"ชีวาน","zipcode":"30110"},{"name":"หนองระเวียง","zipcode":"30110"},{"name":"ท่าหลวง","zipcode":"30110"},{"name":"ดงใหญ่","zipcode":"30110"},{"name":"โบสถ์","zipcode":"30110"}]},{"name":"ลำทะเมนชัย","subdistricts":[{"name":"ช่องแมว","zipcode":"30270"},{"name":"ขุย","zipcode":"30270"},{"name":"ไพล","zipcode":"30270"},{"name":"บ้านยาง","zipcode":"30270"}]},{"name":"วังน้ำเขียว","subdistricts":[{"name":"อุดมทรัพย์","zipcode":"30370"},{"name":"วังหมี","zipcode":"30370"},{"name":"ไทยสามัคคี","zipcode":"30370"},{"name":"ระเริง","zipcode":"30150"},{"name":"วังน้ำเขียว","zipcode":"30370"}]},{"name":"สีคิ้ว","subdistricts":[{"name":"มิตรภาพ","zipcode":"30140"},{"name":"บ้านหัน","zipcode":"30140"},{"name":"หนองน้ำใส","zipcode":"30140"},{"name":"หนองบัวน้อย","zipcode":"30140"},{"name":"หนองหญ้าขาว","zipcode":"30140"},{"name":"คลองไผ่","zipcode":"30340"},{"name":"กฤษณา","zipcode":"30140"},{"name":"วังโรงใหญ่","zipcode":"30140"},{"name":"สีคิ้ว","zipcode":"30140"},{"name":"กุดน้อย","zipcode":"30140"},{"name":"ดอนเมือง","zipcode":"30140"},{"name":"ลาดบัวขาว","zipcode":"30340"}]},{"name":"สีดา","subdistricts":[{"name":"สามเมือง","zipcode":"30430"},{"name":"โพนทอง","zipcode":"30430"},{"name":"หนองตาดใหญ่","zipcode":"30430"},{"name":"โนนประดู่","zipcode":"30430"},{"name":"สีดา","zipcode":"30430"}]},{"name":"สูงเนิน","subdistricts":[{"name":"บุ่งขี้เหล็ก","zipcode":"30170"},{"name":"กุดจิก","zipcode":"30380"},{"name":"เสมา","zipcode":"30170"},{"name":"นากลาง","zipcode":"30380"},{"name":"มะเกลือเก่า","zipcode":"30170"},{"name":"โนนค่า","zipcode":"30170"},{"name":"โคราช","zipcode":"30170"},{"name":"หนองตะไก้","zipcode":"30380"},{"name":"สูงเนิน","zipcode":"30170"},{"name":"มะเกลือใหม่","zipcode":"30170"},{"name":"โค้งยาง","zipcode":"30170"}]},{"name":"หนองบุญมาก","subdistricts":[{"name":"หนองหัวแรต","zipcode":"30410"},{"name":"บ้านใหม่","zipcode":"30410"},{"name":"สารภี","zipcode":"30410"},{"name":"ลุงเขว้า","zipcode":"30410"},{"name":"แหลมทอง","zipcode":"30410"},{"name":"ไทยเจริญ","zipcode":"30410"},{"name":"หนองไม้ไผ่","zipcode":"30410"},{"name":"หนองบุนนาก","zipcode":"30410"},{"name":"หนองตะไก้","zipcode":"30410"}]},{"name":"ห้วยแถลง","subdistricts":[{"name":"หลุ่งประดู่","zipcode":"30240"},{"name":"ห้วยแถลง","zipcode":"30240"},{"name":"งิ้ว","zipcode":"30240"},{"name":"หลุ่งตะเคียน","zipcode":"30240"},{"name":"ตะโก","zipcode":"30240"},{"name":"ทับสวาย","zipcode":"30240"},{"name":"กงรถ","zipcode":"30240"},{"name":"หินดาด","zipcode":"30240"},{"name":"ห้วยแคน","zipcode":"30240"},{"name":"เมืองพลับพลา","zipcode":"30240"}]},{"name":"เฉลิมพระเกียรติ","subdistricts":[{"name":"หนองงูเหลือม","zipcode":"30000"},{"name":"ท่าช้าง","zipcode":"30230"},{"name":"หนองยาง","zipcode":"30230"},{"name":"พระพุทธ","zipcode":"30230"},{"name":"ช้างทอง","zipcode":"30230"}]},{"name":"เทพารักษ์","subdistricts":[{"name":"วังยายทอง","zipcode":"30210"},{"name":"หนองแวง","zipcode":"30210"},{"name":"บึงปรือ","zipcode":"30210"},{"name":"สำนักตะคร้อ","zipcode":"30210"}]},{"name":"เมืองนครราชสีมา","subdistricts":[{"name":"หนองไผ่ล้อม","zipcode":"30000"},{"name":"หนองจะบก","zipcode":"30000"},{"name":"ตลาด","zipcode":"30310"},{"name":"บ้านโพธิ์","zipcode":"30310"},{"name":"หมื่นไวย","zipcode":"30000"},{"name":"ในเมือง","zipcode":"30000"},{"name":"สุรนารี","zipcode":"30000"},{"name":"บ้านใหม่","zipcode":"30000"},{"name":"หนองระเวียง","zipcode":"30000"},{"name":"หนองไข่น้ำ","zipcode":"30310"},{"name":"ไชยมงคล","zipcode":"30000"},{"name":"หัวทะเล","zipcode":"30000"},{"name":"โคกสูง","zipcode":"30310"},{"name":"พะเนา","zipcode":"30000"},{"name":"จอหอ","zipcode":"30310"},{"name":"พลกรัง","zipcode":"30000"},{"name":"โพธิ์กลาง","zipcode":"30000"},{"name":"สีมุม","zipcode":"30000"},{"name":"พุดซา","zipcode":"30000"},{"name":"ปรุใหญ่","zipcode":"30000"},{"name":"หนองบัวศาลา","zipcode":"30000"},{"name":"บ้านเกาะ","zipcode":"30000"},{"name":"มะเริง","zipcode":"30000"},{"name":"หนองกระทุ่ม","zipcode":"30000"},{"name":"โคกกรวด","zipcode":"30280"}]},{"name":"เมืองยาง","subdistricts":[{"name":"กระเบื้องนอก","zipcode":"30270"},{"name":"ละหานปลาค้าว","zipcode":"30270"},{"name":"เมืองยาง","zipcode":"30270"},{"name":"โนนอุดม","zipcode":"30270"}]},{"name":"เสิงสาง","subdistricts":[{"name":"บ้านราษฎร์","zipcode":"30330"},{"name":"กุดโบสถ์","zipcode":"30330"},{"name":"สระตะเคียน","zipcode":"30330"},{"name":"สุขไพบูลย์","zipcode":"30330"},{"name":"โนนสมบูรณ์","zipcode":"30330"},{"name":"เสิงสาง","zipcode":"30330"}]},{"name":"แก้งสนามนาง","subdistricts":[{"name":"บึงสำโรง","zipcode":"30440"},{"name":"บึงพะไล","zipcode":"30440"},{"name":"แก้งสนามนาง","zipcode":"30440"},{"name":"สีสุก","zipcode":"30440"},{"name":"โนนสำราญ","zipcode":"30440"}]},{"name":"โชคชัย","subdistricts":[{"name":"ทุ่งอรุณ","zipcode":"30190"},{"name":"ละลมใหม่พัฒนา","zipcode":"30190"},{"name":"พลับพลา","zipcode":"30190"},{"name":"ท่าเยี่ยม","zipcode":"30190"},{"name":"ท่าลาดขาว","zipcode":"30190"},{"name":"ด่านเกวียน","zipcode":"30190"},{"name":"ท่าอ่าง","zipcode":"30190"},{"name":"โชคชัย","zipcode":"30190"},{"name":"กระโทก","zipcode":"30190"},{"name":"ท่าจะหลุง","zipcode":"30190"}]},{"name":"โนนสูง","subdistricts":[{"name":"ดอนหวาย","zipcode":"30160"},{"name":"มะค่า","zipcode":"30160"},{"name":"โนนสูง","zipcode":"30160"},{"name":"ลำคอหงษ์","zipcode":"30160"},{"name":"ธารปราสาท","zipcode":"30240"},{"name":"ขามเฒ่า","zipcode":"30160"},{"name":"บิง","zipcode":"30160"},{"name":"ลำมูล","zipcode":"30160"},{"name":"พลสงคราม","zipcode":"30160"},{"name":"ใหม่","zipcode":"30160"},{"name":"เมืองปราสาท","zipcode":"30160"},{"name":"หลุมข้าว","zipcode":"30160"},{"name":"ด่านคล้า","zipcode":"30160"},{"name":"ดอนชมพู","zipcode":"30160"},{"name":"จันอัด","zipcode":"30160"},{"name":"โตนด","zipcode":"30160"}]},{"name":"โนนแดง","subdistricts":[{"name":"โนนตาเถร","zipcode":"30360"},{"name":"ดอนยาวใหญ่","zipcode":"30360"},{"name":"สำพะเนียง","zipcode":"30360"},{"name":"โนนแดง","zipcode":"30360"},{"name":"วังหิน","zipcode":"30360"}]},{"name":"โนนไทย","subdistricts":[{"name":"สระพระ","zipcode":"30220"},{"name":"สำโรง","zipcode":"30220"},{"name":"ถนนโพธิ์","zipcode":"30220"},{"name":"ด่านจาก","zipcode":"30220"},{"name":"มะค่า","zipcode":"30220"},{"name":"บัลลังก์","zipcode":"30220"},{"name":"ทัพรั้ง","zipcode":"30220"},{"name":"ค้างพลู","zipcode":"30220"},{"name":"พังเทียม","zipcode":"30220"},{"name":"กำปัง","zipcode":"30220"},{"name":"มาบกราด","zipcode":"30220"},{"name":"สายออ","zipcode":"30220"},{"name":"โนนไทย","zipcode":"30220"},{"name":"หนองหอย","zipcode":"30220"},{"name":"บ้านวัง","zipcode":"30220"}]}]}
