{"province_id":2,"province_name":"สมุทรปราการ","districts":[{"name":"บางบ่อ","subdistricts":[{"name":"บางพลีน้อย","zipcode":"10560"},{"name":"บางบ่อ","zipcode":"10560"},{"name":"คลองนิยมยาตรา","zipcode":"10560"},{"name":"คลองสวน","zipcode":"10560"},{"name":"บางเพรียง","zipcode":"10560"},{"name":"บ้านระกาศ","zipcode":"10560"},{"name":"เปร็ง","zipcode":"10560"},{"name":"คลองด่าน","zipcode":"10550"}]},{"name":"บางพลี","subdistricts":[{"name":"บางแก้ว","zipcode":"10540"},{"name":"ราชาเทวะ","zipcode":"10540"},{"name":"บางปลา","zipcode":"10540"},{"name":"บางพลีใหญ่","zipcode":"10540"},{"name":"หนองปรือ","zipcode":"10540"},{"name":"บางโฉลง","zipcode":"10540"}]},{"name":"บางเสาธง","subdistricts":[{"name":"ศีรษะจรเข้ใหญ่","zipcode":"10540"},{"name":"บางเสาธง","zipcode":"10540"},{"name":"ศีรษะจรเข้น้อย","zipcode":"10540"}]},{"name":"พระประแดง","subdistricts":[{"name":"สำโรงกลาง","zipcode":"10130"},{"name":"บางยอ","zipcode":"10130"},{"name":"ตลาด","zipcode":"10130"},{"name":"ทรงคนอง","zipcode":"10130"},{"name":"บางหัวเสือ","zipcode":"10130"},{"name":"บางกระสอบ","zipcode":"10130"},{"name":"บางครุ","zipcode":"10130"},{"name":"บางกะเจ้า","zipcode":"10130"},{"name":"บางพึ่ง","zipcode":"10130"},{"name":"สำโรง","zipcode":"10130"},{"name":"สำโรงใต้","zipcode":"10130"},{"name":"บางกอบัว","zipcode":"10130"},{"name":"บางหญ้าแพรก","zipcode":"10130"},{"name":"บางน้ำผึ้ง","zipcode":"10130"},{"name":"บางจาก","zipcode":"10130"}]},{"name":"พระสมุทรเจดีย์","subdistricts":[{"name":"ในคลองบางปลากด","zipcode":"10290"},{"name":"แหลมฟ้าผ่า","zipcode":"10290"},{"name":"นาเกลือ","zipcode":"10290"},{"name":"ปากคลองบางปลากด","zipcode":"10290"},{"name":"บ้านคลองสวน","zipcode":"10290"}]},{"name":"เมืองสมุทรปราการ","subdistricts":[{"name":"บางด้วน","zipcode":"10270"},{"name":"สำโรงเหนือ","zipcode":"10270"},{"name":"บางโปรง","zipcode":"10270"},{"name":"ท้ายบ้านใหม่","zipcode":"10280"},{"name":"บางปูใหม่","zipcode":"10280"},{"name":"บางเมืองใหม่","zipcode":"10270"},{"name":"บางเมือง","zipcode":"10270"},{"name":"บางปู","zipcode":"10270"},{"name":"ปากน้ำ","zipcode":"10270"},{"name":"แพรกษาใหม่","zipcode":"10280"},{"name":"แพรกษา","zipcode":"10280"},{"name":"เทพารักษ์","zipcode":"10270"},{"name":"ท้ายบ้าน","zipcode":"10280"}]}]}
