{"province_id":20,"province_name":"บุรีรัมย์","districts":[{"name":"กระสัง","subdistricts":[{"name":"เมืองไผ่","zipcode":"31160"},{"name":"ศรีภูมิ","zipcode":"31160"},{"name":"สูงเนิน","zipcode":"31160"},{"name":"ห้วยสำราญ","zipcode":"31160"},{"name":"ลำดวน","zipcode":"31160"},{"name":"ชุมแสง","zipcode":"31160"},{"name":"หนองเต็ง","zipcode":"31160"},{"name":"กันทรารมย์","zipcode":"31160"},{"name":"สองชั้น","zipcode":"31160"},{"name":"บ้านปรือ","zipcode":"31160"},{"name":"กระสัง","zipcode":"31160"}]},{"name":"คูเมือง","subdistricts":[{"name":"ตูมใหญ่","zipcode":"31190"},{"name":"พรสำราญ","zipcode":"31190"},{"name":"ปะเคียบ","zipcode":"31190"},{"name":"หนองขมาร","zipcode":"31190"},{"name":"หินเหล็กไฟ","zipcode":"31190"},{"name":"บ้านแพ","zipcode":"31190"},{"name":"คูเมือง","zipcode":"31190"}]},{"name":"ชำนิ","subdistricts":[{"name":"ละลวด","zipcode":"31110"},{"name":"เมืองยาง","zipcode":"31110"},{"name":"ชำนิ","zipcode":"31110"},{"name":"โคกสนวน","zipcode":"31110"},{"name":"ช่อผกา","zipcode":"31110"},{"name":"หนองปล่อง","zipcode":"31110"}]},{"name":"นางรอง","subdistricts":[{"name":"สะเดา","zipcode":"31110"},{"name":"ทุ่งแสงทอง","zipcode":"31110"},{"name":"หนองไทร","zipcode":"31110"},{"name":"หนองยายพิมพ์","zipcode":"31110"},{"name":"หนองกง","zipcode":"31110"},{"name":"ลำไทรโยง","zipcode":"31110"},{"name":"ชุมแสง","zipcode":"31110"},{"name":"หนองโสน","zipcode":"31110"},{"name":"ก้านเหลือง","zipcode":"31110"},{"name":"นางรอง","zipcode":"31110"},{"name":"หัวถนน","zipcode":"31110"},{"name":"ถนนหัก","zipcode":"31110"},{"name":"ทรัพย์พระยา","zipcode":"31110"},{"name":"หนองโบสถ์","zipcode":"31110"},{"name":"บ้านสิงห์","zipcode":"31110"}]},{"name":"นาโพธิ์","subdistricts":[{"name":"นาโพธิ์","zipcode":"31230"},{"name":"ดอนกอก","zipcode":"31230"},{"name":"บ้านคู","zipcode":"31230"},{"name":"ศรีสว่าง","zipcode":"31230"},{"name":"บ้านดู่","zipcode":"31230"}]},{"name":"บ้านกรวด","subdistricts":[{"name":"สายตะกู","zipcode":"31180"},{"name":"หนองไม้งาม","zipcode":"31180"},{"name":"จันทบเพชร","zipcode":"31180"},{"name":"บ้านกรวด","zipcode":"31180"},{"name":"หินลาด","zipcode":"31180"},{"name":"ปราสาท","zipcode":"31180"},{"name":"เขาดินเหนือ","zipcode":"31180"},{"name":"โนนเจริญ","zipcode":"31180"},{"name":"บึงเจริญ","zipcode":"31180"}]},{"name":"บ้านด่าน","subdistricts":[{"name":"วังเหนือ","zipcode":"31000"},{"name":"บ้านด่าน","zipcode":"31000"},{"name":"โนนขวาง","zipcode":"31000"},{"name":"ปราสาท","zipcode":"31000"}]},{"name":"บ้านใหม่ไชยพจน์","subdistricts":[{"name":"กู่สวนแตง","zipcode":"31120"},{"name":"ทองหลาง","zipcode":"31120"},{"name":"หนองเยือง","zipcode":"31120"},{"name":"แดงใหญ่","zipcode":"31120"},{"name":"หนองแวง","zipcode":"31120"}]},{"name":"ประโคนชัย","subdistricts":[{"name":"ไพศาล","zipcode":"31140"},{"name":"แสลงโทน","zipcode":"31140"},{"name":"โคกตูม","zipcode":"31140"},{"name":"โคกย่าง","zipcode":"31140"},{"name":"หนองบอน","zipcode":"31140"},{"name":"จรเข้มาก","zipcode":"31140"},{"name":"ตะโกตาพิ","zipcode":"31140"},{"name":"บ้านไทร","zipcode":"31140"},{"name":"ประทัดบุ","zipcode":"31140"},{"name":"โคกม้า","zipcode":"31140"},{"name":"ประโคนชัย","zipcode":"31140"},{"name":"โคกมะขาม","zipcode":"31140"},{"name":"ปังกู","zipcode":"31140"},{"name":"เขาคอก","zipcode":"31140"},{"name":"ละเวี้ย","zipcode":"31140"},{"name":"สี่เหลี่ยม","zipcode":"31140"}]},{"name":"ปะคำ","subdistricts":[{"name":"ปะคำ","zipcode":"31220"},{"name":"โคกมะม่วง","zipcode":"31220"},{"name":"ไทยเจริญ","zipcode":"31220"},{"name":"หูทำนบ","zipcode":"31220"},{"name":"หนองบัว","zipcode":"31220"}]},{"name":"พลับพลาชัย","subdistricts":[{"name":"ป่าชัน","zipcode":"31250"},{"name":"จันดุม","zipcode":"31250"},{"name":"สะเดา","zipcode":"31250"},{"name":"โคกขมิ้น","zipcode":"31250"},{"name":"สำโรง","zipcode":"31250"}]},{"name":"พุทไธสง","subdistricts":[{"name":"บ้านจาน","zipcode":"31120"},{"name":"พุทไธสง","zipcode":"31120"},{"name":"บ้านยาง","zipcode":"31120"},{"name":"บ้านเป้า","zipcode":"31120"},{"name":"มะเฟือง","zipcode":"31120"},{"name":"หายโศก","zipcode":"31120"},{"name":"บ้านแวง","zipcode":"31120"}]},{"name":"ละหานทราย","subdistricts":[{"name":"ละหานทราย","zipcode":"31170"},{"name":"โคกว่าน","zipcode":"31170"},{"name":"หนองแวง","zipcode":"31170"},{"name":"ตาจง","zipcode":"31170"},{"name":"หนองตะครอง","zipcode":"31170"},{"name":"สำโรงใหม่","zipcode":"31170"}]},{"name":"ลำปลายมาศ","subdistricts":[{"name":"บ้านยาง","zipcode":"31130"},{"name":"แสลงพัน","zipcode":"31130"},{"name":"บุโพธิ์","zipcode":"31130"},{"name":"โคกสะอาด","zipcode":"31130"},{"name":"ลำปลายมาศ","zipcode":"31130"},{"name":"หินโคน","zipcode":"31130"},{"name":"หนองกะทิง","zipcode":"31130"},{"name":"ผไทรินทร์","zipcode":"31130"},{"name":"ทะเมนชัย","zipcode":"31130"},{"name":"หนองโดน","zipcode":"31130"},{"name":"เมืองแฝก","zipcode":"31130"},{"name":"หนองคู","zipcode":"31130"},{"name":"หนองบัวโคก","zipcode":"31130"},{"name":"โคกกลาง","zipcode":"31130"},{"name":"โคกล่าม","zipcode":"31130"},{"name":"ตลาดโพธิ์","zipcode":"31130"}]},{"name":"สตึก","subdistricts":[{"name":"ร่อนทอง","zipcode":"31150"},{"name":"สนามชัย","zipcode":"31150"},{"name":"เมืองแก","zipcode":"31150"},{"name":"ท่าม่วง","zipcode":"31150"},{"name":"นิคม","zipcode":"31150"},{"name":"ดอนมนต์","zipcode":"31150"},{"name":"กระสัง","zipcode":"31150"},{"name":"หนองใหญ่","zipcode":"31150"},{"name":"สะแก","zipcode":"31150"},{"name":"ทุ่งวัง","zipcode":"31150"},{"name":"ชุมแสง","zipcode":"31150"},{"name":"สตึก","zipcode":"31150"}]},{"name":"หนองกี่","subdistricts":[{"name":"ทุ่งกระตาดพัฒนา","zipcode":"31210"},{"name":"ดอนอะราง","zipcode":"31210"},{"name":"โคกสูง","zipcode":"31210"},{"name":"เย้ยปราสาท","zipcode":"31210"},{"name":"ทุ่งกระเต็น","zipcode":"31210"},{"name":"โคกสว่าง","zipcode":"31210"},{"name":"บุกระสัง","zipcode":"31210"},{"name":"เมืองไผ่","zipcode":"31210"},{"name":"ท่าโพธิ์ชัย","zipcode":"31210"},{"name":"หนองกี่","zipcode":"31210"}]},{"name":"หนองหงส์","subdistricts":[{"name":"ไทยสามัคคี","zipcode":"31240"},{"name":"สระแก้ว","zipcode":"31240"},{"name":"เมืองฝ้าย","zipcode":"31240"},{"name":"หนองชัยศรี","zipcode":"31240"},{"name":"ห้วยหิน","zipcode":"31240"},{"name":"สระทอง","zipcode":"31240"},{"name":"เสาเดียว","zipcode":"31240"}]},{"name":"ห้วยราช","subdistricts":[{"name":"สนวน","zipcode":"31000"},{"name":"ตาเสา","zipcode":"31000"},{"name":"ห้วยราชา","zipcode":"31000"},{"name":"ห้วยราช","zipcode":"31000"},{"name":"โคกเหล็ก","zipcode":"31000"},{"name":"บ้านตะโก","zipcode":"31000"},{"name":"สามแวง","zipcode":"31000"},{"name":"เมืองโพธิ์","zipcode":"31000"}]},{"name":"เฉลิมพระเกียรติ","subdistricts":[{"name":"ตาเป๊ก","zipcode":"31110"},{"name":"ยายแย้มวัฒนา","zipcode":"31170"},{"name":"อีสานเขต","zipcode":"31110"},{"name":"เจริญสุข","zipcode":"31110"},{"name":"ถาวร","zipcode":"31170"}]},{"name":"เมืองบุรีรัมย์","subdistricts":[{"name":"บัวทอง","zipcode":"31000"},{"name":"สวายจีก","zipcode":"31000"},{"name":"กระสัง","zipcode":"31000"},{"name":"ลุมปุ๊ก","zipcode":"31000"},{"name":"บ้านบัว","zipcode":"31000"},{"name":"สะแกซำ","zipcode":"31000"},{"name":"ถลุงเหล็ก","zipcode":"31000"},{"name":"อิสาณ","zipcode":"31000"},{"name":"ชุมเห็ด","zipcode":"31000"},{"name":"บ้านยาง","zipcode":"31000"},{"name":"เมืองฝาง","zipcode":"31000"},{"name":"สองห้อง","zipcode":"31000"},{"name":"สะแกโพรง","zipcode":"31000"},{"name":"กลันทา","zipcode":"31000"},{"name":"หนองตาด","zipcode":"31000"},{"name":"เสม็ด","zipcode":"31000"},{"name":"หลักเขต","zipcode":"31000"},{"name":"พระครู","zipcode":"31000"},{"name":"ในเมือง","zipcode":"31000"}]},{"name":"แคนดง","subdistricts":[{"name":"หัวฝาย","zipcode":"31150"},{"name":"ดงพลอง","zipcode":"31150"},{"name":"สระบัว","zipcode":"31150"},{"name":"แคนดง","zipcode":"31150"}]},{"name":"โนนดินแดง","subdistricts":[{"name":"โนนดินแดง","zipcode":"31260"},{"name":"ส้มป่อย","zipcode":"31260"},{"name":"ลำนางรอง","zipcode":"31260"}]},{"name":"โนนสุวรรณ","subdistricts":[{"name":"ทุ่งจังหัน","zipcode":"31110"},{"name":"โกรกแก้ว","zipcode":"31110"},{"name":"โนนสุวรรณ","zipcode":"31110"},{"name":"ดงอีจาน","zipcode":"31110"}]}]}
