{"province_id":21,"province_name":"สุรินทร์","districts":[{"name":"กาบเชิง","subdistricts":[{"name":"กาบเชิง","zipcode":"32210"},{"name":"ตะเคียน","zipcode":"32210"},{"name":"แนงมุด","zipcode":"32210"},{"name":"คูตัน","zipcode":"32210"},{"name":"โคกตะเคียน","zipcode":"32210"},{"name":"ด่าน","zipcode":"32210"}]},{"name":"จอมพระ","subdistricts":[{"name":"เป็นสุข","zipcode":"32180"},{"name":"เมืองลีง","zipcode":"32180"},{"name":"ลุ่มระวี","zipcode":"32180"},{"name":"หนองสนิท","zipcode":"32180"},{"name":"กระหาด","zipcode":"32180"},{"name":"ชุมแสง","zipcode":"32180"},{"name":"จอมพระ","zipcode":"32180"},{"name":"บ้านผือ","zipcode":"32180"},{"name":"บุแกรง","zipcode":"32180"}]},{"name":"ชุมพลบุรี","subdistricts":[{"name":"หนองเรือ","zipcode":"32190"},{"name":"นาหนองไผ่","zipcode":"32190"},{"name":"สระขุด","zipcode":"32190"},{"name":"ยะวึก","zipcode":"32190"},{"name":"ไพรขลา","zipcode":"32190"},{"name":"กระเบื้อง","zipcode":"32190"},{"name":"ชุมพลบุรี","zipcode":"32190"},{"name":"เมืองบัว","zipcode":"32190"},{"name":"ศรีณรงค์","zipcode":"32190"}]},{"name":"ท่าตูม","subdistricts":[{"name":"เมืองแก","zipcode":"32120"},{"name":"ทุ่งกุลา","zipcode":"32120"},{"name":"พรมเทพ","zipcode":"32120"},{"name":"บัวโคก","zipcode":"32120"},{"name":"ท่าตูม","zipcode":"32120"},{"name":"บะ","zipcode":"32120"},{"name":"โพนครก","zipcode":"32120"},{"name":"หนองเมธี","zipcode":"32120"},{"name":"กระโพ","zipcode":"32120"},{"name":"หนองบัว","zipcode":"32120"}]},{"name":"บัวเชด","subdistricts":[{"name":"อาโพน","zipcode":"32230"},{"name":"จรัส","zipcode":"32230"},{"name":"บัวเชด","zipcode":"32230"},{"name":"สำเภาลูน","zipcode":"32230"},{"name":"ตาวัง","zipcode":"32230"},{"name":"สะเดา","zipcode":"32230"}]},{"name":"ปราสาท","subdistricts":[{"name":"เชื้อเพลิง","zipcode":"32140"},{"name":"ทุ่งมน","zipcode":"32140"},{"name":"สมุด","zipcode":"32140"},{"name":"บ้านไทร","zipcode":"32140"},{"name":"ไพล","zipcode":"32140"},{"name":"บ้านพลวง","zipcode":"32140"},{"name":"โคกยาง","zipcode":"32140"},{"name":"กังแอน","zipcode":"32140"},{"name":"ปราสาททนง","zipcode":"32140"},{"name":"ตาเบา","zipcode":"32140"},{"name":"ประทัดบุ","zipcode":"32140"},{"name":"โชคนาสาม","zipcode":"32140"},{"name":"ปรือ","zipcode":"32140"},{"name":"กันตวจระมวล","zipcode":"32140"},{"name":"โคกสะอาด","zipcode":"32140"},{"name":"ทมอ","zipcode":"32140"},{"name":"ตานี","zipcode":"32140"},{"name":"หนองใหญ่","zipcode":"32140"}]},{"name":"พนมดงรัก","subdistricts":[{"name":"ตาเมียง","zipcode":"32140"},{"name":"โคกกลาง","zipcode":"32140"},{"name":"จีกแดก","zipcode":"32140"},{"name":"บักได","zipcode":"32140"}]},{"name":"รัตนบุรี","subdistricts":[{"name":"ไผ่","zipcode":"32130"},{"name":"ทับใหญ่","zipcode":"32130"},{"name":"หนองบัวทอง","zipcode":"32130"},{"name":"กุดขาคีม","zipcode":"32130"},{"name":"แก","zipcode":"32130"},{"name":"เบิด","zipcode":"32130"},{"name":"รัตนบุรี","zipcode":"32130"},{"name":"หนองบัวบาน","zipcode":"32130"},{"name":"ยางสว่าง","zipcode":"32130"},{"name":"ดอนแรด","zipcode":"32130"},{"name":"น้ำเขียว","zipcode":"32130"},{"name":"ธาตุ","zipcode":"32130"}]},{"name":"ลำดวน","subdistricts":[{"name":"ลำดวน","zipcode":"32220"},{"name":"ตรำดม","zipcode":"32220"},{"name":"โชคเหนือ","zipcode":"32220"},{"name":"ตระเปียงเตีย","zipcode":"32220"},{"name":"อู่โลก","zipcode":"32220"}]},{"name":"ศรีณรงค์","subdistricts":[{"name":"แจนแวน","zipcode":"32150"},{"name":"ศรีสุข","zipcode":"32150"},{"name":"ตรวจ","zipcode":"32150"},{"name":"ณรงค์","zipcode":"32150"},{"name":"หนองแวง","zipcode":"32150"}]},{"name":"ศีขรภูมิ","subdistricts":[{"name":"ตรึม","zipcode":"32110"},{"name":"หนองขวาว","zipcode":"32110"},{"name":"คาละแมะ","zipcode":"32110"},{"name":"ตรมไพร","zipcode":"32110"},{"name":"แตล","zipcode":"32110"},{"name":"ขวาวใหญ่","zipcode":"32110"},{"name":"จารพัต","zipcode":"32110"},{"name":"ช่างปี่","zipcode":"32110"},{"name":"ผักไหม","zipcode":"32110"},{"name":"ระแงง","zipcode":"32110"},{"name":"หนองเหล็ก","zipcode":"32110"},{"name":"หนองบัว","zipcode":"32110"},{"name":"นารุ่ง","zipcode":"32110"},{"name":"ยาง","zipcode":"32110"},{"name":"กุดหวาย","zipcode":"32110"}]},{"name":"สนม","subdistricts":[{"name":"โพนโก","zipcode":"32160"},{"name":"หนองอียอ","zipcode":"32160"},{"name":"แคน","zipcode":"32160"},{"name":"หนองระฆัง","zipcode":"32160"},{"name":"สนม","zipcode":"32160"},{"name":"หัวงัว","zipcode":"32160"},{"name":"นานวน","zipcode":"32160"}]},{"name":"สังขะ","subdistricts":[{"name":"กระเทียม","zipcode":"32150"},{"name":"บ้านชบ","zipcode":"32150"},{"name":"พระแก้ว","zipcode":"32150"},{"name":"ทับทัน","zipcode":"32150"},{"name":"ขอนแตก","zipcode":"32150"},{"name":"สะกาด","zipcode":"32150"},{"name":"เทพรักษา","zipcode":"32150"},{"name":"บ้านจารย์","zipcode":"32150"},{"name":"ตาคง","zipcode":"32150"},{"name":"ดม","zipcode":"32150"},{"name":"ตาตุม","zipcode":"32150"},{"name":"สังขะ","zipcode":"32150"}]},{"name":"สำโรงทาบ","subdistricts":[{"name":"เสม็จ","zipcode":"32170"},{"name":"สำโรงทาบ","zipcode":"32170"},{"name":"เกาะแก้ว","zipcode":"32170"},{"name":"หนองฮะ","zipcode":"32170"},{"name":"สะโน","zipcode":"32170"},{"name":"หนองไผ่ล้อม","zipcode":"32170"},{"name":"หมื่นศรี","zipcode":"32170"},{"name":"ศรีสุข","zipcode":"32170"},{"name":"ประดู่","zipcode":"32170"},{"name":"กระออม","zipcode":"32170"}]},{"name":"เขวาสินรินทร์","subdistricts":[{"name":"บึง","zipcode":"32000"},{"name":"บ้านแร่","zipcode":"32000"},{"name":"ตากูก","zipcode":"32000"},{"name":"เขวาสินรินทร์","zipcode":"32000"},{"name":"ปราสาททอง","zipcode":"32000"}]},{"name":"เมืองสุรินทร์","subdistricts":[{"name":"นาดี","zipcode":"32000"},{"name":"เมืองที","zipcode":"32000"},{"name":"แกใหญ่","zipcode":"32000"},{"name":"ตั้งใจ","zipcode":"32000"},{"name":"กาเกาะ","zipcode":"32000"},{"name":"เทนมีย์","zipcode":"32000"},{"name":"ตาอ็อง","zipcode":"32000"},{"name":"ตระแสง","zipcode":"32000"},{"name":"สวาย","zipcode":"32000"},{"name":"ท่าสว่าง","zipcode":"32000"},{"name":"ราม","zipcode":"32000"},{"name":"นอกเมือง","zipcode":"32000"},{"name":"เพี้ยราม","zipcode":"32000"},{"name":"นาบัว","zipcode":"32000"},{"name":"สำโรง","zipcode":"32000"},{"name":"ในเมือง","zipcode":"32000"},{"name":"แสลงพันธ์","zipcode":"32000"},{"name":"เฉนียง","zipcode":"32000"},{"name":"สลักได","zipcode":"32000"},{"name":"บุฤาษี","zipcode":"32000"},{"name":"คอโค","zipcode":"32000"}]},{"name":"โนนนารายณ์","subdistricts":[{"name":"ระเวียง","zipcode":"32130"},{"name":"คำผง","zipcode":"32130"},{"name":"หนองเทพ","zipcode":"32130"},{"name":"โนน","zipcode":"32130"},{"name":"หนองหลวง","zipcode":"32130"}]}]}
