{"province_id":22,"province_name":"ศรีสะเกษ","districts":[{"name":"กันทรลักษ์","subdistricts":[{"name":"ภูเงิน","zipcode":"33110"},{"name":"เมือง","zipcode":"33110"},{"name":"เสาธงชัย","zipcode":"33110"},{"name":"ตระกาจ","zipcode":"33110"},{"name":"บึงมะลู","zipcode":"33110"},{"name":"ภูผาหมอก","zipcode":"33110"},{"name":"โนนสำราญ","zipcode":"33110"},{"name":"ละลาย","zipcode":"33110"},{"name":"เวียงเหนือ","zipcode":"33110"},{"name":"ชำ","zipcode":"33110"},{"name":"สังเม็ก","zipcode":"33110"},{"name":"ขนุน","zipcode":"33110"},{"name":"จานใหญ่","zipcode":"33110"},{"name":"กุดเสลา","zipcode":"33110"},{"name":"หนองหญ้าลาด","zipcode":"33110"},{"name":"รุง","zipcode":"33110"},{"name":"ทุ่งใหญ่","zipcode":"33110"},{"name":"กระแชง","zipcode":"33110"},{"name":"น้ำอ้อม","zipcode":"33110"},{"name":"สวนกล้วย","zipcode":"33110"}]},{"name":"กันทรารมย์","subdistricts":[{"name":"หนองบัว","zipcode":"33130"},{"name":"หนองแวง","zipcode":"33130"},{"name":"อีปาด","zipcode":"33130"},{"name":"หนองหัวช้าง","zipcode":"33130"},{"name":"จาน","zipcode":"33130"},{"name":"ละทาย","zipcode":"33130"},{"name":"ดูน","zipcode":"33130"},{"name":"ดู่","zipcode":"33130"},{"name":"หนองแก้ว","zipcode":"33130"},{"name":"บัวน้อย","zipcode":"33130"},{"name":"ยาง","zipcode":"33130"},{"name":"คำเนียม","zipcode":"33130"},{"name":"เมืองน้อย","zipcode":"33130"},{"name":"โนนสัง","zipcode":"33130"},{"name":"ผักแพว","zipcode":"33130"},{"name":"ทาม","zipcode":"33130"}]},{"name":"ขุขันธ์","subdistricts":[{"name":"ห้วยเหนือ","zipcode":"33140"},{"name":"จะกง","zipcode":"33140"},{"name":"ศรีตระกูล","zipcode":"33140"},{"name":"โคกเพชร","zipcode":"33140"},{"name":"สะเดาใหญ่","zipcode":"33140"},{"name":"ลมศักดิ์","zipcode":"33140"},{"name":"ตะเคียน","zipcode":"33140"},{"name":"โสน","zipcode":"33140"},{"name":"ห้วยสำราญ","zipcode":"33140"},{"name":"ห้วยใต้","zipcode":"33140"},{"name":"ใจดี","zipcode":"33140"},{"name":"ศรีสะอาด","zipcode":"33140"},{"name":"ปราสาท","zipcode":"33140"},{"name":"ตาอุด","zipcode":"33140"},{"name":"กันทรารมย์","zipcode":"33140"},{"name":"หนองฉลอง","zipcode":"33140"},{"name":"นิคมพัฒนา","zipcode":"33140"},{"name":"ปรือใหญ่","zipcode":"33140"},{"name":"กฤษณา","zipcode":"33140"},{"name":"หัวเสือ","zipcode":"33140"},{"name":"ดองกำเม็ด","zipcode":"33140"},{"name":"สำโรงตาเจ็น","zipcode":"33140"}]},{"name":"ขุนหาญ","subdistricts":[{"name":"กันทรอม","zipcode":"33150"},{"name":"บักดอง","zipcode":"33150"},{"name":"ขุนหาญ","zipcode":"33150"},{"name":"ห้วยจันทร์","zipcode":"33150"},{"name":"ไพร","zipcode":"33150"},{"name":"ภูฝ้าย","zipcode":"33150"},{"name":"พราน","zipcode":"33150"},{"name":"โนนสูง","zipcode":"33150"},{"name":"สิ","zipcode":"33150"},{"name":"กระหวัน","zipcode":"33150"},{"name":"โพธิ์กระสังข์","zipcode":"33150"},{"name":"โพธิ์วงศ์","zipcode":"33150"}]},{"name":"น้ำเกลี้ยง","subdistricts":[{"name":"เขิน","zipcode":"33130"},{"name":"ละเอาะ","zipcode":"33130"},{"name":"รุ่งระวี","zipcode":"33130"},{"name":"ตองปิด","zipcode":"33130"},{"name":"น้ำเกลี้ยง","zipcode":"33130"},{"name":"คูบ","zipcode":"33130"}]},{"name":"บึงบูรพ์","subdistricts":[{"name":"เป๊าะ","zipcode":"33220"},{"name":"บึงบูรพ์","zipcode":"33220"}]},{"name":"ปรางค์กู่","subdistricts":[{"name":"สมอ","zipcode":"33170"},{"name":"พิมายเหนือ","zipcode":"33170"},{"name":"หนองเชียงทูน","zipcode":"33170"},{"name":"ดู่","zipcode":"33170"},{"name":"พิมาย","zipcode":"33170"},{"name":"โพธิ์ศรี","zipcode":"33170"},{"name":"ตูม","zipcode":"33170"},{"name":"สวาย","zipcode":"33170"},{"name":"กู่","zipcode":"33170"},{"name":"สำโรงปราสาท","zipcode":"33170"}]},{"name":"พยุห์","subdistricts":[{"name":"โนนเพ็ก","zipcode":"33230"},{"name":"พรหมสวัสดิ์","zipcode":"33230"},{"name":"หนองค้า","zipcode":"33230"},{"name":"ตำแย","zipcode":"33230"},{"name":"พยุห์","zipcode":"33230"}]},{"name":"ภูสิงห์","subdistricts":[{"name":"ห้วยตามอญ","zipcode":"33140"},{"name":"ไพรพัฒนา","zipcode":"33140"},{"name":"ตะเคียนราม","zipcode":"33140"},{"name":"ห้วยตึ๊กชู","zipcode":"33140"},{"name":"โคกตาล","zipcode":"33140"},{"name":"ดงรัก","zipcode":"33140"},{"name":"ละลม","zipcode":"33140"}]},{"name":"ยางชุมน้อย","subdistricts":[{"name":"ยางชุมใหญ่","zipcode":"33190"},{"name":"กุดเมืองฮาม","zipcode":"33190"},{"name":"คอนกาม","zipcode":"33190"},{"name":"ยางชุมน้อย","zipcode":"33190"},{"name":"บึงบอน","zipcode":"33190"},{"name":"โนนคูณ","zipcode":"33190"},{"name":"ลิ้นฟ้า","zipcode":"33190"}]},{"name":"ราษีไศล","subdistricts":[{"name":"จิกสังข์ทอง","zipcode":"33160"},{"name":"ไผ่","zipcode":"33160"},{"name":"เมืองแคน","zipcode":"33160"},{"name":"หนองอึ่ง","zipcode":"33160"},{"name":"หว้านคำ","zipcode":"33160"},{"name":"ด่าน","zipcode":"33160"},{"name":"ส้มป่อย","zipcode":"33160"},{"name":"หนองแค","zipcode":"33160"},{"name":"บัวหุ่ง","zipcode":"33160"},{"name":"เมืองคง","zipcode":"33160"},{"name":"สร้างปี่","zipcode":"33160"},{"name":"ดู่","zipcode":"33160"},{"name":"หนองหมี","zipcode":"33160"}]},{"name":"วังหิน","subdistricts":[{"name":"ดวนใหญ่","zipcode":"33270"},{"name":"โพนยาง","zipcode":"33270"},{"name":"บุสูง","zipcode":"33270"},{"name":"ทุ่งสว่าง","zipcode":"33270"},{"name":"บ่อแก้ว","zipcode":"33270"},{"name":"ธาตุ","zipcode":"33270"},{"name":"วังหิน","zipcode":"33270"},{"name":"ศรีสำราญ","zipcode":"33270"}]},{"name":"ศรีรัตนะ","subdistricts":[{"name":"ตูม","zipcode":"33240"},{"name":"พิงพวย","zipcode":"33240"},{"name":"สะพุง","zipcode":"33240"},{"name":"เสื่องข้าว","zipcode":"33240"},{"name":"สระเยาว์","zipcode":"33240"},{"name":"ศรีแก้ว","zipcode":"33240"},{"name":"ศรีโนนงาม","zipcode":"33240"}]},{"name":"ศิลาลาด","subdistricts":[{"name":"หนองบัวดง","zipcode":"33160"},{"name":"กุง","zipcode":"33160"},{"name":"โจดม่วง","zipcode":"33160"},{"name":"คลีกลิ้ง","zipcode":"33160"}]},{"name":"ห้วยทับทัน","subdistricts":[{"name":"ห้วยทับทัน","zipcode":"33210"},{"name":"ปราสาท","zipcode":"33210"},{"name":"ผักไหม","zipcode":"33210"},{"name":"เมืองหลวง","zipcode":"33210"},{"name":"จานแสนไชย","zipcode":"33210"},{"name":"กล้วยกว้าง","zipcode":"33210"}]},{"name":"อุทุมพรพิสัย","subdistricts":[{"name":"สระกำแพงใหญ่","zipcode":"33120"},{"name":"ก้านเหลือง","zipcode":"33120"},{"name":"หัวช้าง","zipcode":"33120"},{"name":"ปะอาว","zipcode":"33120"},{"name":"กำแพง","zipcode":"33120"},{"name":"ขะยูง","zipcode":"33120"},{"name":"แข้","zipcode":"33120"},{"name":"แขม","zipcode":"33120"},{"name":"โคกหล่าม","zipcode":"33120"},{"name":"ทุ่งไชย","zipcode":"33120"},{"name":"รังแร้ง","zipcode":"33120"},{"name":"หนองห้าง","zipcode":"33120"},{"name":"อี่หล่ำ","zipcode":"33120"},{"name":"ตาเกษ","zipcode":"33120"},{"name":"โพธิ์ชัย","zipcode":"33120"},{"name":"หนองไฮ","zipcode":"33120"},{"name":"โคกจาน","zipcode":"33120"},{"name":"แต้","zipcode":"33120"},{"name":"สำโรง","zipcode":"33120"}]},{"name":"เบญจลักษ์","subdistricts":[{"name":"หนองฮาง","zipcode":"33110"},{"name":"หนองหว้า","zipcode":"33110"},{"name":"ท่าคล้อ","zipcode":"33110"},{"name":"หนองงูเหลือม","zipcode":"33110"},{"name":"เสียว","zipcode":"33110"}]},{"name":"เมืองจันทร์","subdistricts":[{"name":"ตาโกน","zipcode":"33120"},{"name":"หนองใหญ่","zipcode":"33120"},{"name":"เมืองจันทร์","zipcode":"33120"}]},{"name":"เมืองศรีสะเกษ","subdistricts":[{"name":"ตะดอบ","zipcode":"33000"},{"name":"หนองไผ่","zipcode":"33000"},{"name":"หญ้าปล้อง","zipcode":"33000"},{"name":"ซำ","zipcode":"33000"},{"name":"โพธิ์","zipcode":"33000"},{"name":"โพนค้อ","zipcode":"33000"},{"name":"เมืองใต้","zipcode":"33000"},{"name":"หนองแก้ว","zipcode":"33000"},{"name":"หนองครก","zipcode":"33000"},{"name":"ทุ่ม","zipcode":"33000"},{"name":"จาน","zipcode":"33000"},{"name":"หมากเขียบ","zipcode":"33000"},{"name":"โพนเขวา","zipcode":"33000"},{"name":"คูซอด","zipcode":"33000"},{"name":"น้ำคำ","zipcode":"33000"},{"name":"โพนข่า","zipcode":"33000"},{"name":"เมืองเหนือ","zipcode":"33000"},{"name":"หนองไฮ","zipcode":"33000"}]},{"name":"โนนคูณ","subdistricts":[{"name":"บก","zipcode":"33250"},{"name":"เหล่ากวาง","zipcode":"33250"},{"name":"โพธิ์","zipcode":"33250"},{"name":"โนนค้อ","zipcode":"33250"},{"name":"หนองกุง","zipcode":"33250"}]},{"name":"โพธิ์ศรีสุวรรณ","subdistricts":[{"name":"โดด","zipcode":"33120"},{"name":"ผือใหญ่","zipcode":"33120"},{"name":"เสียว","zipcode":"33120"},{"name":"อีเซ","zipcode":"33120"},{"name":"หนองม้า","zipcode":"33120"}]},{"name":"ไพรบึง","subdistricts":[{"name":"โนนปูน","zipcode":"33180"},{"name":"สำโรงพลัน","zipcode":"33180"},{"name":"ดินแดง","zipcode":"33180"},{"name":"สุขสวัสดิ์","zipcode":"33180"},{"name":"ปราสาทเยอ","zipcode":"33180"},{"name":"ไพรบึง","zipcode":"33180"}]}]}
