{"province_id":23,"province_name":"อุบลราชธานี","districts":[{"name":"กุดข้าวปุ้น","subdistricts":[{"name":"กาบิน","zipcode":"34270"},{"name":"โนนสวาง","zipcode":"34270"},{"name":"หนองทันน้ำ","zipcode":"34270"},{"name":"แก่งเค็ง","zipcode":"34270"},{"name":"ข้าวปุ้น","zipcode":"34270"}]},{"name":"ดอนมดแดง","subdistricts":[{"name":"ท่าเมือง","zipcode":"34000"},{"name":"ดอนมดแดง","zipcode":"34000"},{"name":"คำไฮใหญ่","zipcode":"34000"},{"name":"เหล่าแดง","zipcode":"34000"}]},{"name":"ตระการพืชผล","subdistricts":[{"name":"เซเป็ด","zipcode":"34130"},{"name":"บ้านแดง","zipcode":"34130"},{"name":"นาพิน","zipcode":"34130"},{"name":"ขุหลุ","zipcode":"34130"},{"name":"ไหล่ทุ่ง","zipcode":"34130"},{"name":"ห้วยฝ้ายพัฒนา","zipcode":"34130"},{"name":"คอนสาย","zipcode":"34130"},{"name":"ตระการ","zipcode":"34130"},{"name":"ถ้ำแข้","zipcode":"34130"},{"name":"กุศกร","zipcode":"34130"},{"name":"สะพือ","zipcode":"34130"},{"name":"คำเจริญ","zipcode":"34130"},{"name":"นาสะไม","zipcode":"34130"},{"name":"กระเดียน","zipcode":"34130"},{"name":"เป้า","zipcode":"34130"},{"name":"กุดยาลวน","zipcode":"34130"},{"name":"โคกจาน","zipcode":"34130"},{"name":"ตากแดด","zipcode":"34130"},{"name":"ท่าหลวง","zipcode":"34130"},{"name":"ขามเปี้ย","zipcode":"34130"},{"name":"หนองเต่า","zipcode":"34130"},{"name":"โนนกุง","zipcode":"34130"},{"name":"เกษม","zipcode":"34130"}]},{"name":"ตาลสุม","subdistricts":[{"name":"นาคาย","zipcode":"34330"},{"name":"จิกเทิง","zipcode":"34330"},{"name":"ตาลสุม","zipcode":"34330"},{"name":"คำหว้า","zipcode":"34330"},{"name":"หนองกุง","zipcode":"34330"},{"name":"สำโรง","zipcode":"34330"}]},{"name":"ทุ่งศรีอุดม","subdistricts":[{"name":"นาเกษม","zipcode":"34160"},{"name":"นาห่อม","zipcode":"34160"},{"name":"กุดเรือ","zipcode":"34160"},{"name":"หนองอ้ม","zipcode":"34160"},{"name":"โคกชำแระ","zipcode":"34160"}]},{"name":"นาจะหลวย","subdistricts":[{"name":"พรสวรรค์","zipcode":"34280"},{"name":"นาจะหลวย","zipcode":"34280"},{"name":"โนนสวรรค์","zipcode":"34280"},{"name":"บ้านตูม","zipcode":"34280"},{"name":"โนนสมบูรณ์","zipcode":"34280"},{"name":"โสกแสง","zipcode":"34280"}]},{"name":"นาตาล","subdistricts":[{"name":"นาตาล","zipcode":"34170"},{"name":"พังเคน","zipcode":"34170"},{"name":"พะลาน","zipcode":"34170"},{"name":"กองโพน","zipcode":"34170"}]},{"name":"นาเยีย","subdistricts":[{"name":"นาดี","zipcode":"34160"},{"name":"นาเรือง","zipcode":"34160"},{"name":"นาเยีย","zipcode":"34160"}]},{"name":"น้ำขุ่น","subdistricts":[{"name":"ตาเกา","zipcode":"34260"},{"name":"โคกสะอาด","zipcode":"34260"},{"name":"ไพบูลย์","zipcode":"34260"},{"name":"ขี้เหล็ก","zipcode":"34260"}]},{"name":"น้ำยืน","subdistricts":[{"name":"บุเปือย","zipcode":"34260"},{"name":"ยาง","zipcode":"34260"},{"name":"เก่าขาม","zipcode":"34260"},{"name":"สีวิเชียร","zipcode":"34260"},{"name":"โดมประดิษฐ์","zipcode":"34260"},{"name":"โซง","zipcode":"34260"},{"name":"ยางใหญ่","zipcode":"34260"}]},{"name":"บุณฑริก","subdistricts":[{"name":"นาโพธิ์","zipcode":"34230"},{"name":"ห้วยข่า","zipcode":"34230"},{"name":"บัวงาม","zipcode":"34230"},{"name":"หนองสะโน","zipcode":"34230"},{"name":"คอแลน","zipcode":"34230"},{"name":"บ้านแมด","zipcode":"34230"},{"name":"โพนงาม","zipcode":"34230"},{"name":"โนนค้อ","zipcode":"34230"}]},{"name":"พิบูลมังสาหาร","subdistricts":[{"name":"ระเว","zipcode":"34110"},{"name":"กุดชมภู","zipcode":"34110"},{"name":"บ้านแขม","zipcode":"34110"},{"name":"โพธิ์ไทร","zipcode":"34110"},{"name":"อ่างศิลา","zipcode":"34110"},{"name":"นาโพธิ์","zipcode":"34110"},{"name":"ไร่ใต้","zipcode":"34110"},{"name":"ดอนจิก","zipcode":"34110"},{"name":"โพธิ์ศรี","zipcode":"34110"},{"name":"พิบูล","zipcode":"34110"},{"name":"โนนกาหลง","zipcode":"34110"},{"name":"โนนกลาง","zipcode":"34110"},{"name":"หนองบัวฮี","zipcode":"34110"},{"name":"ทรายมูล","zipcode":"34110"}]},{"name":"ม่วงสามสิบ","subdistricts":[{"name":"นาเลิง","zipcode":"34140"},{"name":"เตย","zipcode":"34140"},{"name":"ยางโยภาพ","zipcode":"34140"},{"name":"หนองช้างใหญ่","zipcode":"34140"},{"name":"หนองเหล่า","zipcode":"34140"},{"name":"เหล่าบก","zipcode":"34140"},{"name":"โพนแพง","zipcode":"34140"},{"name":"ยางสักกระโพหลุ่ม","zipcode":"34140"},{"name":"ไผ่ใหญ่","zipcode":"34140"},{"name":"หนองเมือง","zipcode":"34140"},{"name":"หนองฮาง","zipcode":"34140"},{"name":"ดุมใหญ่","zipcode":"34140"},{"name":"หนองไข่นก","zipcode":"34140"},{"name":"ม่วงสามสิบ","zipcode":"34140"}]},{"name":"วารินชำราบ","subdistricts":[{"name":"สระสมิง","zipcode":"34190"},{"name":"แสนสุข","zipcode":"34190"},{"name":"โนนโหนน","zipcode":"34190"},{"name":"บุ่งไหม","zipcode":"34190"},{"name":"คำขวาง","zipcode":"34190"},{"name":"ธาตุ","zipcode":"34190"},{"name":"เมืองศรีไค","zipcode":"34190"},{"name":"คำน้ำแซบ","zipcode":"34190"},{"name":"หนองกินเพล","zipcode":"34190"},{"name":"คูเมือง","zipcode":"34190"},{"name":"โพธิ์ใหญ่","zipcode":"34190"},{"name":"ท่าลาด","zipcode":"34310"},{"name":"ห้วยขะยูง","zipcode":"34310"},{"name":"บุ่งหวาย","zipcode":"34310"},{"name":"วารินชำราบ","zipcode":"34190"},{"name":"โนนผึ้ง","zipcode":"34190"}]},{"name":"ศรีเมืองใหม่","subdistricts":[{"name":"สงยาง","zipcode":"34250"},{"name":"ดอนใหญ่","zipcode":"34250"},{"name":"วาริน","zipcode":"34250"},{"name":"หนามแท่ง","zipcode":"34250"},{"name":"แก้งกอก","zipcode":"34250"},{"name":"ตะบ่าย","zipcode":"34250"},{"name":"ลาดควาย","zipcode":"34250"},{"name":"นาเลิน","zipcode":"34250"},{"name":"เอือดใหญ่","zipcode":"34250"},{"name":"คำไหล","zipcode":"34250"},{"name":"นาคำ","zipcode":"34250"}]},{"name":"สว่างวีระวงศ์","subdistricts":[{"name":"บุ่งมะแลง","zipcode":"34190"},{"name":"แก่งโดม","zipcode":"34190"},{"name":"สว่าง","zipcode":"34190"},{"name":"ท่าช้าง","zipcode":"34190"}]},{"name":"สำโรง","subdistricts":[{"name":"โคกก่อง","zipcode":"34360"},{"name":"โนนกลาง","zipcode":"34360"},{"name":"โนนกาเล็น","zipcode":"34360"},{"name":"หนองไฮ","zipcode":"34360"},{"name":"บอน","zipcode":"34360"},{"name":"สำโรง","zipcode":"34360"},{"name":"โคกสว่าง","zipcode":"34360"},{"name":"ค้อน้อย","zipcode":"34360"},{"name":"ขามป้อม","zipcode":"34360"}]},{"name":"สิรินธร","subdistricts":[{"name":"คันไร่","zipcode":"34350"},{"name":"คำเขื่อนแก้ว","zipcode":"34350"},{"name":"นิคมสร้างตนเองลำโดมน้อย","zipcode":"34350"},{"name":"ช่องเม็ก","zipcode":"34350"},{"name":"ฝางคำ","zipcode":"34350"},{"name":"โนนก่อ","zipcode":"34350"}]},{"name":"เขมราฐ","subdistricts":[{"name":"หัวนา","zipcode":"34170"},{"name":"ขามป้อม","zipcode":"34170"},{"name":"หนองนกทา","zipcode":"34170"},{"name":"นาแวง","zipcode":"34170"},{"name":"เจียด","zipcode":"34170"},{"name":"หนองสิม","zipcode":"34170"},{"name":"เขมราฐ","zipcode":"34170"},{"name":"แก้งเหนือ","zipcode":"34170"},{"name":"หนองผือ","zipcode":"34170"}]},{"name":"เขื่องใน","subdistricts":[{"name":"ยางขี้นก","zipcode":"34150"},{"name":"นาคำใหญ่","zipcode":"34150"},{"name":"เขื่องใน","zipcode":"34150"},{"name":"กลางใหญ่","zipcode":"34320"},{"name":"ชีทวน","zipcode":"34150"},{"name":"หนองเหล่า","zipcode":"34150"},{"name":"บ้านไทย","zipcode":"34320"},{"name":"ก่อเอ้","zipcode":"34150"},{"name":"ศรีสุข","zipcode":"34150"},{"name":"แดงหม้อ","zipcode":"34150"},{"name":"สร้างถ่อ","zipcode":"34150"},{"name":"โนนรัง","zipcode":"34320"},{"name":"ท่าไห","zipcode":"34150"},{"name":"บ้านกอก","zipcode":"34320"},{"name":"หัวดอน","zipcode":"34150"},{"name":"สหธาตุ","zipcode":"34150"},{"name":"ธาตุน้อย","zipcode":"34150"},{"name":"ค้อทอง","zipcode":"34150"}]},{"name":"เดชอุดม","subdistricts":[{"name":"ตบหู","zipcode":"34160"},{"name":"คำครั่ง","zipcode":"34160"},{"name":"สมสะอาด","zipcode":"34160"},{"name":"ท่าโพธิ์ศรี","zipcode":"34160"},{"name":"นาเจริญ","zipcode":"34160"},{"name":"ป่าโมง","zipcode":"34160"},{"name":"กลาง","zipcode":"34160"},{"name":"เมืองเดช","zipcode":"34160"},{"name":"นากระแซง","zipcode":"34160"},{"name":"กุดประทาย","zipcode":"34160"},{"name":"บัวงาม","zipcode":"34160"},{"name":"ทุ่งเทิง","zipcode":"34160"},{"name":"โนนสมบูรณ์","zipcode":"34160"},{"name":"แก้ง","zipcode":"34160"},{"name":"นาส่วง","zipcode":"34160"},{"name":"โพนงาม","zipcode":"34160"}]},{"name":"เมืองอุบลราชธานี","subdistricts":[{"name":"ขี้เหล็ก","zipcode":"34000"},{"name":"ปทุม","zipcode":"34000"},{"name":"กระโสบ","zipcode":"34000"},{"name":"หัวเรือ","zipcode":"34000"},{"name":"หนองบ่อ","zipcode":"34000"},{"name":"ปะอาว","zipcode":"34000"},{"name":"ขามใหญ่","zipcode":"34000"},{"name":"กุดลาด","zipcode":"34000"},{"name":"หนองขอน","zipcode":"34000"},{"name":"ไร่น้อย","zipcode":"34000"},{"name":"ในเมือง","zipcode":"34000"},{"name":"แจระแม","zipcode":"34000"}]},{"name":"เหล่าเสือโก้ก","subdistricts":[{"name":"โพนเมือง","zipcode":"34000"},{"name":"แพงใหญ่","zipcode":"34000"},{"name":"เหล่าเสือโก้ก","zipcode":"34000"},{"name":"หนองบก","zipcode":"34000"}]},{"name":"โขงเจียม","subdistricts":[{"name":"ห้วยยาง","zipcode":"34220"},{"name":"ห้วยไผ่","zipcode":"34220"},{"name":"นาโพธิ์กลาง","zipcode":"34220"},{"name":"โขงเจียม","zipcode":"34220"},{"name":"คำเขื่อนแก้ว","zipcode":"34220"},{"name":"หนองแสงใหญ่","zipcode":"34220"}]},{"name":"โพธิ์ไทร","subdistricts":[{"name":"โพธิ์ไทร","zipcode":"34340"},{"name":"เหล่างาม","zipcode":"34340"},{"name":"สองคอน","zipcode":"34340"},{"name":"ม่วงใหญ่","zipcode":"34340"},{"name":"สารภี","zipcode":"34340"},{"name":"สำโรง","zipcode":"34340"}]}]}
