{"province_id":24,"province_name":"ยโสธร","districts":[{"name":"กุดชุม","subdistricts":[{"name":"ห้วยแก้ง","zipcode":"35140"},{"name":"กำแมด","zipcode":"35140"},{"name":"คำน้ำสร้าง","zipcode":"35140"},{"name":"กุดชุม","zipcode":"35140"},{"name":"หนองหมี","zipcode":"35140"},{"name":"นาโส่","zipcode":"35140"},{"name":"หนองแหน","zipcode":"35140"},{"name":"โนนเปือย","zipcode":"35140"},{"name":"โพนงาม","zipcode":"35140"}]},{"name":"ค้อวัง","subdistricts":[{"name":"ฟ้าห่วน","zipcode":"35160"},{"name":"ค้อวัง","zipcode":"35160"},{"name":"กุดน้ำใส","zipcode":"35160"},{"name":"น้ำอ้อม","zipcode":"35160"}]},{"name":"คำเขื่อนแก้ว","subdistricts":[{"name":"กุดกุง","zipcode":"35110"},{"name":"สงเปือย","zipcode":"35110"},{"name":"กู่จาน","zipcode":"35110"},{"name":"ลุมพุก","zipcode":"35110"},{"name":"ดงเจริญ","zipcode":"35110"},{"name":"นาคำ","zipcode":"35180"},{"name":"เหล่าไฮ","zipcode":"35110"},{"name":"โพนทัน","zipcode":"35110"},{"name":"นาแก","zipcode":"35180"},{"name":"ย่อ","zipcode":"35110"},{"name":"ดงแคนใหญ่","zipcode":"35180"},{"name":"แคนน้อย","zipcode":"35180"},{"name":"ทุ่งมน","zipcode":"35110"}]},{"name":"ทรายมูล","subdistricts":[{"name":"ไผ่","zipcode":"35170"},{"name":"ดงมะไฟ","zipcode":"35170"},{"name":"ทรายมูล","zipcode":"35170"},{"name":"นาเวียง","zipcode":"35170"},{"name":"ดู่ลาด","zipcode":"35170"}]},{"name":"ป่าติ้ว","subdistricts":[{"name":"เชียงเพ็ง","zipcode":"35150"},{"name":"กระจาย","zipcode":"35150"},{"name":"ศรีฐาน","zipcode":"35150"},{"name":"โคกนาโก","zipcode":"35150"},{"name":"โพธิ์ไทร","zipcode":"35150"}]},{"name":"มหาชนะชัย","subdistricts":[{"name":"ผือฮี","zipcode":"35130"},{"name":"พระเสาร์","zipcode":"35130"},{"name":"หัวเมือง","zipcode":"35130"},{"name":"โนนทราย","zipcode":"35130"},{"name":"บากเรือ","zipcode":"35130"},{"name":"สงยาง","zipcode":"35130"},{"name":"คูเมือง","zipcode":"35130"},{"name":"บึงแก","zipcode":"35130"},{"name":"ฟ้าหยาด","zipcode":"35130"},{"name":"ม่วง","zipcode":"35130"}]},{"name":"เมืองยโสธร","subdistricts":[{"name":"สำราญ","zipcode":"35000"},{"name":"ทุ่งนางโอก","zipcode":"35000"},{"name":"ทุ่งแต้","zipcode":"35000"},{"name":"น้ำคำใหญ่","zipcode":"35000"},{"name":"หนองคู","zipcode":"35000"},{"name":"เดิด","zipcode":"35000"},{"name":"เขื่องคำ","zipcode":"35000"},{"name":"ค้อเหนือ","zipcode":"35000"},{"name":"หนองเรือ","zipcode":"35000"},{"name":"สิงห์","zipcode":"35000"},{"name":"ตาดทอง","zipcode":"35000"},{"name":"ขุมเงิน","zipcode":"35000"},{"name":"ขั้นไดใหญ่","zipcode":"35000"},{"name":"ในเมือง","zipcode":"35000"},{"name":"หนองหิน","zipcode":"35000"},{"name":"ดู่ทุ่ง","zipcode":"35000"},{"name":"หนองเป็ด","zipcode":"35000"},{"name":"นาสะไมย์","zipcode":"35000"}]},{"name":"เลิงนกทา","subdistricts":[{"name":"สามัคคี","zipcode":"35120"},{"name":"สร้างมิ่ง","zipcode":"35120"},{"name":"สวาท","zipcode":"35120"},{"name":"กุดแห่","zipcode":"35120"},{"name":"กุดเชียงหมี","zipcode":"35120"},{"name":"ศรีแก้ว","zipcode":"35120"},{"name":"ห้องแซง","zipcode":"35120"},{"name":"โคกสำราญ","zipcode":"35120"},{"name":"บุ่งค้า","zipcode":"35120"},{"name":"สามแยก","zipcode":"35120"}]},{"name":"ไทยเจริญ","subdistricts":[{"name":"คำเตย","zipcode":"35120"},{"name":"น้ำคำ","zipcode":"35120"},{"name":"คำไผ่","zipcode":"35120"},{"name":"ส้มผ่อ","zipcode":"35120"},{"name":"ไทยเจริญ","zipcode":"35120"}]}]}
