{"province_id":25,"province_name":"ชัยภูมิ","districts":[{"name":"คอนสวรรค์","subdistricts":[{"name":"ศรีสำราญ","zipcode":"36140"},{"name":"ยางหวาย","zipcode":"36140"},{"name":"โคกมั่งงอย","zipcode":"36140"},{"name":"ห้วยไร่","zipcode":"36140"},{"name":"ช่องสามหมอ","zipcode":"36140"},{"name":"หนองขาม","zipcode":"36140"},{"name":"คอนสวรรค์","zipcode":"36140"},{"name":"บ้านโสก","zipcode":"36140"},{"name":"โนนสะอาด","zipcode":"36140"}]},{"name":"คอนสาร","subdistricts":[{"name":"ห้วยยาง","zipcode":"36180"},{"name":"ทุ่งพระ","zipcode":"36180"},{"name":"ทุ่งนาเลา","zipcode":"36180"},{"name":"ทุ่งลุยลาย","zipcode":"36180"},{"name":"โนนคูณ","zipcode":"36180"},{"name":"ดงกลาง","zipcode":"36180"},{"name":"คอนสาร","zipcode":"36180"},{"name":"ดงบัง","zipcode":"36180"}]},{"name":"จัตุรัส","subdistricts":[{"name":"ละหาน","zipcode":"36130"},{"name":"กุดน้ำใส","zipcode":"36130"},{"name":"ส้มป่อย","zipcode":"36130"},{"name":"หนองบัวบาน","zipcode":"36130"},{"name":"หนองบัวใหญ่","zipcode":"36130"},{"name":"หนองโดน","zipcode":"36130"},{"name":"บ้านขาม","zipcode":"36130"},{"name":"หนองบัวโคก","zipcode":"36220"},{"name":"บ้านกอก","zipcode":"36130"}]},{"name":"ซับใหญ่","subdistricts":[{"name":"ท่ากูบ","zipcode":"36130"},{"name":"ตะโกทอง","zipcode":"36130"},{"name":"ซับใหญ่","zipcode":"36130"}]},{"name":"บ้านเขว้า","subdistricts":[{"name":"ลุ่มลำชี","zipcode":"36170"},{"name":"บ้านเขว้า","zipcode":"36170"},{"name":"โนนแดง","zipcode":"36170"},{"name":"ชีบน","zipcode":"36170"},{"name":"ตลาดแร้ง","zipcode":"36170"},{"name":"ภูแลนคา","zipcode":"36170"}]},{"name":"บ้านแท่น","subdistricts":[{"name":"หนองคู","zipcode":"36190"},{"name":"สระพัง","zipcode":"36190"},{"name":"บ้านแท่น","zipcode":"36190"},{"name":"บ้านเต่า","zipcode":"36190"},{"name":"สามสวน","zipcode":"36190"}]},{"name":"บำเหน็จณรงค์","subdistricts":[{"name":"บ้านเพชร","zipcode":"36160"},{"name":"โคกเพชรพัฒนา","zipcode":"36160"},{"name":"โคกเริงรมย์","zipcode":"36160"},{"name":"บ้านตาล","zipcode":"36220"},{"name":"บ้านชวน","zipcode":"36160"},{"name":"เกาะมะนาว","zipcode":"36160"},{"name":"หัวทะเล","zipcode":"36220"}]},{"name":"ภักดีชุมพล","subdistricts":[{"name":"วังทอง","zipcode":"36260"},{"name":"บ้านเจียง","zipcode":"36260"},{"name":"แหลมทอง","zipcode":"36260"},{"name":"เจาทอง","zipcode":"36260"}]},{"name":"ภูเขียว","subdistricts":[{"name":"บ้านเพชร","zipcode":"36110"},{"name":"บ้านดอน","zipcode":"36110"},{"name":"บ้านแก้ง","zipcode":"36110"},{"name":"โอโล","zipcode":"36110"},{"name":"กวางโจน","zipcode":"36110"},{"name":"โคกสะอาด","zipcode":"36110"},{"name":"กุดยม","zipcode":"36110"},{"name":"ธาตุทอง","zipcode":"36110"},{"name":"หนองคอนไทย","zipcode":"36110"},{"name":"หนองตูม","zipcode":"36110"},{"name":"ผักปัง","zipcode":"36110"}]},{"name":"หนองบัวระเหว","subdistricts":[{"name":"วังตะเฆ่","zipcode":"36250"},{"name":"โสกปลาดุก","zipcode":"36250"},{"name":"ห้วยแย้","zipcode":"36250"},{"name":"หนองบัวระเหว","zipcode":"36250"},{"name":"โคกสะอาด","zipcode":"36250"}]},{"name":"หนองบัวแดง","subdistricts":[{"name":"ท่าใหญ่","zipcode":"36210"},{"name":"หนองแวง","zipcode":"36210"},{"name":"ถ้ำวัวแดง","zipcode":"36210"},{"name":"วังชมภู","zipcode":"36210"},{"name":"หนองบัวแดง","zipcode":"36210"},{"name":"คูเมือง","zipcode":"36210"},{"name":"นางแดด","zipcode":"36210"},{"name":"กุดชุมแสง","zipcode":"36210"}]},{"name":"เกษตรสมบูรณ์","subdistricts":[{"name":"สระโพนทอง","zipcode":"36120"},{"name":"โนนทอง","zipcode":"36120"},{"name":"กุดเลาะ","zipcode":"36120"},{"name":"บ้านบัว","zipcode":"36120"},{"name":"บ้านเดื่อ","zipcode":"36120"},{"name":"หนองข่า","zipcode":"36120"},{"name":"บ้านยาง","zipcode":"36120"},{"name":"โนนกอก","zipcode":"36120"},{"name":"ซับสีทอง*","zipcode":"36000"},{"name":"บ้านเป้า","zipcode":"36120"},{"name":"หนองโพนงาม","zipcode":"36120"},{"name":"บ้านหัน","zipcode":"36120"}]},{"name":"เทพสถิต","subdistricts":[{"name":"บ้านไร่","zipcode":"36230"},{"name":"ห้วยยายจิ๋ว","zipcode":"36230"},{"name":"โป่งนก","zipcode":"36230"},{"name":"นายางกลัก","zipcode":"36230"},{"name":"วะตะแบก","zipcode":"36230"}]},{"name":"เนินสง่า","subdistricts":[{"name":"รังงาม","zipcode":"36130"},{"name":"ตาเนิน","zipcode":"36130"},{"name":"กะฮาด","zipcode":"36130"},{"name":"หนองฉิม","zipcode":"36130"}]},{"name":"เมืองชัยภูมิ","subdistricts":[{"name":"ห้วยบง","zipcode":"36000"},{"name":"บ้านเล่า","zipcode":"36000"},{"name":"ในเมือง","zipcode":"36000"},{"name":"ท่าหินโงม","zipcode":"36000"},{"name":"กุดตุ้ม","zipcode":"36000"},{"name":"บุ่งคล้า","zipcode":"36000"},{"name":"ลาดใหญ่","zipcode":"36000"},{"name":"นาฝาย","zipcode":"36000"},{"name":"โนนสำราญ","zipcode":"36240"},{"name":"นาเสียว","zipcode":"36000"},{"name":"รอบเมือง","zipcode":"36000"},{"name":"ห้วยต้อน","zipcode":"36000"},{"name":"ชีลอง","zipcode":"36000"},{"name":"ซับสีทอง","zipcode":"36000"},{"name":"หนองไผ่","zipcode":"36240"},{"name":"บ้านค่าย","zipcode":"36240"},{"name":"โคกสูง","zipcode":"36000"},{"name":"หนองนาแซง","zipcode":"36000"},{"name":"โพนทอง","zipcode":"36000"}]},{"name":"แก้งคร้อ","subdistricts":[{"name":"ท่ามะไฟหวาน","zipcode":"36150"},{"name":"หนองขาม","zipcode":"36150"},{"name":"โคกกุง","zipcode":"36150"},{"name":"หนองสังข์","zipcode":"36150"},{"name":"หนองไผ่","zipcode":"36150"},{"name":"นาหนองทุ่ม","zipcode":"36150"},{"name":"เก่าย่าดี","zipcode":"36150"},{"name":"ช่องสามหมอ","zipcode":"36150"},{"name":"หลุบคา","zipcode":"36150"},{"name":"บ้านแก้ง","zipcode":"36150"}]}]}
