{"province_id":26,"province_name":"อำนาจเจริญ","districts":[{"name":"ชานุมาน","subdistricts":[{"name":"โคกก่ง","zipcode":"37210"},{"name":"โคกสาร","zipcode":"37210"},{"name":"ป่าก่อ","zipcode":"37210"},{"name":"คำเขื่อนแก้ว","zipcode":"37210"},{"name":"ชานุมาน","zipcode":"37210"}]},{"name":"ปทุมราชวงศา","subdistricts":[{"name":"หนองข่า","zipcode":"37110"},{"name":"โนนงาม","zipcode":"37110"},{"name":"ลือ","zipcode":"37110"},{"name":"คำโพน","zipcode":"37110"},{"name":"นาป่าแซง","zipcode":"37110"},{"name":"ห้วย","zipcode":"37110"},{"name":"นาหว้า","zipcode":"37110"}]},{"name":"พนา","subdistricts":[{"name":"พระเหลา","zipcode":"37180"},{"name":"จานลาน","zipcode":"37180"},{"name":"ไม้กลอน","zipcode":"37180"},{"name":"พนา","zipcode":"37180"}]},{"name":"ลืออำนาจ","subdistricts":[{"name":"โคกกลาง","zipcode":"37000"},{"name":"ไร่ขี","zipcode":"37000"},{"name":"เปือย","zipcode":"37000"},{"name":"อำนาจ","zipcode":"37000"},{"name":"แมด","zipcode":"37000"},{"name":"ดงบัง","zipcode":"37000"},{"name":"ดงมะยาง","zipcode":"37000"}]},{"name":"หัวตะพาน","subdistricts":[{"name":"เค็งใหญ่","zipcode":"37240"},{"name":"รัตนวารี","zipcode":"37240"},{"name":"หัวตะพาน","zipcode":"37240"},{"name":"สร้างถ่อน้อย","zipcode":"37240"},{"name":"หนองแก้ว","zipcode":"37240"},{"name":"คำพระ","zipcode":"37240"},{"name":"จิกดู่","zipcode":"37240"},{"name":"โพนเมืองน้อย","zipcode":"37240"}]},{"name":"เมืองอำนาจเจริญ","subdistricts":[{"name":"นายม","zipcode":"37000"},{"name":"นาหมอม้า","zipcode":"37000"},{"name":"ปลาค้าว","zipcode":"37000"},{"name":"กุดปลาดุก","zipcode":"37000"},{"name":"น้ำปลีก","zipcode":"37000"},{"name":"ไก่คำ","zipcode":"37000"},{"name":"ห้วยไร่","zipcode":"37000"},{"name":"คึมใหญ่","zipcode":"37000"},{"name":"นาแต้","zipcode":"37000"},{"name":"โนนโพธิ์","zipcode":"37000"},{"name":"เหล่าพรวน","zipcode":"37000"},{"name":"ดอนเมย","zipcode":"37000"},{"name":"นาวัง","zipcode":"37000"},{"name":"นาจิก","zipcode":"37000"},{"name":"หนองมะแซว","zipcode":"37000"},{"name":"นาผือ","zipcode":"37000"},{"name":"บุ่ง","zipcode":"37000"},{"name":"โนนหนามแท่ง","zipcode":"37000"},{"name":"สร้างนกทา","zipcode":"37000"}]},{"name":"เสนางคนิคม","subdistricts":[{"name":"โพนทอง","zipcode":"37290"},{"name":"หนองไฮ","zipcode":"37290"},{"name":"ไร่สีสุก","zipcode":"37290"},{"name":"เสนางคนิคม","zipcode":"37290"},{"name":"หนองสามสี","zipcode":"37290"},{"name":"นาเวียง","zipcode":"37290"}]}]}
