{"province_id":27,"province_name":"หนองบัวลำภู","districts":[{"name":"นากลาง","subdistricts":[{"name":"โนนเมือง","zipcode":"39170"},{"name":"ฝั่งแดง","zipcode":"39170"},{"name":"กุดแห่","zipcode":"39170"},{"name":"ด่านช้าง","zipcode":"39170"},{"name":"อุทัยสวรรค์","zipcode":"39170"},{"name":"เก่ากลอย","zipcode":"39350"},{"name":"กุดดินจี่","zipcode":"39350"},{"name":"ดงสวรรค์","zipcode":"39350"},{"name":"นากลาง","zipcode":"39170"}]},{"name":"นาวัง","subdistricts":[{"name":"เทพคีรี","zipcode":"39170"},{"name":"วังทอง","zipcode":"39170"},{"name":"นาเหล่า","zipcode":"39170"},{"name":"วังปลาป้อม","zipcode":"39170"},{"name":"นาแก","zipcode":"39170"}]},{"name":"ศรีบุญเรือง","subdistricts":[{"name":"โนนสะอาด","zipcode":"39180"},{"name":"ทรายทอง","zipcode":"39180"},{"name":"กุดสะเทียน","zipcode":"39180"},{"name":"หนองกุงแก้ว","zipcode":"39180"},{"name":"ศรีบุญเรือง","zipcode":"39180"},{"name":"ยางหล่อ","zipcode":"39180"},{"name":"หันนางาม","zipcode":"39180"},{"name":"นากอก","zipcode":"39180"},{"name":"หนองแก","zipcode":"39180"},{"name":"หนองบัวใต้","zipcode":"39180"},{"name":"โนนม่วง","zipcode":"39180"},{"name":"เมืองใหม่","zipcode":"39180"}]},{"name":"สุวรรณคูหา","subdistricts":[{"name":"สุวรรณคูหา","zipcode":"39270"},{"name":"นาด่าน","zipcode":"39270"},{"name":"บ้านโคก","zipcode":"39270"},{"name":"บุญทัน","zipcode":"39270"},{"name":"ดงมะไฟ","zipcode":"39270"},{"name":"นาดี","zipcode":"39270"},{"name":"กุดผึ้ง","zipcode":"39270"},{"name":"นาสี","zipcode":"39270"}]},{"name":"เมืองหนองบัวลำภู","subdistricts":[{"name":"ป่าไม้งาม","zipcode":"39000"},{"name":"นามะเฟือง","zipcode":"39000"},{"name":"หัวนา","zipcode":"39000"},{"name":"โนนทัน","zipcode":"39000"},{"name":"โพธิ์ชัย","zipcode":"39000"},{"name":"ลำภู","zipcode":"39000"},{"name":"หนองหว้า","zipcode":"39000"},{"name":"หนองบัว","zipcode":"39000"},{"name":"บ้านพร้าว","zipcode":"39000"},{"name":"บ้านขาม","zipcode":"39000"},{"name":"นาคำไฮ","zipcode":"39000"},{"name":"หนองสวรรค์","zipcode":"39000"},{"name":"กุดจิก","zipcode":"39000"},{"name":"หนองภัยศูนย์","zipcode":"39000"},{"name":"โนนขมิ้น","zipcode":"39000"}]},{"name":"โนนสัง","subdistricts":[{"name":"นิคมพัฒนา","zipcode":"39140"},{"name":"บ้านถิ่น","zipcode":"39140"},{"name":"โคกใหญ่","zipcode":"39140"},{"name":"บ้านค้อ","zipcode":"39140"},{"name":"ปางกู่","zipcode":"39140"},{"name":"หนองเรือ","zipcode":"39140"},{"name":"โคกม่วง","zipcode":"39140"},{"name":"โนนสัง","zipcode":"39140"},{"name":"โนนเมือง","zipcode":"39140"},{"name":"กุดดู่","zipcode":"39140"}]}]}
