{"province_id":28,"province_name":"ขอนแก่น","districts":[{"name":"กระนวน","subdistricts":[{"name":"ห้วยโจด","zipcode":"40170"},{"name":"น้ำอ้อม","zipcode":"40170"},{"name":"หนองโก","zipcode":"40170"},{"name":"ดูนสาด","zipcode":"40170"},{"name":"ห้วยยาง","zipcode":"40170"},{"name":"หัวนาคำ","zipcode":"40170"},{"name":"หนองกุงใหญ่","zipcode":"40170"},{"name":"หนองโน","zipcode":"40170"},{"name":"บ้านฝาง","zipcode":"40170"}]},{"name":"ชนบท","subdistricts":[{"name":"ชนบท","zipcode":"40180"},{"name":"ศรีบุญเรือง","zipcode":"40180"},{"name":"ห้วยแก","zipcode":"40180"},{"name":"กุดเพียขอม","zipcode":"40180"},{"name":"โนนพะยอม","zipcode":"40180"},{"name":"บ้านแท่น","zipcode":"40180"},{"name":"วังแสง","zipcode":"40180"},{"name":"ปอแดง","zipcode":"40180"}]},{"name":"ชุมแพ","subdistricts":[{"name":"ขัวเรียง","zipcode":"40130"},{"name":"หนองเขียด","zipcode":"40290"},{"name":"นาหนองทุ่ม","zipcode":"40290"},{"name":"วังหินลาด","zipcode":"40130"},{"name":"ชุมแพ","zipcode":"40130"},{"name":"หนองไผ่","zipcode":"40130"},{"name":"หนองเสาเล้า","zipcode":"40130"},{"name":"โนนอุดม","zipcode":"40130"},{"name":"นาเพียง","zipcode":"40130"},{"name":"โนนหัน","zipcode":"40290"},{"name":"ไชยสอ","zipcode":"40130"},{"name":"โนนสะอาด","zipcode":"40290"}]},{"name":"ซำสูง","subdistricts":[{"name":"คำแมด","zipcode":"40170"},{"name":"ห้วยเตย","zipcode":"40170"},{"name":"บ้านโนน","zipcode":"40170"},{"name":"กระนวน","zipcode":"40170"},{"name":"คูคำ","zipcode":"40170"}]},{"name":"น้ำพอง","subdistricts":[{"name":"วังชัย","zipcode":"40140"},{"name":"บ้านขาม","zipcode":"40140"},{"name":"กุดน้ำใส","zipcode":"40140"},{"name":"สะอาด","zipcode":"40310"},{"name":"ท่ากระเสริม","zipcode":"40140"},{"name":"หนองกุง","zipcode":"40140"},{"name":"บัวเงิน","zipcode":"40140"},{"name":"น้ำพอง","zipcode":"40140"},{"name":"ม่วงหวาน","zipcode":"40310"},{"name":"พังทุย","zipcode":"40140"},{"name":"บัวใหญ่","zipcode":"40140"},{"name":"ทรายมูล","zipcode":"40140"}]},{"name":"บ้านฝาง","subdistricts":[{"name":"หนองบัว","zipcode":"40270"},{"name":"บ้านฝาง","zipcode":"40270"},{"name":"บ้านเหล่า","zipcode":"40270"},{"name":"ป่าหวายนั่ง","zipcode":"40270"},{"name":"โคกงาม","zipcode":"40270"},{"name":"ป่ามะนาว","zipcode":"40270"},{"name":"โนนฆ้อง","zipcode":"40270"}]},{"name":"บ้านแฮด","subdistricts":[{"name":"โคกสำราญ","zipcode":"40110"},{"name":"โนนสมบูรณ์","zipcode":"40110"},{"name":"บ้านแฮด","zipcode":"40110"},{"name":"หนองแซง","zipcode":"40110"}]},{"name":"บ้านไผ่","subdistricts":[{"name":"บ้านไผ่","zipcode":"40110"},{"name":"ภูเหล็ก","zipcode":"40110"},{"name":"บ้านลาน","zipcode":"40110"},{"name":"หนองน้ำใส","zipcode":"40110"},{"name":"ในเมือง","zipcode":"40110"},{"name":"ป่าปอ","zipcode":"40110"},{"name":"แคนเหนือ","zipcode":"40110"},{"name":"หัวหนอง","zipcode":"40110"},{"name":"เมืองเพีย","zipcode":"40110"},{"name":"หินตั้ง","zipcode":"40110"}]},{"name":"พระยืน","subdistricts":[{"name":"พระยืน","zipcode":"40320"},{"name":"หนองแวง","zipcode":"40320"},{"name":"พระบุ","zipcode":"40320"},{"name":"ขามป้อม","zipcode":"40320"},{"name":"บ้านโต้น","zipcode":"40320"}]},{"name":"พล","subdistricts":[{"name":"เพ็กใหญ่","zipcode":"40120"},{"name":"โสกนกเต็น","zipcode":"40120"},{"name":"หนองมะเขือ","zipcode":"40120"},{"name":"ลอมคอม","zipcode":"40120"},{"name":"โจดหนองแก","zipcode":"40120"},{"name":"โคกสง่า","zipcode":"40120"},{"name":"หัวทุ่ง","zipcode":"40120"},{"name":"หนองแวงโสกพระ","zipcode":"40120"},{"name":"โนนข่า","zipcode":"40120"},{"name":"เก่างิ้ว","zipcode":"40120"},{"name":"หนองแวงนางเบ้า","zipcode":"40120"},{"name":"เมืองพล","zipcode":"40120"}]},{"name":"ภูผาม่าน","subdistricts":[{"name":"ห้วยม่วง","zipcode":"40350"},{"name":"ภูผาม่าน","zipcode":"40350"},{"name":"โนนคอม","zipcode":"40350"},{"name":"วังสวาบ","zipcode":"40350"},{"name":"นาฝาย","zipcode":"40350"}]},{"name":"ภูเวียง","subdistricts":[{"name":"กุดขอนแก่น","zipcode":"40150"},{"name":"หนองกุงเซิน","zipcode":"40150"},{"name":"ในเมือง*","zipcode":"40150"},{"name":"ภูเวียง","zipcode":"40150"},{"name":"เขาน้อย*","zipcode":"40150"},{"name":"เมืองเก่าพัฒนา*","zipcode":"40150"},{"name":"นาชุมแสง","zipcode":"40150"},{"name":"สงเปือย","zipcode":"40150"},{"name":"หว้าทอง","zipcode":"40150"},{"name":"หนองกุงธนสาร","zipcode":"40150"},{"name":"บ้านเรือ","zipcode":"40150"},{"name":"ดินดำ","zipcode":"40150"},{"name":"นาหว้า","zipcode":"40150"},{"name":"ทุ่งชมพู","zipcode":"40150"}]},{"name":"มัญจาคีรี","subdistricts":[{"name":"สวนหม่อน","zipcode":"40160"},{"name":"นางาม","zipcode":"40160"},{"name":"คำแคน","zipcode":"40160"},{"name":"หนองแปน","zipcode":"40160"},{"name":"ท่าศาลา","zipcode":"40160"},{"name":"กุดเค้า","zipcode":"40160"},{"name":"นาข่า","zipcode":"40160"},{"name":"โพนเพ็ก","zipcode":"40160"}]},{"name":"สีชมพู","subdistricts":[{"name":"ซำยาง","zipcode":"40220"},{"name":"ภูห่าน","zipcode":"40220"},{"name":"นาจาน","zipcode":"40220"},{"name":"บริบูรณ์","zipcode":"40220"},{"name":"สีชมพู","zipcode":"40220"},{"name":"หนองแดง","zipcode":"40220"},{"name":"วังเพิ่ม","zipcode":"40220"},{"name":"บ้านใหม่","zipcode":"40220"},{"name":"ศรีสุข","zipcode":"40220"},{"name":"ดงลาน","zipcode":"40220"}]},{"name":"หนองนาคำ","subdistricts":[{"name":"ขนวน","zipcode":"40150"},{"name":"กุดธาตุ","zipcode":"40150"},{"name":"บ้านโคก","zipcode":"40150"}]},{"name":"หนองสองห้อง","subdistricts":[{"name":"คึมชาด","zipcode":"40190"},{"name":"ดอนดู่","zipcode":"40190"},{"name":"สำโรง","zipcode":"40190"},{"name":"หนองไผ่ล้อม","zipcode":"40190"},{"name":"โนนธาตุ","zipcode":"40190"},{"name":"ดอนดั่ง","zipcode":"40190"},{"name":"ดงเค็ง","zipcode":"40190"},{"name":"หนองสองห้อง","zipcode":"40190"},{"name":"หนองเม็ก","zipcode":"40190"},{"name":"ตะกั่วป่า","zipcode":"40190"},{"name":"วังหิน","zipcode":"40190"},{"name":"หันโจด","zipcode":"40190"}]},{"name":"หนองเรือ","subdistricts":[{"name":"โนนทัน","zipcode":"40210"},{"name":"หนองเรือ","zipcode":"40210"},{"name":"โนนทอง","zipcode":"40210"},{"name":"ยางคำ","zipcode":"40240"},{"name":"โนนสะอาด","zipcode":"40210"},{"name":"บ้านเม็ง","zipcode":"40210"},{"name":"กุดกว้าง","zipcode":"40210"},{"name":"จระเข้","zipcode":"40240"},{"name":"บ้านผือ","zipcode":"40240"},{"name":"บ้านกง","zipcode":"40240"}]},{"name":"อุบลรัตน์","subdistricts":[{"name":"บ้านดง","zipcode":"40250"},{"name":"ศรีสุขสำราญ","zipcode":"40250"},{"name":"เขื่อนอุบลรัตน์","zipcode":"40250"},{"name":"โคกสูง","zipcode":"40250"},{"name":"ทุ่งโป่ง","zipcode":"40250"},{"name":"นาคำ","zipcode":"40250"}]},{"name":"เขาสวนกวาง","subdistricts":[{"name":"คำม่วง","zipcode":"40280"},{"name":"นางิ้ว","zipcode":"40280"},{"name":"เขาสวนกวาง","zipcode":"40280"},{"name":"โนนสมบูรณ์","zipcode":"40280"},{"name":"ดงเมืองแอม","zipcode":"40280"}]},{"name":"เปือยน้อย","subdistricts":[{"name":"ขามป้อม","zipcode":"40340"},{"name":"เปือยน้อย","zipcode":"40340"},{"name":"สระแก้ว","zipcode":"40340"},{"name":"วังม่วง","zipcode":"40340"}]},{"name":"เมืองขอนแก่น","subdistricts":[{"name":"ดอนช้าง","zipcode":"40000"},{"name":"บ้านทุ่ม","zipcode":"40000"},{"name":"บึงเนียม","zipcode":"40000"},{"name":"บ้านค้อ","zipcode":"40000"},{"name":"โคกสี","zipcode":"40000"},{"name":"บ้านเป็ด","zipcode":"40000"},{"name":"สาวะถี","zipcode":"40000"},{"name":"ในเมือง","zipcode":"40000"},{"name":"ดอนหัน","zipcode":"40260"},{"name":"เมืองเก่า","zipcode":"40000"},{"name":"โนนท่อน","zipcode":"40000"},{"name":"แดงใหญ่","zipcode":"40000"},{"name":"ท่าพระ","zipcode":"40260"},{"name":"หนองตูม","zipcode":"40000"},{"name":"บ้านหว้า","zipcode":"40000"},{"name":"สำราญ","zipcode":"40000"},{"name":"ศิลา","zipcode":"40000"},{"name":"พระลับ","zipcode":"40000"}]},{"name":"แวงน้อย","subdistricts":[{"name":"แวงน้อย","zipcode":"40230"},{"name":"ทางขวาง","zipcode":"40230"},{"name":"ละหานนา","zipcode":"40230"},{"name":"ก้านเหลือง","zipcode":"40230"},{"name":"ท่าวัด","zipcode":"40230"},{"name":"ท่านางแนว","zipcode":"40230"}]},{"name":"แวงใหญ่","subdistricts":[{"name":"แวงใหญ่","zipcode":"40330"},{"name":"ใหม่นาเพียง","zipcode":"40330"},{"name":"โนนสะอาด","zipcode":"40330"},{"name":"โนนทอง","zipcode":"40330"},{"name":"คอนฉิม","zipcode":"40330"}]},{"name":"โคกโพธิ์ไชย","subdistricts":[{"name":"โพธิ์ไชย","zipcode":"40160"},{"name":"ซับสมบูรณ์","zipcode":"40160"},{"name":"บ้านโคก","zipcode":"40160"},{"name":"นาแพง","zipcode":"40160"}]},{"name":"โนนศิลา","subdistricts":[{"name":"โนนแดง","zipcode":"40110"},{"name":"บ้านหัน","zipcode":"40110"},{"name":"โนนศิลา","zipcode":"40110"},{"name":"เปือยใหญ่","zipcode":"40110"},{"name":"หนองปลาหมอ","zipcode":"40110"}]}]}
