{"province_id":29,"province_name":"อุดรธานี","districts":[{"name":"กุดจับ","subdistricts":[{"name":"สร้างก่อ","zipcode":"41250"},{"name":"ขอนยูง","zipcode":"41250"},{"name":"กุดจับ","zipcode":"41250"},{"name":"เมืองเพีย","zipcode":"41250"},{"name":"เชียงเพ็ง","zipcode":"41250"},{"name":"ปะโค","zipcode":"41250"},{"name":"ตาลเลียน","zipcode":"41250"}]},{"name":"กุมภวาปี","subdistricts":[{"name":"ปะโค","zipcode":"41370"},{"name":"พันดอน","zipcode":"41370"},{"name":"เสอเพลอ","zipcode":"41370"},{"name":"กุมภวาปี","zipcode":"41110"},{"name":"เชียงแหว","zipcode":"41110"},{"name":"ผาสุก","zipcode":"41370"},{"name":"เวียงคำ","zipcode":"41110"},{"name":"สีออ","zipcode":"41110"},{"name":"ตูมใต้","zipcode":"41110"},{"name":"หนองหว้า","zipcode":"41110"},{"name":"ห้วยเกิ้ง","zipcode":"41110"},{"name":"ท่าลี่","zipcode":"41110"},{"name":"แชแล","zipcode":"41110"}]},{"name":"กู่แก้ว","subdistricts":[{"name":"ค้อใหญ่","zipcode":"41130"},{"name":"บ้านจีต","zipcode":"41130"},{"name":"คอนสาย","zipcode":"41130"},{"name":"โนนทองอินทร์","zipcode":"41130"}]},{"name":"ทุ่งฝน","subdistricts":[{"name":"นาทม","zipcode":"41310"},{"name":"ทุ่งใหญ่","zipcode":"41310"},{"name":"นาชุมแสง","zipcode":"41310"},{"name":"ทุ่งฝน","zipcode":"41310"}]},{"name":"นายูง","subdistricts":[{"name":"นาแค","zipcode":"41380"},{"name":"นายูง","zipcode":"41380"},{"name":"โนนทอง","zipcode":"41380"},{"name":"บ้านก้อง","zipcode":"41380"}]},{"name":"น้ำโสม","subdistricts":[{"name":"สามัคคี","zipcode":"41210"},{"name":"โสมเยี่ยม","zipcode":"41210"},{"name":"หนองแวง","zipcode":"41210"},{"name":"นางัว","zipcode":"41210"},{"name":"ศรีสำราญ","zipcode":"41210"},{"name":"บ้านหยวก","zipcode":"41210"},{"name":"น้ำโสม","zipcode":"41210"}]},{"name":"บ้านดุง","subdistricts":[{"name":"บ้านดุง","zipcode":"41190"},{"name":"บ้านชัย","zipcode":"41190"},{"name":"บ้านตาด","zipcode":"41190"},{"name":"อ้อมกอ","zipcode":"41190"},{"name":"วังทอง","zipcode":"41190"},{"name":"ดงเย็น","zipcode":"41190"},{"name":"นาไหม","zipcode":"41190"},{"name":"ศรีสุทโธ","zipcode":"41190"},{"name":"นาคำ","zipcode":"41190"},{"name":"บ้านจันทน์","zipcode":"41190"},{"name":"บ้านม่วง","zipcode":"41190"},{"name":"โพนสูง","zipcode":"41190"},{"name":"ถ่อนนาลับ","zipcode":"41190"}]},{"name":"บ้านผือ","subdistricts":[{"name":"กลางใหญ่","zipcode":"41160"},{"name":"บ้านผือ","zipcode":"41160"},{"name":"หนองแวง","zipcode":"41160"},{"name":"ข้าวสาร","zipcode":"41160"},{"name":"หนองหัวคู","zipcode":"41160"},{"name":"คำบง","zipcode":"41160"},{"name":"เมืองพาน","zipcode":"41160"},{"name":"หายโศก","zipcode":"41160"},{"name":"จำปาโมง","zipcode":"41160"},{"name":"บ้านค้อ","zipcode":"41160"},{"name":"โนนทอง","zipcode":"41160"},{"name":"คำด้วง","zipcode":"41160"},{"name":"เขือน้ำ","zipcode":"41160"}]},{"name":"ประจักษ์ศิลปาคม","subdistricts":[{"name":"นาม่วง","zipcode":"41110"},{"name":"ห้วยสามพาด","zipcode":"41110"},{"name":"อุ่มจาน","zipcode":"41110"}]},{"name":"พิบูลย์รักษ์","subdistricts":[{"name":"บ้านแดง","zipcode":"41130"},{"name":"นาทราย","zipcode":"41130"},{"name":"ดอนกลอย","zipcode":"41130"}]},{"name":"วังสามหมอ","subdistricts":[{"name":"หนองกุงทับม้า","zipcode":"41280"},{"name":"วังสามหมอ","zipcode":"41280"},{"name":"ผาสุก","zipcode":"41280"},{"name":"หนองหญ้าไซ","zipcode":"41280"},{"name":"คำโคกสูง","zipcode":"41280"},{"name":"บะยาว","zipcode":"41280"}]},{"name":"ศรีธาตุ","subdistricts":[{"name":"ศรีธาตุ","zipcode":"41230"},{"name":"นายูง","zipcode":"41230"},{"name":"หัวนาคำ","zipcode":"41230"},{"name":"จำปี","zipcode":"41230"},{"name":"ตาดทอง","zipcode":"41230"},{"name":"หนองนกเขียน","zipcode":"41230"},{"name":"บ้านโปร่ง","zipcode":"41230"}]},{"name":"สร้างคอม","subdistricts":[{"name":"บ้านยวด","zipcode":"41260"},{"name":"สร้างคอม","zipcode":"41260"},{"name":"บ้านหินโงม","zipcode":"41260"},{"name":"บ้านโคก","zipcode":"41260"},{"name":"เชียงดา","zipcode":"41260"},{"name":"นาสะอาด","zipcode":"41260"}]},{"name":"หนองวัวซอ","subdistricts":[{"name":"อูบมุง","zipcode":"41220"},{"name":"หนองวัวซอ","zipcode":"41360"},{"name":"หมากหญ้า","zipcode":"41360"},{"name":"หนองบัวบาน","zipcode":"41360"},{"name":"กุดหมากไฟ","zipcode":"41220"},{"name":"หนองอ้อ","zipcode":"41220"},{"name":"โนนหวาย","zipcode":"41220"},{"name":"น้ำพ่น","zipcode":"41360"}]},{"name":"หนองหาน","subdistricts":[{"name":"ผักตบ","zipcode":"41130"},{"name":"หนองเม็ก","zipcode":"41130"},{"name":"บ้านยา","zipcode":"41320"},{"name":"หนองสระปลา","zipcode":"41320"},{"name":"สร้อยพร้าว","zipcode":"41130"},{"name":"หนองไผ่","zipcode":"41130"},{"name":"พังงู","zipcode":"41130"},{"name":"โพนงาม","zipcode":"41130"},{"name":"หนองหาน","zipcode":"41130"},{"name":"บ้านเชียง","zipcode":"41320"},{"name":"ดอนหายโศก","zipcode":"41130"},{"name":"สะแบง","zipcode":"41130"}]},{"name":"หนองแสง","subdistricts":[{"name":"ทับกุง","zipcode":"41340"},{"name":"แสงสว่าง","zipcode":"41340"},{"name":"นาดี","zipcode":"41340"},{"name":"หนองแสง","zipcode":"41340"}]},{"name":"เพ็ญ","subdistricts":[{"name":"บ้านเหล่า","zipcode":"41150"},{"name":"สุมเส้า","zipcode":"41150"},{"name":"นาพู่","zipcode":"41150"},{"name":"โคกกลาง","zipcode":"41150"},{"name":"เพ็ญ","zipcode":"41150"},{"name":"จอมศรี","zipcode":"41150"},{"name":"นาบัว","zipcode":"41150"},{"name":"สร้างแป้น","zipcode":"41150"},{"name":"เชียงหวาง","zipcode":"41150"},{"name":"บ้านธาตุ","zipcode":"41150"},{"name":"เตาไห","zipcode":"41150"}]},{"name":"เมืองอุดรธานี","subdistricts":[{"name":"หมูม่น","zipcode":"41000"},{"name":"โคกสะอาด","zipcode":"41000"},{"name":"บ้านเลื่อม","zipcode":"41000"},{"name":"บ้านตาด","zipcode":"41000"},{"name":"บ้านจั่น","zipcode":"41000"},{"name":"กุดสระ","zipcode":"41000"},{"name":"บ้านขาว","zipcode":"41000"},{"name":"หนองไฮ","zipcode":"41000"},{"name":"เชียงยืน","zipcode":"41000"},{"name":"หมากแข้ง","zipcode":"41000"},{"name":"นากว้าง","zipcode":"41000"},{"name":"เชียงพิณ","zipcode":"41000"},{"name":"โนนสูง","zipcode":"41330"},{"name":"หนองขอนกว้าง","zipcode":"41000"},{"name":"นาดี","zipcode":"41000"},{"name":"หนองบัว","zipcode":"41000"},{"name":"นาข่า","zipcode":"41000"},{"name":"หนองนาคำ","zipcode":"41000"},{"name":"นิคมสงเคราะห์","zipcode":"41000"},{"name":"หนองไผ่","zipcode":"41330"},{"name":"สามพร้าว","zipcode":"41000"}]},{"name":"โนนสะอาด","subdistricts":[{"name":"โนนสะอาด","zipcode":"41240"},{"name":"โคกกลาง","zipcode":"41240"},{"name":"ทมนางาม","zipcode":"41240"},{"name":"บุ่งแก้ว","zipcode":"41240"},{"name":"หนองกุงศรี","zipcode":"41240"},{"name":"โพธิ์ศรีสำราญ","zipcode":"41240"}]},{"name":"ไชยวาน","subdistricts":[{"name":"คำเลาะ","zipcode":"41290"},{"name":"ไชยวาน","zipcode":"41290"},{"name":"โพนสูง","zipcode":"41290"},{"name":"หนองหลัก","zipcode":"41290"}]}]}
