{"province_id":3,"province_name":"นนทบุรี","districts":[{"name":"บางกรวย","subdistricts":[{"name":"ปลายบาง","zipcode":"11130"},{"name":"วัดชลอ","zipcode":"11130"},{"name":"บางคูเวียง","zipcode":"11130"},{"name":"บางขนุน","zipcode":"11130"},{"name":"ศาลากลาง","zipcode":"11130"},{"name":"บางกรวย","zipcode":"11130"},{"name":"มหาสวัสดิ์","zipcode":"11130"},{"name":"บางขุนกอง","zipcode":"11130"},{"name":"บางสีทอง","zipcode":"11130"}]},{"name":"บางบัวทอง","subdistricts":[{"name":"ละหาร","zipcode":"11110"},{"name":"บางรักใหญ่","zipcode":"11110"},{"name":"บางรักพัฒนา","zipcode":"11110"},{"name":"โสนลอย","zipcode":"11110"},{"name":"ลำโพ","zipcode":"11110"},{"name":"บางคูรัด","zipcode":"11110"},{"name":"บางบัวทอง","zipcode":"11110"},{"name":"พิมลราช","zipcode":"11110"}]},{"name":"บางใหญ่","subdistricts":[{"name":"เสาธงหิน","zipcode":"11140"},{"name":"บางแม่นาง","zipcode":"11140"},{"name":"บางใหญ่","zipcode":"11140"},{"name":"บางเลน","zipcode":"11140"},{"name":"บางม่วง","zipcode":"11140"},{"name":"บ้านใหม่","zipcode":"11140"}]},{"name":"ปากเกร็ด","subdistricts":[{"name":"อ้อมเกร็ด","zipcode":"11120"},{"name":"บางตลาด","zipcode":"11120"},{"name":"ท่าอิฐ","zipcode":"11120"},{"name":"คลองเกลือ","zipcode":"11120"},{"name":"บางตะไนย์","zipcode":"11120"},{"name":"คลองข่อย","zipcode":"11120"},{"name":"บ้านใหม่","zipcode":"11120"},{"name":"เกาะเกร็ด","zipcode":"11120"},{"name":"ปากเกร็ด","zipcode":"11120"},{"name":"คลองพระอุดม","zipcode":"11120"},{"name":"บางพลับ","zipcode":"11120"},{"name":"บางพูด","zipcode":"11120"}]},{"name":"เมืองนนทบุรี","subdistricts":[{"name":"บางกระสอ","zipcode":"11000"},{"name":"ไทรม้า","zipcode":"11000"},{"name":"ตลาดขวัญ","zipcode":"11000"},{"name":"บางศรีเมือง","zipcode":"11000"},{"name":"ท่าทราย","zipcode":"11000"},{"name":"บางรักน้อย","zipcode":"11000"},{"name":"บางเขน","zipcode":"11000"},{"name":"บางกร่าง","zipcode":"11000"},{"name":"สวนใหญ่","zipcode":"11000"},{"name":"บางไผ่","zipcode":"11000"}]},{"name":"ไทรน้อย","subdistricts":[{"name":"ไทรใหญ่","zipcode":"11150"},{"name":"ราษฎร์นิยม","zipcode":"11150"},{"name":"ทวีวัฒนา","zipcode":"11150"},{"name":"ขุนศรี","zipcode":"11150"},{"name":"หนองเพรางาย","zipcode":"11150"},{"name":"ไทรน้อย","zipcode":"11150"},{"name":"คลองขวาง","zipcode":"11150"}]}]}
