{"province_id":30,"province_name":"เลย","districts":[{"name":"ด่านซ้าย","subdistricts":[{"name":"โคกงาม","zipcode":"42120"},{"name":"วังยาว","zipcode":"42120"},{"name":"ปากหมัน","zipcode":"42120"},{"name":"กกสะทอน","zipcode":"42120"},{"name":"โพนสูง","zipcode":"42120"},{"name":"นาหอ","zipcode":"42120"},{"name":"นาดี","zipcode":"42120"},{"name":"โป่ง","zipcode":"42120"},{"name":"ด่านซ้าย","zipcode":"42120"},{"name":"อิปุ่ม","zipcode":"42120"}]},{"name":"ท่าลี่","subdistricts":[{"name":"หนองผือ","zipcode":"42140"},{"name":"โคกใหญ่","zipcode":"42140"},{"name":"อาฮี","zipcode":"42140"},{"name":"ท่าลี่","zipcode":"42140"},{"name":"น้ำทูน","zipcode":"42140"},{"name":"น้ำแคม","zipcode":"42140"}]},{"name":"นาด้วง","subdistricts":[{"name":"ท่าสะอาด","zipcode":"42210"},{"name":"นาด้วง","zipcode":"42210"},{"name":"ท่าสวรรค์","zipcode":"42210"},{"name":"นาดอกคำ","zipcode":"42210"}]},{"name":"นาแห้ว","subdistricts":[{"name":"นาแห้ว","zipcode":"42170"},{"name":"นามาลา","zipcode":"42170"},{"name":"แสงภา","zipcode":"42170"},{"name":"เหล่ากอหก","zipcode":"42170"},{"name":"นาพึง","zipcode":"42170"}]},{"name":"ปากชม","subdistricts":[{"name":"ห้วยพิชัย","zipcode":"42150"},{"name":"หาดคัมภีร์","zipcode":"42150"},{"name":"ปากชม","zipcode":"42150"},{"name":"ชมเจริญ","zipcode":"42150"},{"name":"ห้วยบ่อซืน","zipcode":"42150"},{"name":"เชียงกลม","zipcode":"42150"}]},{"name":"ผาขาว","subdistricts":[{"name":"โนนปอแดง","zipcode":"42240"},{"name":"ผาขาว","zipcode":"42240"},{"name":"โนนป่าซาง","zipcode":"42240"},{"name":"ท่าช้างคล้อง","zipcode":"42240"},{"name":"บ้านเพิ่ม","zipcode":"42240"}]},{"name":"ภูกระดึง","subdistricts":[{"name":"ภูกระดึง","zipcode":"42180"},{"name":"ศรีฐาน","zipcode":"42180"},{"name":"ห้วยส้ม","zipcode":"42180"},{"name":"ผานกเค้า","zipcode":"42180"}]},{"name":"ภูหลวง","subdistricts":[{"name":"ภูหอ","zipcode":"42230"},{"name":"เลยวังไสย์","zipcode":"42230"},{"name":"หนองคัน","zipcode":"42230"},{"name":"แก่งศรีภูมิ","zipcode":"42230"},{"name":"ห้วยสีเสียด","zipcode":"42230"}]},{"name":"ภูเรือ","subdistricts":[{"name":"ร่องจิก","zipcode":"42160"},{"name":"หนองบัว","zipcode":"42160"},{"name":"สานตม","zipcode":"42160"},{"name":"ปลาบ่า","zipcode":"42160"},{"name":"ท่าศาลา","zipcode":"42160"},{"name":"ลาดค่าง","zipcode":"42160"}]},{"name":"วังสะพุง","subdistricts":[{"name":"ศรีสงคราม","zipcode":"42130"},{"name":"หนองหญ้าปล้อง","zipcode":"42130"},{"name":"เขาหลวง","zipcode":"42130"},{"name":"วังสะพุง","zipcode":"42130"},{"name":"ผาน้อย","zipcode":"42130"},{"name":"หนองงิ้ว","zipcode":"42130"},{"name":"โคกขมิ้น","zipcode":"42130"},{"name":"ทรายขาว","zipcode":"42130"},{"name":"ผาบิ้ง","zipcode":"42130"},{"name":"ปากปวน","zipcode":"42130"}]},{"name":"หนองหิน","subdistricts":[{"name":"หนองหิน","zipcode":"42190"},{"name":"ตาดข่า","zipcode":"42190"},{"name":"ปวนพุ","zipcode":"42190"}]},{"name":"เชียงคาน","subdistricts":[{"name":"บุฮม","zipcode":"42110"},{"name":"เขาแก้ว","zipcode":"42110"},{"name":"ธาตุ","zipcode":"42110"},{"name":"จอมศรี","zipcode":"42110"},{"name":"ปากตม","zipcode":"42110"},{"name":"นาซ่าว","zipcode":"42110"},{"name":"หาดทรายขาว","zipcode":"42110"},{"name":"เชียงคาน","zipcode":"42110"}]},{"name":"เมืองเลย","subdistricts":[{"name":"น้ำหมาน","zipcode":"42000"},{"name":"น้ำสวย","zipcode":"42000"},{"name":"นาอ้อ","zipcode":"42100"},{"name":"นาโป่ง","zipcode":"42000"},{"name":"กุดป่อง","zipcode":"42000"},{"name":"ศรีสองรัก","zipcode":"42100"},{"name":"เสี้ยว","zipcode":"42000"},{"name":"ชัยพฤกษ์","zipcode":"42000"},{"name":"กกดู่","zipcode":"42000"},{"name":"นาดินดำ","zipcode":"42000"},{"name":"เมือง","zipcode":"42000"},{"name":"กกทอง","zipcode":"42000"},{"name":"นาอาน","zipcode":"42000"},{"name":"นาแขม","zipcode":"42000"}]},{"name":"เอราวัณ","subdistricts":[{"name":"ผาสามยอด","zipcode":"42220"},{"name":"เอราวัณ","zipcode":"42220"},{"name":"ทรัพย์ไพวัลย์","zipcode":"42220"},{"name":"ผาอินทร์แปลง","zipcode":"42220"}]}]}
