{"province_id":31,"province_name":"หนองคาย","districts":[{"name":"ท่าบ่อ","subdistricts":[{"name":"นาข่า","zipcode":"43110"},{"name":"ท่าบ่อ","zipcode":"43110"},{"name":"บ้านถ่อน","zipcode":"43110"},{"name":"โคกคอน","zipcode":"43110"},{"name":"โพนสา","zipcode":"43110"},{"name":"น้ำโมง","zipcode":"43110"},{"name":"บ้านว่าน","zipcode":"43110"},{"name":"บ้านเดื่อ","zipcode":"43110"},{"name":"หนองนาง","zipcode":"43110"},{"name":"กองนาง","zipcode":"43110"}]},{"name":"รัตนวาปี","subdistricts":[{"name":"รัตนวาปี","zipcode":"43120"},{"name":"พระบาทนาสิงห์","zipcode":"43120"},{"name":"นาทับไฮ","zipcode":"43120"},{"name":"โพนแพง","zipcode":"43120"},{"name":"บ้านต้อน","zipcode":"43120"}]},{"name":"ศรีเชียงใหม่","subdistricts":[{"name":"หนองปลาปาก","zipcode":"43130"},{"name":"บ้านหม้อ","zipcode":"43130"},{"name":"พระพุทธบาท","zipcode":"43130"},{"name":"พานพร้าว","zipcode":"43130"}]},{"name":"สระใคร","subdistricts":[{"name":"คอกช้าง","zipcode":"43100"},{"name":"บ้านฝาง","zipcode":"43100"},{"name":"สระใคร","zipcode":"43100"}]},{"name":"สังคม","subdistricts":[{"name":"ผาตั้ง","zipcode":"43160"},{"name":"สังคม","zipcode":"43160"},{"name":"บ้านม่วง","zipcode":"43160"},{"name":"แก้งไก่","zipcode":"43160"},{"name":"นางิ้ว","zipcode":"43160"}]},{"name":"เฝ้าไร่","subdistricts":[{"name":"วังหลวง","zipcode":"43120"},{"name":"นาดี","zipcode":"43120"},{"name":"อุดมพร","zipcode":"43120"},{"name":"หนองหลวง","zipcode":"43120"},{"name":"เฝ้าไร่","zipcode":"43120"}]},{"name":"เมืองหนองคาย","subdistricts":[{"name":"เวียงคุก","zipcode":"43000"},{"name":"ค่ายบกหวาน","zipcode":"43100"},{"name":"โพธิ์ชัย","zipcode":"43000"},{"name":"เมืองหมี","zipcode":"43000"},{"name":"หินโงม","zipcode":"43000"},{"name":"ในเมือง","zipcode":"43000"},{"name":"หนองกอมเกาะ","zipcode":"43000"},{"name":"วัดธาตุ","zipcode":"43000"},{"name":"สองห้อง","zipcode":"43100"},{"name":"กวนวัน","zipcode":"43000"},{"name":"สีกาย","zipcode":"43000"},{"name":"บ้านเดื่อ","zipcode":"43000"},{"name":"มีชัย","zipcode":"43000"},{"name":"ปะโค","zipcode":"43000"},{"name":"หาดคำ","zipcode":"43000"},{"name":"พระธาตุบังพวน","zipcode":"43100"}]},{"name":"โพธิ์ตาก","subdistricts":[{"name":"ด่านศรีสุข","zipcode":"43130"},{"name":"โพธิ์ตาก","zipcode":"43130"},{"name":"โพนทอง","zipcode":"43130"}]},{"name":"โพนพิสัย","subdistricts":[{"name":"บ้านผือ","zipcode":"43120"},{"name":"กุดบง","zipcode":"43120"},{"name":"เซิม","zipcode":"43120"},{"name":"จุมพล","zipcode":"43120"},{"name":"เหล่าต่างคำ","zipcode":"43120"},{"name":"สร้างนางขาว","zipcode":"43120"},{"name":"ชุมช้าง","zipcode":"43120"},{"name":"บ้านโพธิ์","zipcode":"43120"},{"name":"วัดหลวง","zipcode":"43120"},{"name":"นาหนัง","zipcode":"43120"},{"name":"ทุ่งหลวง","zipcode":"43120"}]}]}
