{"province_id":32,"province_name":"มหาสารคาม","districts":[{"name":"กันทรวิชัย","subdistricts":[{"name":"กุดใส้จ่อ","zipcode":"44150"},{"name":"คันธารราษฎร์","zipcode":"44150"},{"name":"เขวาใหญ่","zipcode":"44150"},{"name":"นาสีนวน","zipcode":"44150"},{"name":"ขามเฒ่าพัฒนา","zipcode":"44150"},{"name":"มะค่า","zipcode":"44150"},{"name":"ศรีสุข","zipcode":"44150"},{"name":"โคกพระ","zipcode":"44150"},{"name":"ขามเรียง","zipcode":"44150"},{"name":"ท่าขอนยาง","zipcode":"44150"}]},{"name":"กุดรัง","subdistricts":[{"name":"หนองแวง","zipcode":"44130"},{"name":"นาโพธิ์","zipcode":"44130"},{"name":"ห้วยเตย","zipcode":"44130"},{"name":"เลิงแฝก","zipcode":"44130"},{"name":"กุดรัง","zipcode":"44130"}]},{"name":"ชื่นชม","subdistricts":[{"name":"หนองกุง","zipcode":"44160"},{"name":"กุดปลาดุก","zipcode":"44160"},{"name":"เหล่าดอกไม้","zipcode":"44160"},{"name":"ชื่นชม","zipcode":"44160"}]},{"name":"นาดูน","subdistricts":[{"name":"กู่สันตรัตน์","zipcode":"44180"},{"name":"นาดูน","zipcode":"44180"},{"name":"หัวดง","zipcode":"44180"},{"name":"ดงบัง","zipcode":"44180"},{"name":"พระธาตุ","zipcode":"44180"},{"name":"หนองไผ่","zipcode":"44180"},{"name":"ดงยาง","zipcode":"44180"},{"name":"ดงดวน","zipcode":"44180"},{"name":"หนองคู","zipcode":"44180"}]},{"name":"นาเชือก","subdistricts":[{"name":"หนองกุง","zipcode":"44170"},{"name":"สำโรง","zipcode":"44170"},{"name":"หนองเม็ก","zipcode":"44170"},{"name":"หนองโพธิ์","zipcode":"44170"},{"name":"สันป่าตอง","zipcode":"44170"},{"name":"หนองแดง","zipcode":"44170"},{"name":"หนองเรือ","zipcode":"44170"},{"name":"นาเชือก","zipcode":"44170"},{"name":"ปอพาน","zipcode":"44170"},{"name":"เขวาไร่","zipcode":"44170"}]},{"name":"บรบือ","subdistricts":[{"name":"กำพี้","zipcode":"44130"},{"name":"หนองคูขาด","zipcode":"44130"},{"name":"วังไชย","zipcode":"44130"},{"name":"ดอนงัว","zipcode":"44130"},{"name":"หนองจิก","zipcode":"44130"},{"name":"บรบือ","zipcode":"44130"},{"name":"หนองสิม","zipcode":"44130"},{"name":"โนนราษี","zipcode":"44130"},{"name":"วังใหม่","zipcode":"44130"},{"name":"หนองม่วง","zipcode":"44130"},{"name":"บัวมาศ","zipcode":"44130"},{"name":"บ่อใหญ่","zipcode":"44130"},{"name":"หนองโก","zipcode":"44130"},{"name":"โนนแดง","zipcode":"44130"},{"name":"ยาง","zipcode":"44130"}]},{"name":"พยัคฆภูมิพิสัย","subdistricts":[{"name":"หนองบัว","zipcode":"44110"},{"name":"เม็กดำ","zipcode":"44110"},{"name":"ลานสะแก","zipcode":"44110"},{"name":"ก้ามปู","zipcode":"44110"},{"name":"ภารแอ่น","zipcode":"44110"},{"name":"หนองบัวแก้ว","zipcode":"44110"},{"name":"ราษฎร์พัฒนา","zipcode":"44110"},{"name":"นาสีนวล","zipcode":"44110"},{"name":"เวียงชัย","zipcode":"44110"},{"name":"เวียงสะอาด","zipcode":"44110"},{"name":"เมืองเตา","zipcode":"44110"},{"name":"ปะหลาน","zipcode":"44110"},{"name":"เมืองเสือ","zipcode":"44110"},{"name":"ราษฎร์เจริญ","zipcode":"44110"}]},{"name":"ยางสีสุราช","subdistricts":[{"name":"ขามเรียน","zipcode":"44210"},{"name":"บ้านกู่","zipcode":"44210"},{"name":"นาภู","zipcode":"44210"},{"name":"หนองบัวสันตุ","zipcode":"44210"},{"name":"ดงเมือง","zipcode":"44210"},{"name":"แวงดง","zipcode":"44210"},{"name":"ยางสีสุราช","zipcode":"44210"}]},{"name":"วาปีปทุม","subdistricts":[{"name":"ดงใหญ่","zipcode":"44120"},{"name":"นาข่า","zipcode":"44120"},{"name":"ขามป้อม","zipcode":"44120"},{"name":"หนองแสน","zipcode":"44120"},{"name":"แคน","zipcode":"44120"},{"name":"ประชาพัฒนา","zipcode":"44120"},{"name":"โพธิ์ชัย","zipcode":"44120"},{"name":"บ้านหวาย","zipcode":"44120"},{"name":"เสือโก้ก","zipcode":"44120"},{"name":"โคกสีทองหลาง","zipcode":"44120"},{"name":"งัวบา","zipcode":"44120"},{"name":"หนองแสง","zipcode":"44120"},{"name":"หนองทุ่ม","zipcode":"44120"},{"name":"หัวเรือ","zipcode":"44120"},{"name":"หนองไฮ","zipcode":"44120"}]},{"name":"เชียงยืน","subdistricts":[{"name":"เสือเฒ่า","zipcode":"44160"},{"name":"กู่ทอง","zipcode":"44160"},{"name":"หนองซอน","zipcode":"44160"},{"name":"โพนทอง","zipcode":"44160"},{"name":"นาทอง","zipcode":"44160"},{"name":"ดอนเงิน","zipcode":"44160"},{"name":"เหล่าบัวบาน","zipcode":"44160"},{"name":"เชียงยืน","zipcode":"44160"}]},{"name":"เมืองมหาสารคาม","subdistricts":[{"name":"บัวค้อ","zipcode":"44000"},{"name":"เกิ้ง","zipcode":"44000"},{"name":"ห้วยแอ่ง","zipcode":"44000"},{"name":"โคกก่อ","zipcode":"44000"},{"name":"ท่าตูม","zipcode":"44000"},{"name":"ลาดพัฒนา","zipcode":"44000"},{"name":"ตลาด","zipcode":"44000"},{"name":"แก่งเลิงจาน","zipcode":"44000"},{"name":"หนองโน","zipcode":"44000"},{"name":"ดอนหว่าน","zipcode":"44000"},{"name":"แวงน่าง","zipcode":"44000"},{"name":"หนองปลิง","zipcode":"44000"},{"name":"เขวา","zipcode":"44000"},{"name":"ท่าสองคอน","zipcode":"44000"}]},{"name":"แกดำ","subdistricts":[{"name":"โนนภิบาล","zipcode":"44190"},{"name":"มิตรภาพ","zipcode":"44190"},{"name":"แกดำ","zipcode":"44190"},{"name":"หนองกุง","zipcode":"44190"},{"name":"วังแสง","zipcode":"44190"}]},{"name":"โกสุมพิสัย","subdistricts":[{"name":"แห่ใต้","zipcode":"44140"},{"name":"หนองเหล็ก","zipcode":"44140"},{"name":"โพนงาม","zipcode":"44140"},{"name":"แพง","zipcode":"44140"},{"name":"ดอนกลาง","zipcode":"44140"},{"name":"เขื่อน","zipcode":"44140"},{"name":"วังยาว","zipcode":"44140"},{"name":"หนองกุงสวรรค์","zipcode":"44140"},{"name":"หนองบัว","zipcode":"44140"},{"name":"หัวขวาง","zipcode":"44140"},{"name":"ยางท่าแจ้ง","zipcode":"44140"},{"name":"แก้งแก","zipcode":"44140"},{"name":"หนองบอน","zipcode":"44140"},{"name":"เขวาไร่","zipcode":"44140"},{"name":"เลิงใต้","zipcode":"44140"},{"name":"เหล่า","zipcode":"44140"},{"name":"ยางน้อย","zipcode":"44140"}]}]}
