{"province_id":33,"province_name":"ร้อยเอ็ด","districts":[{"name":"จตุรพักตรพิมาน","subdistricts":[{"name":"ดู่น้อย","zipcode":"45180"},{"name":"โคกล่าม","zipcode":"45180"},{"name":"อีง่อง","zipcode":"45180"},{"name":"หนองผือ","zipcode":"45180"},{"name":"ดงกลาง","zipcode":"45180"},{"name":"ศรีโคตร","zipcode":"45180"},{"name":"น้ำใส","zipcode":"45180"},{"name":"ลิ้นฟ้า","zipcode":"45180"},{"name":"เมืองหงส์","zipcode":"45180"},{"name":"ป่าสังข์","zipcode":"45180"},{"name":"หัวช้าง","zipcode":"45180"},{"name":"ดงแดง","zipcode":"45180"}]},{"name":"จังหาร","subdistricts":[{"name":"ดงสิงห์","zipcode":"45000"},{"name":"ม่วงลาด","zipcode":"45000"},{"name":"แสนชาติ","zipcode":"45000"},{"name":"ดินดำ","zipcode":"45000"},{"name":"ยางใหญ่","zipcode":"45000"},{"name":"จังหาร","zipcode":"45000"},{"name":"ปาฝา","zipcode":"45000"},{"name":"ผักแว่น","zipcode":"45000"}]},{"name":"ทุ่งเขาหลวง","subdistricts":[{"name":"ทุ่งเขาหลวง","zipcode":"45170"},{"name":"มะบ้า","zipcode":"45170"},{"name":"เทอดไทย","zipcode":"45170"},{"name":"เหล่า","zipcode":"45170"},{"name":"บึงงาม","zipcode":"45170"}]},{"name":"ธวัชบุรี","subdistricts":[{"name":"มะอึ","zipcode":"45170"},{"name":"ราชธานี","zipcode":"45170"},{"name":"ธวัชบุรี","zipcode":"45170"},{"name":"เมืองน้อย","zipcode":"45170"},{"name":"ธงธานี","zipcode":"45170"},{"name":"เขวาทุ่ง","zipcode":"45170"},{"name":"อุ่มเม้า","zipcode":"45170"},{"name":"หนองพอก","zipcode":"45170"},{"name":"บึงนคร","zipcode":"45170"},{"name":"หนองไผ่","zipcode":"45170"},{"name":"ไพศาล","zipcode":"45170"},{"name":"นิเวศน์","zipcode":"45170"}]},{"name":"ปทุมรัตต์","subdistricts":[{"name":"โนนสวรรค์","zipcode":"45190"},{"name":"หนองแคน","zipcode":"45190"},{"name":"ขี้เหล็ก","zipcode":"45190"},{"name":"บัวแดง","zipcode":"45190"},{"name":"สระบัว","zipcode":"45190"},{"name":"โพนสูง","zipcode":"45190"},{"name":"ดอกล้ำ","zipcode":"45190"},{"name":"โนนสง่า","zipcode":"45190"}]},{"name":"พนมไพร","subdistricts":[{"name":"พนมไพร","zipcode":"45140"},{"name":"ชานุวรรณ","zipcode":"45140"},{"name":"วารีสวัสดิ์","zipcode":"45140"},{"name":"สระแก้ว","zipcode":"45140"},{"name":"หนองทัพไทย","zipcode":"45140"},{"name":"นานวล","zipcode":"45140"},{"name":"แสนสุข","zipcode":"45140"},{"name":"โคกสว่าง","zipcode":"45140"},{"name":"ค้อใหญ่","zipcode":"45140"},{"name":"โพธิ์ใหญ่","zipcode":"45140"},{"name":"คำไฮ","zipcode":"45140"},{"name":"กุดน้ำใส","zipcode":"45140"},{"name":"โพธิ์ชัย","zipcode":"45140"}]},{"name":"ศรีสมเด็จ","subdistricts":[{"name":"บ้านบาก","zipcode":"45000"},{"name":"โพธิ์ทอง","zipcode":"45000"},{"name":"โพธิ์สัย","zipcode":"45280"},{"name":"หนองใหญ่","zipcode":"45000"},{"name":"ศรีสมเด็จ","zipcode":"45000"},{"name":"หนองแวงควง","zipcode":"45000"},{"name":"สวนจิก","zipcode":"45280"},{"name":"เมืองเปลือย","zipcode":"45000"}]},{"name":"สุวรรณภูมิ","subdistricts":[{"name":"ดอกไม้","zipcode":"45130"},{"name":"ทุ่งศรีเมือง","zipcode":"45130"},{"name":"บ่อพันขัน","zipcode":"45130"},{"name":"ช้างเผือก","zipcode":"45130"},{"name":"เมืองทุ่ง","zipcode":"45130"},{"name":"น้ำคำ","zipcode":"45130"},{"name":"นาใหญ่","zipcode":"45130"},{"name":"จำปาขัน","zipcode":"45130"},{"name":"ทุ่งหลวง","zipcode":"45130"},{"name":"สระคู","zipcode":"45130"},{"name":"ทุ่งกุลา","zipcode":"45130"},{"name":"หัวโทน","zipcode":"45130"},{"name":"ห้วยหินลาด","zipcode":"45130"},{"name":"หินกอง","zipcode":"45130"},{"name":"หัวช้าง","zipcode":"45130"}]},{"name":"หนองพอก","subdistricts":[{"name":"ภูเขาทอง","zipcode":"45210"},{"name":"ผาน้ำย้อย","zipcode":"45210"},{"name":"หนองพอก","zipcode":"45210"},{"name":"หนองขุ่นใหญ่","zipcode":"45210"},{"name":"กกโพธิ์","zipcode":"45210"},{"name":"ท่าสีดา","zipcode":"45210"},{"name":"บึงงาม","zipcode":"45210"},{"name":"รอบเมือง","zipcode":"45210"},{"name":"โคกสว่าง","zipcode":"45210"}]},{"name":"หนองฮี","subdistricts":[{"name":"ดูกอึ่ง","zipcode":"45140"},{"name":"หนองฮี","zipcode":"45140"},{"name":"เด่นราษฎร์","zipcode":"45140"},{"name":"สาวแห","zipcode":"45140"}]},{"name":"อาจสามารถ","subdistricts":[{"name":"หนองบัว","zipcode":"45160"},{"name":"อาจสามารถ","zipcode":"45160"},{"name":"หนองขาม","zipcode":"45160"},{"name":"หน่อม","zipcode":"45160"},{"name":"ขี้เหล็ก","zipcode":"45160"},{"name":"โพนเมือง","zipcode":"45160"},{"name":"โหรา","zipcode":"45160"},{"name":"หนองหมื่นถ่าน","zipcode":"45160"},{"name":"บ้านดู่","zipcode":"45160"},{"name":"บ้านแจ้ง","zipcode":"45160"}]},{"name":"เกษตรวิสัย","subdistricts":[{"name":"ดงครั่งน้อย","zipcode":"45150"},{"name":"บ้านฝาง","zipcode":"45150"},{"name":"โนนสว่าง","zipcode":"45150"},{"name":"สิงห์โคก","zipcode":"45150"},{"name":"กู่กาสิงห์","zipcode":"45150"},{"name":"เมืองบัว","zipcode":"45150"},{"name":"หนองแวง","zipcode":"45150"},{"name":"ทุ่งทอง","zipcode":"45150"},{"name":"ดงครั่งใหญ่","zipcode":"45150"},{"name":"น้ำอ้อม","zipcode":"45150"},{"name":"เหล่าหลวง","zipcode":"45150"},{"name":"กำแพง","zipcode":"45150"},{"name":"เกษตรวิสัย","zipcode":"45150"}]},{"name":"เชียงขวัญ","subdistricts":[{"name":"พระเจ้า","zipcode":"45000"},{"name":"พลับพลา","zipcode":"45170"},{"name":"หมูม้น","zipcode":"45170"},{"name":"พระธาตุ","zipcode":"45000"},{"name":"เชียงขวัญ","zipcode":"45000"},{"name":"บ้านเขือง","zipcode":"45000"}]},{"name":"เมยวดี","subdistricts":[{"name":"บุ่งเลิศ","zipcode":"45250"},{"name":"เมยวดี","zipcode":"45250"},{"name":"ชมสะอาด","zipcode":"45250"},{"name":"ชุมพร","zipcode":"45250"}]},{"name":"เมืองร้อยเอ็ด","subdistricts":[{"name":"โนนรัง","zipcode":"45000"},{"name":"รอบเมือง","zipcode":"45000"},{"name":"โนนตาล","zipcode":"45000"},{"name":"สีแก้ว","zipcode":"45000"},{"name":"ดงลาน","zipcode":"45000"},{"name":"นาโพธิ์","zipcode":"45000"},{"name":"หนองแก้ว","zipcode":"45000"},{"name":"เหนือเมือง","zipcode":"45000"},{"name":"เมืองทอง","zipcode":"45000"},{"name":"ปอภาร(ปอพาน)","zipcode":"45000"},{"name":"ในเมือง","zipcode":"45000"},{"name":"แคนใหญ่","zipcode":"45000"},{"name":"สะอาดสมบูรณ์","zipcode":"45000"},{"name":"หนองแวง","zipcode":"45000"},{"name":"ขอนแก่น","zipcode":"45000"}]},{"name":"เมืองสรวง","subdistricts":[{"name":"กกกุง","zipcode":"45220"},{"name":"หนองหิน","zipcode":"45220"},{"name":"เมืองสรวง","zipcode":"45220"},{"name":"คูเมือง","zipcode":"45220"},{"name":"หนองผือ","zipcode":"45220"}]},{"name":"เสลภูมิ","subdistricts":[{"name":"กลาง","zipcode":"45120"},{"name":"เหล่าน้อย","zipcode":"45120"},{"name":"วังหลวง","zipcode":"45120"},{"name":"บึงเกลือ","zipcode":"45120"},{"name":"เกาะแก้ว","zipcode":"45120"},{"name":"นาแซง","zipcode":"45120"},{"name":"พรสวรรค์","zipcode":"45120"},{"name":"โพธิ์ทอง","zipcode":"45120"},{"name":"นางาม","zipcode":"45120"},{"name":"ศรีวิลัย","zipcode":"45120"},{"name":"ท่าม่วง","zipcode":"45120"},{"name":"นาเลิง","zipcode":"45120"},{"name":"นาเมือง","zipcode":"45120"},{"name":"ขวัญเมือง","zipcode":"45120"},{"name":"ภูเงิน","zipcode":"45120"},{"name":"เมืองไพร","zipcode":"45120"},{"name":"หนองหลวง","zipcode":"45120"},{"name":"ขวาว","zipcode":"45120"}]},{"name":"โพธิ์ชัย","subdistricts":[{"name":"สะอาด","zipcode":"45230"},{"name":"บัวคำ","zipcode":"45230"},{"name":"ดอนโอง","zipcode":"45230"},{"name":"ขามเปี้ย","zipcode":"45230"},{"name":"คำพอุง","zipcode":"45230"},{"name":"อัคคะคำ","zipcode":"45230"},{"name":"โพธิ์ศรี","zipcode":"45230"},{"name":"เชียงใหม่","zipcode":"45230"},{"name":"หนองตาไก้","zipcode":"45230"}]},{"name":"โพนทราย","subdistricts":[{"name":"โพนทราย","zipcode":"45240"},{"name":"ยางคำ","zipcode":"45240"},{"name":"สามขา","zipcode":"45240"},{"name":"ท่าหาดยาว","zipcode":"45240"},{"name":"ศรีสว่าง","zipcode":"45240"}]},{"name":"โพนทอง","subdistricts":[{"name":"โนนชัยศรี","zipcode":"45110"},{"name":"สระนกแก้ว","zipcode":"45110"},{"name":"หนองใหญ่","zipcode":"45110"},{"name":"คำนาดี","zipcode":"45110"},{"name":"นาอุดม","zipcode":"45110"},{"name":"โพธิ์ศรีสว่าง","zipcode":"45110"},{"name":"แวง","zipcode":"45110"},{"name":"วังสามัคคี","zipcode":"45110"},{"name":"โพธิ์ทอง","zipcode":"45110"},{"name":"พรมสวรรค์","zipcode":"45110"},{"name":"สว่าง","zipcode":"45110"},{"name":"อุ่มเม่า","zipcode":"45110"},{"name":"โคกกกม่วง","zipcode":"45110"},{"name":"โคกสูง","zipcode":"45110"}]}]}
