{"province_id":34,"province_name":"กาฬสินธุ์","districts":[{"name":"กมลาไสย","subdistricts":[{"name":"ธัญญา","zipcode":"46130"},{"name":"โพนงาม","zipcode":"46130"},{"name":"โคกสมบูรณ์","zipcode":"46130"},{"name":"กมลาไสย","zipcode":"46130"},{"name":"หนองแปน","zipcode":"46130"},{"name":"ดงลิง","zipcode":"46130"},{"name":"หลักเมือง","zipcode":"46130"},{"name":"เจ้าท่า","zipcode":"46130"}]},{"name":"กุฉินารายณ์","subdistricts":[{"name":"นาขาม","zipcode":"46110"},{"name":"บัวขาว","zipcode":"46110"},{"name":"กุดหว้า","zipcode":"46110"},{"name":"สมสะอาด","zipcode":"46110"},{"name":"จุมจัง","zipcode":"46110"},{"name":"หนองห้าง","zipcode":"46110"},{"name":"แจนแลน","zipcode":"46110"},{"name":"สามขา","zipcode":"46110"},{"name":"กุดค้าว","zipcode":"46110"},{"name":"เหล่าไฮงาม","zipcode":"46110"},{"name":"นาโก","zipcode":"46110"},{"name":"เหล่าใหญ่","zipcode":"46110"}]},{"name":"คำม่วง","subdistricts":[{"name":"ดินจี่","zipcode":"46180"},{"name":"ทุ่งคลอง","zipcode":"46180"},{"name":"เนินยาง","zipcode":"46180"},{"name":"นาบอน","zipcode":"46180"},{"name":"โพน","zipcode":"46180"},{"name":"นาทัน","zipcode":"46180"}]},{"name":"ฆ้องชัย","subdistricts":[{"name":"ฆ้องชัยพัฒนา","zipcode":"46130"},{"name":"โนนศิลาเลิง","zipcode":"46130"},{"name":"เหล่ากลาง","zipcode":"46130"},{"name":"ลำชี","zipcode":"46130"},{"name":"โคกสะอาด","zipcode":"46130"}]},{"name":"ดอนจาน","subdistricts":[{"name":"ม่วงนา","zipcode":"46000"},{"name":"สะอาดไชยศรี","zipcode":"46000"},{"name":"นาจำปา","zipcode":"46000"},{"name":"ดงพยุง","zipcode":"46000"},{"name":"ดอนจาน","zipcode":"46000"}]},{"name":"ท่าคันโท","subdistricts":[{"name":"กุดจิก","zipcode":"46190"},{"name":"กุงเก่า","zipcode":"46190"},{"name":"นาตาล","zipcode":"46190"},{"name":"ยางอู้ม","zipcode":"46190"},{"name":"ท่าคันโท","zipcode":"46190"},{"name":"ดงสมบูรณ์","zipcode":"46190"}]},{"name":"นาคู","subdistricts":[{"name":"บ่อแก้ว","zipcode":"46160"},{"name":"สายนาวัง","zipcode":"46160"},{"name":"ภูแล่นช้าง","zipcode":"46160"},{"name":"โนนนาจาน","zipcode":"46160"},{"name":"นาคู","zipcode":"46160"}]},{"name":"นามน","subdistricts":[{"name":"สงเปลือย","zipcode":"46230"},{"name":"นามน","zipcode":"46230"},{"name":"หลักเหลี่ยม","zipcode":"46230"},{"name":"ยอดแกง","zipcode":"46230"},{"name":"หนองบัว","zipcode":"46230"}]},{"name":"ยางตลาด","subdistricts":[{"name":"หัวงัว","zipcode":"46120"},{"name":"ดอนสมบูรณ์","zipcode":"46120"},{"name":"โนนสูง","zipcode":"46120"},{"name":"หัวนาคำ","zipcode":"46120"},{"name":"เขาพระนอน","zipcode":"46120"},{"name":"เว่อ","zipcode":"46120"},{"name":"อุ่มเม่า","zipcode":"46120"},{"name":"นาเชือก","zipcode":"46120"},{"name":"หนองตอกแป้น","zipcode":"46120"},{"name":"ยางตลาด","zipcode":"46120"},{"name":"หนองอิเฒ่า","zipcode":"46120"},{"name":"นาดี","zipcode":"46120"},{"name":"อิตื้อ","zipcode":"46120"},{"name":"คลองขาม","zipcode":"46120"},{"name":"บัวบาน","zipcode":"46120"}]},{"name":"ร่องคำ","subdistricts":[{"name":"สามัคคี","zipcode":"46210"},{"name":"เหล่าอ้อย","zipcode":"46210"},{"name":"ร่องคำ","zipcode":"46210"}]},{"name":"สมเด็จ","subdistricts":[{"name":"ลำห้วยหลัว","zipcode":"46150"},{"name":"สมเด็จ","zipcode":"46150"},{"name":"ผาเสวย","zipcode":"46150"},{"name":"มหาไชย","zipcode":"46150"},{"name":"หนองแวง","zipcode":"46150"},{"name":"ศรีสมเด็จ","zipcode":"46150"},{"name":"หมูม่น","zipcode":"46150"},{"name":"แซงบาดาล","zipcode":"46150"}]},{"name":"สหัสขันธ์","subdistricts":[{"name":"โนนศิลา","zipcode":"46140"},{"name":"สหัสขันธ์","zipcode":"46140"},{"name":"โนนบุรี","zipcode":"46140"},{"name":"นิคม","zipcode":"46140"},{"name":"นามะเขือ","zipcode":"46140"},{"name":"โนนน้ำเกลี้ยง","zipcode":"46140"},{"name":"ภูสิงห์","zipcode":"46140"},{"name":"โนนแหลมทอง","zipcode":"46140"}]},{"name":"สามชัย","subdistricts":[{"name":"สำราญ","zipcode":"46180"},{"name":"หนองช้าง","zipcode":"46180"},{"name":"สำราญใต้","zipcode":"46180"},{"name":"คำสร้างเที่ยง","zipcode":"46180"}]},{"name":"หนองกุงศรี","subdistricts":[{"name":"โคกเครือ","zipcode":"46220"},{"name":"ลำหนองแสน","zipcode":"46220"},{"name":"หนองกุงศรี","zipcode":"46220"},{"name":"หนองใหญ่","zipcode":"46220"},{"name":"หนองสรวง","zipcode":"46220"},{"name":"หนองหิน","zipcode":"46220"},{"name":"หนองบัว","zipcode":"46220"},{"name":"ดงมูล","zipcode":"46220"},{"name":"เสาเล้า","zipcode":"46220"}]},{"name":"ห้วยผึ้ง","subdistricts":[{"name":"นิคมห้วยผึ้ง","zipcode":"46240"},{"name":"คำบง","zipcode":"46240"},{"name":"หนองอีบุตร","zipcode":"46240"},{"name":"ไค้นุ่น","zipcode":"46240"}]},{"name":"ห้วยเม็ก","subdistricts":[{"name":"ห้วยเม็ก","zipcode":"46170"},{"name":"พิมูล","zipcode":"46170"},{"name":"บึงนาเรียง","zipcode":"46170"},{"name":"ทรายทอง","zipcode":"46170"},{"name":"คำใหญ่","zipcode":"46170"},{"name":"คำเหมือดแก้ว","zipcode":"46170"},{"name":"หัวหิน","zipcode":"46170"},{"name":"กุดโดน","zipcode":"46170"},{"name":"โนนสะอาด","zipcode":"46170"}]},{"name":"เขาวง","subdistricts":[{"name":"คุ้มเก่า","zipcode":"46160"},{"name":"กุดปลาค้าว","zipcode":"46160"},{"name":"กุดสิมคุ้มใหม่","zipcode":"46160"},{"name":"สงเปลือย","zipcode":"46160"},{"name":"สระพังทอง","zipcode":"46160"},{"name":"หนองผือ","zipcode":"46160"}]},{"name":"เมืองกาฬสินธุ์","subdistricts":[{"name":"โพนทอง","zipcode":"46000"},{"name":"บึงวิชัย","zipcode":"46000"},{"name":"กาฬสินธุ์","zipcode":"46000"},{"name":"กลางหมื่น","zipcode":"46000"},{"name":"ลำพาน","zipcode":"46000"},{"name":"ภูดิน","zipcode":"46000"},{"name":"ไผ่","zipcode":"46000"},{"name":"นาจารย์","zipcode":"46000"},{"name":"ห้วยโพธิ์","zipcode":"46000"},{"name":"เหนือ","zipcode":"46000"},{"name":"ขมิ้น","zipcode":"46000"},{"name":"เชียงเครือ","zipcode":"46000"},{"name":"หนองกุง","zipcode":"46000"},{"name":"ลำปาว","zipcode":"46000"},{"name":"ลำคลอง","zipcode":"46000"},{"name":"ภูปอ","zipcode":"46000"},{"name":"หลุบ","zipcode":"46000"}]}]}
