{"province_id":35,"province_name":"สกลนคร","districts":[{"name":"กุดบาก","subdistricts":[{"name":"กุดบาก","zipcode":"47180"},{"name":"นาม่อง","zipcode":"47180"},{"name":"กุดไห","zipcode":"47180"}]},{"name":"กุสุมาลย์","subdistricts":[{"name":"โพธิไพศาล","zipcode":"47210"},{"name":"นาโพธิ์","zipcode":"47210"},{"name":"อุ่มจาน","zipcode":"47230"},{"name":"นาเพียง","zipcode":"47230"},{"name":"กุสุมาลย์","zipcode":"47210"}]},{"name":"คำตากล้า","subdistricts":[{"name":"นาแต้","zipcode":"47250"},{"name":"คำตากล้า","zipcode":"47250"},{"name":"แพด","zipcode":"47250"},{"name":"หนองบัวสิม","zipcode":"47250"}]},{"name":"นิคมน้ำอูน","subdistricts":[{"name":"หนองปลิง","zipcode":"47270"},{"name":"หนองบัว","zipcode":"47270"},{"name":"นิคมน้ำอูน","zipcode":"47270"},{"name":"สุวรรณคาม","zipcode":"47270"}]},{"name":"บ้านม่วง","subdistricts":[{"name":"ห้วยหลัว","zipcode":"47140"},{"name":"ดงเหนือ","zipcode":"47140"},{"name":"บ่อแก้ว","zipcode":"47140"},{"name":"มาย","zipcode":"47140"},{"name":"โนนสะอาด","zipcode":"47140"},{"name":"ดงหม้อทองใต้","zipcode":"47140"},{"name":"ดงหม้อทอง","zipcode":"47140"},{"name":"หนองกวั่ง","zipcode":"47140"},{"name":"ม่วง","zipcode":"47140"}]},{"name":"พรรณานิคม","subdistricts":[{"name":"เชิงชุม","zipcode":"47130"},{"name":"พอกน้อย","zipcode":"47220"},{"name":"สว่าง","zipcode":"47130"},{"name":"พรรณา","zipcode":"47130"},{"name":"ช้างมิ่ง","zipcode":"47130"},{"name":"นาหัวบ่อ","zipcode":"47220"},{"name":"บะฮี","zipcode":"47130"},{"name":"วังยาง","zipcode":"47130"},{"name":"นาใน","zipcode":"47130"},{"name":"ไร่","zipcode":"47130"}]},{"name":"พังโคน","subdistricts":[{"name":"ต้นผึ้ง","zipcode":"47160"},{"name":"แร่","zipcode":"47160"},{"name":"พังโคน","zipcode":"47160"},{"name":"ไฮหย่อง","zipcode":"47160"},{"name":"ม่วงไข่","zipcode":"47160"}]},{"name":"ภูพาน","subdistricts":[{"name":"โคกภู","zipcode":"47180"},{"name":"สร้างค้อ","zipcode":"47180"},{"name":"กกปลาซิว","zipcode":"47180"},{"name":"หลุบเลา","zipcode":"47180"}]},{"name":"วานรนิวาส","subdistricts":[{"name":"คอนสวรรค์","zipcode":"47120"},{"name":"คูสะคาม","zipcode":"47120"},{"name":"อินทร์แปลง","zipcode":"47120"},{"name":"ขัวก่าย","zipcode":"47120"},{"name":"ศรีวิชัย","zipcode":"47120"},{"name":"วานรนิวาส","zipcode":"47120"},{"name":"กุดเรือคำ","zipcode":"47120"},{"name":"ธาตุ","zipcode":"47120"},{"name":"นาคำ","zipcode":"47120"},{"name":"หนองสนม","zipcode":"47120"},{"name":"นาซอ","zipcode":"47120"},{"name":"เดื่อศรีคันไชย","zipcode":"47120"},{"name":"หนองแวงใต้","zipcode":"47120"},{"name":"หนองแวง","zipcode":"47120"}]},{"name":"วาริชภูมิ","subdistricts":[{"name":"ปลาโหล","zipcode":"47150"},{"name":"ค้อเขียว","zipcode":"47150"},{"name":"หนองลาด","zipcode":"47150"},{"name":"วาริชภูมิ","zipcode":"47150"},{"name":"คำบ่อ","zipcode":"47150"}]},{"name":"สว่างแดนดิน","subdistricts":[{"name":"บ้านต้าย","zipcode":"47110"},{"name":"ธาตุทอง","zipcode":"47240"},{"name":"บงใต้","zipcode":"47110"},{"name":"สว่างแดนดิน","zipcode":"47110"},{"name":"ตาลโกน","zipcode":"47240"},{"name":"โคกสี","zipcode":"47110"},{"name":"แวง","zipcode":"47240"},{"name":"บงเหนือ","zipcode":"47110"},{"name":"บ้านถ่อน","zipcode":"47110"},{"name":"ค้อใต้","zipcode":"47110"},{"name":"คำสะอาด","zipcode":"47110"},{"name":"ตาลเนิ้ง","zipcode":"47240"},{"name":"หนองหลวง","zipcode":"47110"},{"name":"ทรายมูล","zipcode":"47110"},{"name":"โพนสูง","zipcode":"47110"},{"name":"พันนา","zipcode":"47240"}]},{"name":"ส่องดาว","subdistricts":[{"name":"ปทุมวาปี","zipcode":"47190"},{"name":"ท่าศิลา","zipcode":"47190"},{"name":"วัฒนา","zipcode":"47190"},{"name":"ส่องดาว","zipcode":"47190"}]},{"name":"อากาศอำนวย","subdistricts":[{"name":"โพนงาม","zipcode":"47170"},{"name":"โพนแพง","zipcode":"47170"},{"name":"บะหว้า","zipcode":"47170"},{"name":"ท่าก้อน","zipcode":"47170"},{"name":"วาใหญ่","zipcode":"47170"},{"name":"สามัคคีพัฒนา","zipcode":"47170"},{"name":"อากาศ","zipcode":"47170"},{"name":"นาฮี","zipcode":"47170"}]},{"name":"เจริญศิลป์","subdistricts":[{"name":"บ้านเหล่า","zipcode":"47290"},{"name":"โคกศิลา","zipcode":"47290"},{"name":"เจริญศิลป์","zipcode":"47290"},{"name":"หนองแปน","zipcode":"47290"},{"name":"ทุ่งแก","zipcode":"47290"}]},{"name":"เต่างอย","subdistricts":[{"name":"บึงทวาย","zipcode":"47260"},{"name":"นาตาล","zipcode":"47260"},{"name":"เต่างอย","zipcode":"47260"},{"name":"จันทร์เพ็ญ","zipcode":"47260"}]},{"name":"เมืองสกลนคร","subdistricts":[{"name":"ฮางโฮง","zipcode":"47000"},{"name":"ดงชน","zipcode":"47000"},{"name":"ธาตุเชิงชุม","zipcode":"47000"},{"name":"เหล่าปอแดง","zipcode":"47000"},{"name":"ท่าแร่","zipcode":"47000"},{"name":"ดงมะไฟ","zipcode":"47000"},{"name":"โนนหอม","zipcode":"47000"},{"name":"โคกก่อง","zipcode":"47000"},{"name":"ห้วยยาง","zipcode":"47000"},{"name":"ขมิ้น","zipcode":"47220"},{"name":"หนองลาด","zipcode":"47220"},{"name":"ม่วงลาย","zipcode":"47000"},{"name":"ธาตุนาเวง","zipcode":"47000"},{"name":"เชียงเครือ","zipcode":"47000"},{"name":"พังขว้าง","zipcode":"47000"},{"name":"งิ้วด่อน","zipcode":"47000"}]},{"name":"โคกศรีสุพรรณ","subdistricts":[{"name":"ด่านม่วงคำ","zipcode":"47280"},{"name":"ตองโขบ","zipcode":"47280"},{"name":"แมดนาท่ม","zipcode":"47280"},{"name":"เหล่าโพนค้อ","zipcode":"47280"}]},{"name":"โพนนาแก้ว","subdistricts":[{"name":"บ้านโพน","zipcode":"47230"},{"name":"บ้านแป้น","zipcode":"47230"},{"name":"นาแก้ว","zipcode":"47230"},{"name":"เชียงสือ","zipcode":"47230"},{"name":"นาตงวัฒนา","zipcode":"47230"}]}]}
