{"province_id":36,"province_name":"นครพนม","districts":[{"name":"ท่าอุเทน","subdistricts":[{"name":"หนองเทา","zipcode":"48120"},{"name":"โนนตาล","zipcode":"48120"},{"name":"เวินพระบาท","zipcode":"48120"},{"name":"พนอม","zipcode":"48120"},{"name":"ท่าจำปา","zipcode":"48120"},{"name":"รามราช","zipcode":"48120"},{"name":"ท่าอุเทน","zipcode":"48120"},{"name":"พะทาย","zipcode":"48120"},{"name":"ไชยบุรี","zipcode":"48120"}]},{"name":"ธาตุพนม","subdistricts":[{"name":"แสนพัน","zipcode":"48110"},{"name":"กุดฉิม","zipcode":"48110"},{"name":"พระกลางทุ่ง","zipcode":"48110"},{"name":"อุ่มเหม้า","zipcode":"48110"},{"name":"ฝั่งแดง","zipcode":"48110"},{"name":"ดอนนางหงส์","zipcode":"48110"},{"name":"ธาตุพนมเหนือ","zipcode":"48110"},{"name":"นาถ่อน","zipcode":"48110"},{"name":"นาหนาด","zipcode":"48110"},{"name":"โพนแพง","zipcode":"48110"},{"name":"น้ำก่ำ","zipcode":"48110"},{"name":"ธาตุพนม","zipcode":"48110"}]},{"name":"นาทม","subdistricts":[{"name":"หนองซน","zipcode":"48140"},{"name":"ดอนเตย","zipcode":"48140"},{"name":"นาทม","zipcode":"48140"}]},{"name":"นาหว้า","subdistricts":[{"name":"บ้านเสียว","zipcode":"48180"},{"name":"นาหว้า","zipcode":"48180"},{"name":"ท่าเรือ","zipcode":"48180"},{"name":"นาคูณใหญ่","zipcode":"48180"},{"name":"นางัว","zipcode":"48180"},{"name":"เหล่าพัฒนา","zipcode":"48180"}]},{"name":"นาแก","subdistricts":[{"name":"สีชมพู","zipcode":"48130"},{"name":"พิมาน","zipcode":"48130"},{"name":"บ้านแก้ง","zipcode":"48130"},{"name":"หนองสังข์","zipcode":"48130"},{"name":"หนองบ่อ","zipcode":"48130"},{"name":"นาแก","zipcode":"48130"},{"name":"พุ่มแก","zipcode":"48130"},{"name":"คำพี้","zipcode":"48130"},{"name":"นาคู่","zipcode":"48130"},{"name":"นาเลียง","zipcode":"48130"},{"name":"พระซอง","zipcode":"48130"},{"name":"ก้านเหลือง","zipcode":"48130"}]},{"name":"บ้านแพง","subdistricts":[{"name":"นางัว","zipcode":"48140"},{"name":"โพนทอง","zipcode":"48140"},{"name":"บ้านแพง","zipcode":"48140"},{"name":"นาเข","zipcode":"48140"},{"name":"หนองแวง","zipcode":"48140"},{"name":"ไผ่ล้อม","zipcode":"48140"}]},{"name":"ปลาปาก","subdistricts":[{"name":"กุตาไก้","zipcode":"48160"},{"name":"หนองเทาใหญ่","zipcode":"48160"},{"name":"ปลาปาก","zipcode":"48160"},{"name":"มหาชัย","zipcode":"48160"},{"name":"โคกสว่าง","zipcode":"48160"},{"name":"หนองฮี","zipcode":"48160"},{"name":"นามะเขือ","zipcode":"48160"},{"name":"โคกสูง","zipcode":"48160"}]},{"name":"วังยาง","subdistricts":[{"name":"วังยาง","zipcode":"48130"},{"name":"หนองโพธิ์","zipcode":"48130"},{"name":"โคกสี","zipcode":"48130"},{"name":"ยอดชาด","zipcode":"48130"}]},{"name":"ศรีสงคราม","subdistricts":[{"name":"นาคำ","zipcode":"48150"},{"name":"ท่าบ่อสงคราม","zipcode":"48150"},{"name":"บ้านเอื้อง","zipcode":"48150"},{"name":"โพนสว่าง","zipcode":"48150"},{"name":"ศรีสงคราม","zipcode":"48150"},{"name":"บ้านข่า","zipcode":"48150"},{"name":"สามผง","zipcode":"48150"},{"name":"หาดแพง","zipcode":"48150"},{"name":"นาเดื่อ","zipcode":"48150"}]},{"name":"เมืองนครพนม","subdistricts":[{"name":"ดงขวาง","zipcode":"48000"},{"name":"บ้านผึ้ง","zipcode":"48000"},{"name":"คำเตย","zipcode":"48000"},{"name":"นาราชควาย","zipcode":"48000"},{"name":"บ้านกลาง","zipcode":"48000"},{"name":"หนองแสง","zipcode":"48000"},{"name":"วังตามัว","zipcode":"48000"},{"name":"อาจสามารถ","zipcode":"48000"},{"name":"หนองญาติ","zipcode":"48000"},{"name":"กุรุคุ","zipcode":"48000"},{"name":"ท่าค้อ","zipcode":"48000"},{"name":"นาทราย","zipcode":"48000"},{"name":"โพธิ์ตาก","zipcode":"48000"},{"name":"ขามเฒ่า","zipcode":"48000"},{"name":"ในเมือง","zipcode":"48000"}]},{"name":"เรณูนคร","subdistricts":[{"name":"เรณู","zipcode":"48170"},{"name":"หนองย่างชิ้น","zipcode":"48170"},{"name":"นางาม","zipcode":"48170"},{"name":"โพนทอง","zipcode":"48170"},{"name":"เรณูใต้","zipcode":"48170"},{"name":"โคกหินแฮ่","zipcode":"48170"},{"name":"ท่าลาด","zipcode":"48170"},{"name":"นาขาม","zipcode":"48170"}]},{"name":"โพนสวรรค์","subdistricts":[{"name":"โพนบก","zipcode":"48190"},{"name":"นาหัวบ่อ","zipcode":"48190"},{"name":"นาใน","zipcode":"48190"},{"name":"บ้านค้อ","zipcode":"48190"},{"name":"นาขมิ้น","zipcode":"48190"},{"name":"โพนสวรรค์","zipcode":"48190"},{"name":"โพนจาน","zipcode":"48190"}]}]}
