{"province_id":37,"province_name":"มุกดาหาร","districts":[{"name":"คำชะอี","subdistricts":[{"name":"น้ำเที่ยง","zipcode":"49110"},{"name":"คำชะอี","zipcode":"49110"},{"name":"เหล่าสร้างถ่อ","zipcode":"49110"},{"name":"บ้านเหล่า","zipcode":"49110"},{"name":"หนองเอี่ยน","zipcode":"49110"},{"name":"คำบก","zipcode":"49110"},{"name":"บ้านซ่ง","zipcode":"49110"},{"name":"โพนงาม","zipcode":"49110"},{"name":"บ้านค้อ","zipcode":"49110"}]},{"name":"ดงหลวง","subdistricts":[{"name":"ดงหลวง","zipcode":"49140"},{"name":"พังแดง","zipcode":"49140"},{"name":"หนองแคน","zipcode":"49140"},{"name":"หนองบัว","zipcode":"49140"},{"name":"ชะโนดน้อย","zipcode":"49140"},{"name":"กกตูม","zipcode":"49140"}]},{"name":"ดอนตาล","subdistricts":[{"name":"ดอนตาล","zipcode":"49120"},{"name":"นาสะเม็ง","zipcode":"49120"},{"name":"เหล่าหมี","zipcode":"49120"},{"name":"โพธิ์ไทร","zipcode":"49120"},{"name":"บ้านแก้ง","zipcode":"49120"},{"name":"บ้านบาก","zipcode":"49120"},{"name":"ป่าไร่","zipcode":"49120"}]},{"name":"นิคมคำสร้อย","subdistricts":[{"name":"หนองแวง","zipcode":"49130"},{"name":"นิคมคำสร้อย","zipcode":"49130"},{"name":"โชคชัย","zipcode":"49130"},{"name":"กกแดง","zipcode":"49130"},{"name":"นากอก","zipcode":"49130"},{"name":"ร่มเกล้า","zipcode":"49130"},{"name":"นาอุดม","zipcode":"49130"}]},{"name":"หนองสูง","subdistricts":[{"name":"หนองสูงใต้","zipcode":"49160"},{"name":"ภูวง","zipcode":"49160"},{"name":"หนองสูง","zipcode":"49160"},{"name":"หนองสูงเหนือ","zipcode":"49160"},{"name":"บ้านเป้า","zipcode":"49160"},{"name":"โนนยาง","zipcode":"49160"}]},{"name":"หว้านใหญ่","subdistricts":[{"name":"ดงหมู","zipcode":"49150"},{"name":"บางทรายน้อย","zipcode":"49150"},{"name":"หว้านใหญ่","zipcode":"49150"},{"name":"ชะโนด","zipcode":"49150"},{"name":"ป่งขาม","zipcode":"49150"}]},{"name":"เมืองมุกดาหาร","subdistricts":[{"name":"คำป่าหลาย","zipcode":"49000"},{"name":"ศรีบุญเรือง","zipcode":"49000"},{"name":"นาโสก","zipcode":"49000"},{"name":"ดงมอน","zipcode":"49000"},{"name":"โพนทราย","zipcode":"49000"},{"name":"คำอาฮวน","zipcode":"49000"},{"name":"บ้านโคก","zipcode":"49000"},{"name":"นาสีนวน","zipcode":"49000"},{"name":"มุกดาหาร","zipcode":"49000"},{"name":"กุดแข้","zipcode":"49000"},{"name":"ผึ่งแดด","zipcode":"49000"},{"name":"ดงเย็น","zipcode":"49000"},{"name":"บางทรายใหญ่","zipcode":"49000"}]}]}
