{"province_id":38,"province_name":"เชียงใหม่","districts":[{"name":"จอมทอง","subdistricts":[{"name":"บ้านแปะ","zipcode":"50240"},{"name":"ข่วงเปา","zipcode":"50160"},{"name":"ดอยแก้ว","zipcode":"50160"},{"name":"สบเตี๊ยะ","zipcode":"50160"},{"name":"บ้านหลวง","zipcode":"50160"},{"name":"แม่สอย","zipcode":"50240"}]},{"name":"ดอยสะเก็ด","subdistricts":[{"name":"สันปูเลย","zipcode":"50220"},{"name":"เทพเสด็จ","zipcode":"50220"},{"name":"ตลาดขวัญ","zipcode":"50220"},{"name":"แม่โป่ง","zipcode":"50220"},{"name":"สง่าบ้าน","zipcode":"50220"},{"name":"ตลาดใหญ่","zipcode":"50220"},{"name":"ลวงเหนือ","zipcode":"50220"},{"name":"สำราญราษฎร์","zipcode":"50220"},{"name":"เชิงดอย","zipcode":"50220"},{"name":"ป่าเมี่ยง","zipcode":"50220"},{"name":"ป่าลาน","zipcode":"50220"},{"name":"แม่ฮ้อยเงิน","zipcode":"50220"},{"name":"ป่าป้อง","zipcode":"50220"},{"name":"แม่คือ","zipcode":"50220"}]},{"name":"ดอยหล่อ","subdistricts":[{"name":"สันติสุข","zipcode":"50160"},{"name":"สองแคว","zipcode":"50160"},{"name":"ยางคราม","zipcode":"50160"},{"name":"ดอยหล่อ","zipcode":"50160"}]},{"name":"ดอยเต่า","subdistricts":[{"name":"มืดกา","zipcode":"50260"},{"name":"ดอยเต่า","zipcode":"50260"},{"name":"โปงทุ่ง","zipcode":"50260"},{"name":"บ้านแอ่น","zipcode":"50260"},{"name":"ท่าเดื่อ","zipcode":"50260"},{"name":"บงตัน","zipcode":"50260"}]},{"name":"ฝาง","subdistricts":[{"name":"โป่งน้ำร้อน","zipcode":"50110"},{"name":"เวียง","zipcode":"50110"},{"name":"แม่คะ","zipcode":"50110"},{"name":"แม่สูน","zipcode":"50110"},{"name":"ม่อนปิ่น","zipcode":"50110"},{"name":"แม่ข่า","zipcode":"50320"},{"name":"สันทราย","zipcode":"50110"},{"name":"แม่งอน","zipcode":"50320"}]},{"name":"พร้าว","subdistricts":[{"name":"น้ำแพร่","zipcode":"50190"},{"name":"สันทราย","zipcode":"50190"},{"name":"แม่ปั๋ง","zipcode":"50190"},{"name":"ป่าตุ้ม","zipcode":"50190"},{"name":"เขื่อนผาก","zipcode":"50190"},{"name":"เวียง","zipcode":"50190"},{"name":"บ้านโป่ง","zipcode":"50190"},{"name":"โหล่งขอด","zipcode":"50190"},{"name":"ป่าไหน่","zipcode":"50190"},{"name":"แม่แวน","zipcode":"50190"},{"name":"ทุ่งหลวง","zipcode":"50190"}]},{"name":"สะเมิง","subdistricts":[{"name":"สะเมิงใต้","zipcode":"50250"},{"name":"บ่อแก้ว","zipcode":"50250"},{"name":"สะเมิงเหนือ","zipcode":"50250"},{"name":"ยั้งเมิน","zipcode":"50250"},{"name":"แม่สาบ","zipcode":"50250"}]},{"name":"สันกำแพง","subdistricts":[{"name":"บวกค้าง","zipcode":"50130"},{"name":"ต้นเปา","zipcode":"50130"},{"name":"ทรายมูล","zipcode":"50130"},{"name":"แม่ปูคา","zipcode":"50130"},{"name":"แช่ช้าง","zipcode":"50130"},{"name":"สันกลาง","zipcode":"50130"},{"name":"ร้องวัวแดง","zipcode":"50130"},{"name":"ห้วยทราย","zipcode":"50130"},{"name":"สันกำแพง","zipcode":"50130"},{"name":"ออนใต้","zipcode":"50130"}]},{"name":"สันทราย","subdistricts":[{"name":"หนองแหย่ง","zipcode":"50210"},{"name":"เมืองเล็น","zipcode":"50210"},{"name":"สันนาเม็ง","zipcode":"50210"},{"name":"แม่แฝก","zipcode":"50290"},{"name":"สันทรายน้อย","zipcode":"50210"},{"name":"หนองจ๊อม","zipcode":"50210"},{"name":"ป่าไผ่","zipcode":"50210"},{"name":"สันป่าเปา","zipcode":"50210"},{"name":"แม่แฝกใหม่","zipcode":"50290"},{"name":"สันพระเนตร","zipcode":"50210"},{"name":"หนองหาร","zipcode":"50290"},{"name":"สันทรายหลวง","zipcode":"50210"}]},{"name":"สันป่าตอง","subdistricts":[{"name":"ทุ่งสะโตก","zipcode":"50120"},{"name":"ยุหว่า","zipcode":"50120"},{"name":"บ้านแม","zipcode":"50120"},{"name":"มะขุนหวาน","zipcode":"50120"},{"name":"มะขามหลวง","zipcode":"50120"},{"name":"ทุ่งต้อม","zipcode":"50120"},{"name":"สันกลาง","zipcode":"50120"},{"name":"บ้านกลาง","zipcode":"50120"},{"name":"แม่ก๊า","zipcode":"50120"},{"name":"น้ำบ่อหลวง","zipcode":"50120"},{"name":"ท่าวังพร้าว","zipcode":"50120"}]},{"name":"สารภี","subdistricts":[{"name":"ท่าวังตาล","zipcode":"50140"},{"name":"ชมภู","zipcode":"50140"},{"name":"ท่ากว้าง","zipcode":"50140"},{"name":"ยางเนิ้ง","zipcode":"50140"},{"name":"หนองแฝก","zipcode":"50140"},{"name":"สันทราย","zipcode":"50140"},{"name":"ไชยสถาน","zipcode":"50140"},{"name":"ดอนแก้ว","zipcode":"50140"},{"name":"สารภี","zipcode":"50140"},{"name":"หนองผึ้ง","zipcode":"50140"},{"name":"ป่าบง","zipcode":"50140"},{"name":"ขัวมุง","zipcode":"50140"}]},{"name":"หางดง","subdistricts":[{"name":"หางดง","zipcode":"50230"},{"name":"สบแม่ข่า","zipcode":"50230"},{"name":"น้ำแพร่","zipcode":"50230"},{"name":"หนองตอง","zipcode":"50340"},{"name":"หนองควาย","zipcode":"50230"},{"name":"หนองแก๋ว","zipcode":"50230"},{"name":"บ้านแหวน","zipcode":"50230"},{"name":"ขุนคง","zipcode":"50230"},{"name":"บ้านปง","zipcode":"50230"},{"name":"หารแก้ว","zipcode":"50230"},{"name":"สันผักหวาน","zipcode":"50230"}]},{"name":"อมก๋อย","subdistricts":[{"name":"ม่อนจอง","zipcode":"50310"},{"name":"ยางเปียง","zipcode":"50310"},{"name":"สบโขง","zipcode":"50310"},{"name":"แม่ตื่น","zipcode":"50310"},{"name":"อมก๋อย","zipcode":"50310"},{"name":"นาเกียน","zipcode":"50310"}]},{"name":"ฮอด","subdistricts":[{"name":"ฮอด","zipcode":"50240"},{"name":"บ่อสลี","zipcode":"50240"},{"name":"บ้านตาล","zipcode":"50240"},{"name":"หางดง","zipcode":"50240"},{"name":"นาคอเรือ","zipcode":"50240"},{"name":"บ่อหลวง","zipcode":"50240"}]},{"name":"เชียงดาว","subdistricts":[{"name":"เมืองนะ","zipcode":"50170"},{"name":"ทุ่งข้าวพวง","zipcode":"50170"},{"name":"เมืองคอง","zipcode":"50170"},{"name":"เมืองงาย","zipcode":"50170"},{"name":"เชียงดาว","zipcode":"50170"},{"name":"ปิงโค้ง","zipcode":"50170"},{"name":"แม่นะ","zipcode":"50170"}]},{"name":"เมืองเชียงใหม่","subdistricts":[{"name":"สุเทพ","zipcode":"50200"},{"name":"ศรีภูมิ","zipcode":"50200"},{"name":"หนองป่าครั่ง","zipcode":"50000"},{"name":"วัดเกต","zipcode":"50000"},{"name":"หนองหอย","zipcode":"50000"},{"name":"ช้างม่อย","zipcode":"50300"},{"name":"สันผีเสื้อ","zipcode":"50300"},{"name":"แม่เหียะ","zipcode":"50100"},{"name":"พระสิงห์","zipcode":"50200"},{"name":"ฟ้าฮ่าม","zipcode":"50000"},{"name":"ช้างเผือก","zipcode":"50300"},{"name":"ท่าศาลา","zipcode":"50000"},{"name":"ช้างคลาน","zipcode":"50100"},{"name":"ป่าแดด","zipcode":"50100"},{"name":"หายยา","zipcode":"50100"},{"name":"ป่าตัน","zipcode":"50300"}]},{"name":"เวียงแหง","subdistricts":[{"name":"แสนไห","zipcode":"50350"},{"name":"เมืองแหง","zipcode":"50350"},{"name":"เปียงหลวง","zipcode":"50350"}]},{"name":"แม่ริม","subdistricts":[{"name":"สะลวง","zipcode":"50330"},{"name":"ดอนแก้ว","zipcode":"50180"},{"name":"สันโป่ง","zipcode":"50180"},{"name":"โป่งแยง","zipcode":"50180"},{"name":"ริมใต้","zipcode":"50180"},{"name":"ห้วยทราย","zipcode":"50180"},{"name":"เหมืองแก้ว","zipcode":"50180"},{"name":"ขี้เหล็ก","zipcode":"50180"},{"name":"แม่สา","zipcode":"50180"},{"name":"ริมเหนือ","zipcode":"50180"},{"name":"แม่แรม","zipcode":"50180"}]},{"name":"แม่วาง","subdistricts":[{"name":"ทุ่งรวงทอง","zipcode":"50360"},{"name":"บ้านกาด","zipcode":"50360"},{"name":"แม่วิน","zipcode":"50360"},{"name":"ทุ่งปี้","zipcode":"50360"},{"name":"ดอนเปา","zipcode":"50360"}]},{"name":"แม่ออน","subdistricts":[{"name":"แม่ทา","zipcode":"50130"},{"name":"บ้านสหกรณ์","zipcode":"50130"},{"name":"ออนเหนือ","zipcode":"50130"},{"name":"ทาเหนือ","zipcode":"50130"},{"name":"ห้วยแก้ว","zipcode":"50130"},{"name":"ออนกลาง","zipcode":"50130"}]},{"name":"แม่อาย","subdistricts":[{"name":"มะลิกา","zipcode":"50280"},{"name":"ท่าตอน","zipcode":"50280"},{"name":"สันต้นหมื้อ","zipcode":"50280"},{"name":"แม่อาย","zipcode":"50280"},{"name":"บ้านหลวง","zipcode":"50280"},{"name":"แม่นาวาง","zipcode":"50280"},{"name":"แม่สาว","zipcode":"50280"}]},{"name":"แม่แจ่ม","subdistricts":[{"name":"แม่นาจร","zipcode":"50270"},{"name":"แจ่มหลวง","zipcode":"58130"},{"name":"บ้านทับ","zipcode":"50270"},{"name":"กองแขก","zipcode":"50270"},{"name":"ช่างเคิ่ง","zipcode":"50270"},{"name":"บ้านจันทร์","zipcode":"58130"},{"name":"แม่ศึก","zipcode":"50270"},{"name":"แม่แดด","zipcode":"58130"},{"name":"ท่าผา","zipcode":"50270"},{"name":"ปางหินฝน","zipcode":"50270"}]},{"name":"แม่แตง","subdistricts":[{"name":"บ้านเป้า","zipcode":"50150"},{"name":"กื้ดช้าง","zipcode":"50150"},{"name":"แม่หอพระ","zipcode":"50150"},{"name":"เมืองก๋าย","zipcode":"50150"},{"name":"ขี้เหล็ก","zipcode":"50150"},{"name":"สันป่ายาง","zipcode":"50330"},{"name":"สันมหาพน","zipcode":"50150"},{"name":"อินทขิล","zipcode":"50150"},{"name":"สบเปิง","zipcode":"50150"},{"name":"บ้านช้าง","zipcode":"50150"},{"name":"ช่อแล","zipcode":"50150"},{"name":"ป่าแป๋","zipcode":"50150"},{"name":"แม่แตง","zipcode":"50150"},{"name":"สมก๋าย","zipcode":"50150"}]},{"name":"ไชยปราการ","subdistricts":[{"name":"ศรีดงเย็น","zipcode":"50320"},{"name":"แม่ทะลบ","zipcode":"50320"},{"name":"ปงตำ","zipcode":"50320"},{"name":"หนองบัว","zipcode":"50320"}]}]}
