{"province_id":39,"province_name":"ลำพูน","districts":[{"name":"ทุ่งหัวช้าง","subdistricts":[{"name":"ทุ่งหัวช้าง","zipcode":"51160"},{"name":"บ้านปวง","zipcode":"51160"},{"name":"ตะเคียนปม","zipcode":"51160"}]},{"name":"บ้านธิ","subdistricts":[{"name":"บ้านธิ","zipcode":"51180"},{"name":"ห้วยยาบ","zipcode":"51180"}]},{"name":"บ้านโฮ่ง","subdistricts":[{"name":"หนองปลาสะวาย","zipcode":"51130"},{"name":"เหล่ายาว","zipcode":"51130"},{"name":"บ้านโฮ่ง","zipcode":"51130"},{"name":"ศรีเตี้ย","zipcode":"51130"},{"name":"ป่าพลู","zipcode":"51130"}]},{"name":"ป่าซาง","subdistricts":[{"name":"แม่แรง","zipcode":"51120"},{"name":"น้ำดิบ","zipcode":"51120"},{"name":"ปากบ่อง","zipcode":"51120"},{"name":"มะกอก","zipcode":"51120"},{"name":"ม่วงน้อย","zipcode":"51120"},{"name":"นครเจดีย์","zipcode":"51120"},{"name":"ป่าซาง","zipcode":"51120"},{"name":"ท่าตุ้ม","zipcode":"51120"},{"name":"บ้านเรือน","zipcode":"51120"}]},{"name":"ลี้","subdistricts":[{"name":"แม่ตืน","zipcode":"51110"},{"name":"ป่าไผ่","zipcode":"51110"},{"name":"ก้อ","zipcode":"51110"},{"name":"นาทราย","zipcode":"51110"},{"name":"ศรีวิชัย","zipcode":"51110"},{"name":"ลี้","zipcode":"51110"},{"name":"แม่ลาน","zipcode":"51110"},{"name":"ดงดำ","zipcode":"51110"}]},{"name":"เมืองลำพูน","subdistricts":[{"name":"เหมืองจี้","zipcode":"51000"},{"name":"เหมืองง่า","zipcode":"51000"},{"name":"ศรีบัวบาน","zipcode":"51000"},{"name":"ต้นธง","zipcode":"51000"},{"name":"บ้านกลาง","zipcode":"51000"},{"name":"ประตูป่า","zipcode":"51000"},{"name":"ป่าสัก","zipcode":"51000"},{"name":"อุโมงค์","zipcode":"51150"},{"name":"หนองหนาม","zipcode":"51000"},{"name":"ในเมือง","zipcode":"51000"},{"name":"บ้านแป้น","zipcode":"51000"},{"name":"มะเขือแจ้","zipcode":"51000"},{"name":"ริมปิง","zipcode":"51000"},{"name":"เวียงยอง","zipcode":"51000"},{"name":"หนองช้างคืน","zipcode":"51150"}]},{"name":"เวียงหนองล่อง","subdistricts":[{"name":"หนองยวง","zipcode":"51120"},{"name":"วังผาง","zipcode":"51120"},{"name":"หนองล่อง","zipcode":"51120"}]},{"name":"แม่ทา","subdistricts":[{"name":"ทาปลาดุก","zipcode":"51140"},{"name":"ทาแม่ลอบ","zipcode":"51170"},{"name":"ทาขุมเงิน","zipcode":"51170"},{"name":"ทาสบเส้า","zipcode":"51140"},{"name":"ทาทุ่งหลวง","zipcode":"51170"},{"name":"ทากาศ","zipcode":"51170"}]}]}
