{"province_id":4,"province_name":"ปทุมธานี","districts":[{"name":"คลองหลวง","subdistricts":[{"name":"คลองสอง","zipcode":"12120"},{"name":"คลองเจ็ด","zipcode":"12120"},{"name":"คลองห้า","zipcode":"12120"},{"name":"คลองสาม","zipcode":"12120"},{"name":"คลองหนึ่ง","zipcode":"12120"},{"name":"คลองหก","zipcode":"12120"},{"name":"คลองสี่","zipcode":"12120"}]},{"name":"ธัญบุรี","subdistricts":[{"name":"บึงยี่โถ","zipcode":"12130"},{"name":"บึงสนั่น","zipcode":"12110"},{"name":"รังสิต","zipcode":"12110"},{"name":"ประชาธิปัตย์","zipcode":"12130"},{"name":"บึงน้ำรักษ์","zipcode":"12110"},{"name":"ลำผักกูด","zipcode":"12110"}]},{"name":"ลาดหลุมแก้ว","subdistricts":[{"name":"ระแหง","zipcode":"12140"},{"name":"บ่อเงิน","zipcode":"12140"},{"name":"คูขวาง","zipcode":"12140"},{"name":"ลาดหลุมแก้ว","zipcode":"12140"},{"name":"หน้าไม้","zipcode":"12140"},{"name":"คลองพระอุดม","zipcode":"12140"},{"name":"คูบางหลวง","zipcode":"12140"}]},{"name":"ลำลูกกา","subdistricts":[{"name":"พืชอุดม","zipcode":"12150"},{"name":"คูคต","zipcode":"12130"},{"name":"ลำไทร","zipcode":"12150"},{"name":"ลำลูกกา","zipcode":"12150"},{"name":"ลาดสวาย","zipcode":"12150"},{"name":"บึงคอไห","zipcode":"12150"},{"name":"บึงทองหลาง","zipcode":"12150"},{"name":"บึงคำพร้อย","zipcode":"12150"}]},{"name":"สามโคก","subdistricts":[{"name":"บางโพธิ์เหนือ","zipcode":"12160"},{"name":"บางกระบือ","zipcode":"12160"},{"name":"สามโคก","zipcode":"12160"},{"name":"บ้านงิ้ว","zipcode":"12160"},{"name":"บางเตย","zipcode":"12160"},{"name":"เชียงรากใหญ่","zipcode":"12160"},{"name":"ท้ายเกาะ","zipcode":"12160"},{"name":"กระแชง","zipcode":"12160"},{"name":"เชียงรากน้อย","zipcode":"12160"},{"name":"คลองควาย","zipcode":"12160"},{"name":"บ้านปทุม","zipcode":"12160"}]},{"name":"หนองเสือ","subdistricts":[{"name":"บึงกาสาม","zipcode":"12170"},{"name":"บึงบา","zipcode":"12170"},{"name":"ศาลาครุ","zipcode":"12170"},{"name":"บึงชำอ้อ","zipcode":"12170"},{"name":"บึงบอน","zipcode":"12170"},{"name":"นพรัตน์","zipcode":"12170"},{"name":"หนองสามวัง","zipcode":"12170"}]},{"name":"เมืองปทุมธานี","subdistricts":[{"name":"บ้านฉาง","zipcode":"12000"},{"name":"บางเดื่อ","zipcode":"12000"},{"name":"บ้านใหม่","zipcode":"12000"},{"name":"หลักหก","zipcode":"12000"},{"name":"บางคูวัด","zipcode":"12000"},{"name":"บางกะดี","zipcode":"12000"},{"name":"บ้านกระแชง","zipcode":"12000"},{"name":"บางพูด","zipcode":"12000"},{"name":"บ้านกลาง","zipcode":"12000"},{"name":"บางหลวง","zipcode":"12000"},{"name":"บางปรอก","zipcode":"12000"},{"name":"สวนพริกไทย","zipcode":"12000"},{"name":"บางขะแยง","zipcode":"12000"},{"name":"บางพูน","zipcode":"12000"}]}]}
