{"province_id":40,"province_name":"ลำปาง","districts":[{"name":"งาว","subdistricts":[{"name":"บ้านร้อง","zipcode":"52110"},{"name":"บ้านหวด","zipcode":"52110"},{"name":"หลวงใต้","zipcode":"52110"},{"name":"บ้านอ้อน","zipcode":"52110"},{"name":"ปงเตา","zipcode":"52110"},{"name":"แม่ตีบ","zipcode":"52110"},{"name":"บ้านโป่ง","zipcode":"52110"},{"name":"บ้านแหง","zipcode":"52110"},{"name":"หลวงเหนือ","zipcode":"52110"},{"name":"นาแก","zipcode":"52110"}]},{"name":"วังเหนือ","subdistricts":[{"name":"วังซ้าย","zipcode":"52140"},{"name":"ร่องเคาะ","zipcode":"52140"},{"name":"วังเหนือ","zipcode":"52140"},{"name":"วังแก้ว","zipcode":"52140"},{"name":"วังทอง","zipcode":"52140"},{"name":"วังใต้","zipcode":"52140"},{"name":"วังทรายคำ","zipcode":"52140"},{"name":"ทุ่งฮั้ว","zipcode":"52140"}]},{"name":"สบปราบ","subdistricts":[{"name":"สมัย","zipcode":"52170"},{"name":"แม่กัวะ","zipcode":"52170"},{"name":"สบปราบ","zipcode":"52170"},{"name":"นายาง","zipcode":"52170"}]},{"name":"ห้างฉัตร","subdistricts":[{"name":"เวียงตาล","zipcode":"52190"},{"name":"เมืองยาว","zipcode":"52190"},{"name":"ห้างฉัตร","zipcode":"52190"},{"name":"แม่สัน","zipcode":"52190"},{"name":"ปงยางคก","zipcode":"52190"},{"name":"หนองหล่ม","zipcode":"52190"},{"name":"วอแก้ว","zipcode":"52190"}]},{"name":"เกาะคา","subdistricts":[{"name":"ศาลา","zipcode":"52130"},{"name":"ไหล่หิน","zipcode":"52130"},{"name":"ท่าผา","zipcode":"52130"},{"name":"ลำปางหลวง","zipcode":"52130"},{"name":"เกาะคา","zipcode":"52130"},{"name":"วังพร้าว","zipcode":"52130"},{"name":"ใหม่พัฒนา","zipcode":"52130"},{"name":"นาแก้ว","zipcode":"52130"},{"name":"นาแส่ง","zipcode":"52130"}]},{"name":"เถิน","subdistricts":[{"name":"เวียงมอก","zipcode":"52160"},{"name":"แม่ปะ","zipcode":"52160"},{"name":"เถินบุรี","zipcode":"52160"},{"name":"ล้อมแรด","zipcode":"52160"},{"name":"นาโป่ง","zipcode":"52160"},{"name":"แม่มอก","zipcode":"52160"},{"name":"แม่วะ","zipcode":"52230"},{"name":"แม่ถอด","zipcode":"52160"}]},{"name":"เมืองปาน","subdistricts":[{"name":"ทุ่งกว๋าว","zipcode":"52240"},{"name":"เมืองปาน","zipcode":"52240"},{"name":"แจ้ซ้อน","zipcode":"52240"},{"name":"บ้านขอ","zipcode":"52240"},{"name":"หัวเมือง","zipcode":"52240"}]},{"name":"เมืองลำปาง","subdistricts":[{"name":"สวนดอก","zipcode":"52100"},{"name":"บ้านค่า","zipcode":"52100"},{"name":"ปงแสนทอง","zipcode":"52100"},{"name":"เวียงเหนือ","zipcode":"52000"},{"name":"บ้านเอื้อม","zipcode":"52100"},{"name":"ชมพู","zipcode":"52100"},{"name":"นิคมพัฒนา","zipcode":"52000"},{"name":"พิชัย","zipcode":"52000"},{"name":"สบตุ๋ย","zipcode":"52100"},{"name":"บ่อแฮ้ว","zipcode":"52100"},{"name":"บ้านแลง","zipcode":"52000"},{"name":"หัวเวียง","zipcode":"52000"},{"name":"บ้านเป้า","zipcode":"52100"},{"name":"กล้วยแพะ","zipcode":"52000"},{"name":"บุญนาคพัฒนา","zipcode":"52000"},{"name":"ทุ่งฝาย","zipcode":"52000"},{"name":"พระบาท","zipcode":"52000"},{"name":"ต้นธงชัย","zipcode":"52000"},{"name":"บ้านเสด็จ","zipcode":"52000"}]},{"name":"เสริมงาม","subdistricts":[{"name":"ทุ่งงาม","zipcode":"52210"},{"name":"เสริมกลาง","zipcode":"52210"},{"name":"เสริมขวา","zipcode":"52210"},{"name":"เสริมซ้าย","zipcode":"52210"}]},{"name":"แจ้ห่ม","subdistricts":[{"name":"แจ้ห่ม","zipcode":"52120"},{"name":"ทุ่งผึ้ง","zipcode":"52120"},{"name":"แม่สุก","zipcode":"52120"},{"name":"บ้านสา","zipcode":"52120"},{"name":"วิเชตนคร","zipcode":"52120"},{"name":"เมืองมาย","zipcode":"52120"},{"name":"ปงดอน","zipcode":"52120"}]},{"name":"แม่ทะ","subdistricts":[{"name":"บ้านบอม","zipcode":"52150"},{"name":"สันดอนแก้ว","zipcode":"52150"},{"name":"ป่าตัน","zipcode":"52150"},{"name":"หัวเสือ","zipcode":"52150"},{"name":"แม่ทะ","zipcode":"52150"},{"name":"น้ำโจ้","zipcode":"52150"},{"name":"บ้านกิ่ว","zipcode":"52150"},{"name":"วังเงิน","zipcode":"52150"},{"name":"นาครัว","zipcode":"52150"},{"name":"ดอนไฟ","zipcode":"52150"}]},{"name":"แม่พริก","subdistricts":[{"name":"ผาปัง","zipcode":"52180"},{"name":"แม่ปุ","zipcode":"52180"},{"name":"แม่พริก","zipcode":"52180"},{"name":"พระบาทวังตวง","zipcode":"52180"}]},{"name":"แม่เมาะ","subdistricts":[{"name":"จางเหนือ","zipcode":"52220"},{"name":"บ้านดง","zipcode":"52220"},{"name":"แม่เมาะ","zipcode":"52220"},{"name":"นาสัก","zipcode":"52220"},{"name":"สบป้าด","zipcode":"52220"}]}]}
