{"province_id":41,"province_name":"อุตรดิตถ์","districts":[{"name":"ตรอน","subdistricts":[{"name":"ข่อยสูง","zipcode":"53140"},{"name":"หาดสองแคว","zipcode":"53140"},{"name":"วังแดง","zipcode":"53140"},{"name":"น้ำอ่าง","zipcode":"53140"},{"name":"บ้านแก่ง","zipcode":"53140"}]},{"name":"ทองแสนขัน","subdistricts":[{"name":"ผักขวง","zipcode":"53230"},{"name":"น้ำพี้","zipcode":"53230"},{"name":"บ่อทอง","zipcode":"53230"},{"name":"ป่าคาย","zipcode":"53230"}]},{"name":"ท่าปลา","subdistricts":[{"name":"หาดล้า","zipcode":"53150"},{"name":"นางพญา","zipcode":"53150"},{"name":"น้ำหมัน","zipcode":"53150"},{"name":"ผาเลือด","zipcode":"53190"},{"name":"ร่วมจิต","zipcode":"53190"},{"name":"ท่าปลา","zipcode":"53150"},{"name":"ท่าแฝก","zipcode":"53110"},{"name":"จริม","zipcode":"53150"}]},{"name":"น้ำปาด","subdistricts":[{"name":"แสนตอ","zipcode":"53110"},{"name":"ห้วยมุ่น","zipcode":"53110"},{"name":"น้ำไคร้","zipcode":"53110"},{"name":"บ้านฝาย","zipcode":"53110"},{"name":"น้ำไผ่","zipcode":"53110"},{"name":"เด่นเหล็ก","zipcode":"53110"}]},{"name":"บ้านโคก","subdistricts":[{"name":"นาขุม","zipcode":"53180"},{"name":"ม่วงเจ็ดต้น","zipcode":"53180"},{"name":"บ่อเบี้ย","zipcode":"53180"},{"name":"บ้านโคก","zipcode":"53180"}]},{"name":"พิชัย","subdistricts":[{"name":"ในเมือง","zipcode":"53120"},{"name":"บ้านหม้อ","zipcode":"53120"},{"name":"นายาง","zipcode":"53120"},{"name":"ท่าสัก","zipcode":"53220"},{"name":"พญาแมน","zipcode":"53120"},{"name":"บ้านดารา","zipcode":"53220"},{"name":"ท่ามะเฟือง","zipcode":"53120"},{"name":"คอรุม","zipcode":"53120"},{"name":"นาอิน","zipcode":"53120"},{"name":"ไร่อ้อย","zipcode":"53120"},{"name":"บ้านโคน","zipcode":"53120"}]},{"name":"ฟากท่า","subdistricts":[{"name":"บ้านเสี้ยว","zipcode":"53160"},{"name":"ฟากท่า","zipcode":"53160"},{"name":"สองห้อง","zipcode":"53160"},{"name":"สองคอน","zipcode":"53160"}]},{"name":"ลับแล","subdistricts":[{"name":"แม่พูล","zipcode":"53130"},{"name":"ทุ่งยั้ง","zipcode":"53210"},{"name":"ชัยจุมพล","zipcode":"53130"},{"name":"นานกกก","zipcode":"53130"},{"name":"ด่านแม่คำมัน","zipcode":"53210"},{"name":"ศรีพนมมาศ","zipcode":"53130"},{"name":"ไผ่ล้อม","zipcode":"53210"},{"name":"ฝายหลวง","zipcode":"53130"}]},{"name":"เมืองอุตรดิตถ์","subdistricts":[{"name":"ผาจุก","zipcode":"53000"},{"name":"คุ้งตะเภา","zipcode":"53000"},{"name":"ถ้ำฉลอง","zipcode":"53000"},{"name":"บ้านด่านนาขาม","zipcode":"53000"},{"name":"บ้านเกาะ","zipcode":"53000"},{"name":"หาดงิ้ว","zipcode":"53000"},{"name":"น้ำริด","zipcode":"53000"},{"name":"ท่าอิฐ","zipcode":"53000"},{"name":"วังดิน","zipcode":"53000"},{"name":"วังกะพี้","zipcode":"53170"},{"name":"บ้านด่าน","zipcode":"53000"},{"name":"ป่าเซ่า","zipcode":"53000"},{"name":"ขุนฝาง","zipcode":"53000"},{"name":"งิ้วงาม","zipcode":"53000"},{"name":"ท่าเสา","zipcode":"53000"},{"name":"แสนตอ","zipcode":"53000"},{"name":"หาดกรวด","zipcode":"53000"}]}]}
