{"province_id":42,"province_name":"แพร่","districts":[{"name":"ร้องกวาง","subdistricts":[{"name":"ไผ่โทน","zipcode":"54140"},{"name":"ร้องกวาง","zipcode":"54140"},{"name":"แม่ยางตาล","zipcode":"54140"},{"name":"แม่ยางร้อง","zipcode":"54140"},{"name":"บ้านเวียง","zipcode":"54140"},{"name":"ห้วยโรง","zipcode":"54140"},{"name":"ร้องเข็ม","zipcode":"54140"},{"name":"แม่ยางฮ่อ","zipcode":"54140"},{"name":"ทุ่งศรี","zipcode":"54140"},{"name":"แม่ทราย","zipcode":"54140"},{"name":"น้ำเลา","zipcode":"54140"}]},{"name":"ลอง","subdistricts":[{"name":"เวียงต้า","zipcode":"54150"},{"name":"แม่ปาน","zipcode":"54150"},{"name":"บ้านปิน","zipcode":"54150"},{"name":"ทุ่งแล้ง","zipcode":"54150"},{"name":"ปากกาง","zipcode":"54150"},{"name":"ต้าผามอก","zipcode":"54150"},{"name":"บ่อเหล็กลอง","zipcode":"54150"},{"name":"ห้วยอ้อ","zipcode":"54150"},{"name":"หัวทุ่ง","zipcode":"54150"}]},{"name":"วังชิ้น","subdistricts":[{"name":"วังชิ้น","zipcode":"54160"},{"name":"ป่าสัก","zipcode":"54160"},{"name":"นาพูน","zipcode":"54160"},{"name":"สรอย","zipcode":"54160"},{"name":"แม่เกิ๋ง","zipcode":"54160"},{"name":"แม่พุง","zipcode":"54160"},{"name":"แม่ป้าก","zipcode":"54160"}]},{"name":"สอง","subdistricts":[{"name":"เตาปูน","zipcode":"54120"},{"name":"บ้านกลาง","zipcode":"54120"},{"name":"แดนชุมพล","zipcode":"54120"},{"name":"หัวเมือง","zipcode":"54120"},{"name":"ห้วยหม้าย","zipcode":"54120"},{"name":"ทุ่งน้าว","zipcode":"54120"},{"name":"บ้านหนุน","zipcode":"54120"},{"name":"สะเอียบ","zipcode":"54120"}]},{"name":"สูงเม่น","subdistricts":[{"name":"น้ำชำ","zipcode":"54130"},{"name":"บ้านปง","zipcode":"54130"},{"name":"พระหลวง","zipcode":"54130"},{"name":"บ้านเหล่า","zipcode":"54130"},{"name":"สบสาย","zipcode":"54130"},{"name":"หัวฝาย","zipcode":"54130"},{"name":"บ้านกาศ","zipcode":"54130"},{"name":"สูงเม่น","zipcode":"54130"},{"name":"บ้านกวาง","zipcode":"54130"},{"name":"เวียงทอง","zipcode":"54000"},{"name":"ดอนมูล","zipcode":"54130"},{"name":"ร่องกาศ","zipcode":"54130"}]},{"name":"หนองม่วงไข่","subdistricts":[{"name":"แม่คำมี","zipcode":"54170"},{"name":"ทุ่งแค้ว","zipcode":"54170"},{"name":"วังหลวง","zipcode":"54170"},{"name":"หนองม่วงไข่","zipcode":"54170"},{"name":"ตำหนักธรรม","zipcode":"54170"},{"name":"น้ำรัด","zipcode":"54170"}]},{"name":"เด่นชัย","subdistricts":[{"name":"แม่จั๊วะ","zipcode":"54110"},{"name":"ปงป่าหวาย","zipcode":"54110"},{"name":"ไทรย้อย","zipcode":"54110"},{"name":"เด่นชัย","zipcode":"54110"},{"name":"ห้วยไร่","zipcode":"54110"}]},{"name":"เมืองแพร่","subdistricts":[{"name":"ท่าข้าม","zipcode":"54000"},{"name":"ห้วยม้า","zipcode":"54000"},{"name":"นาจักร","zipcode":"54000"},{"name":"แม่คำมี","zipcode":"54000"},{"name":"วังธง","zipcode":"54000"},{"name":"ร่องฟอง","zipcode":"54000"},{"name":"สวนเขื่อน","zipcode":"54000"},{"name":"ทุ่งโฮ้ง","zipcode":"54000"},{"name":"แม่ยม","zipcode":"54000"},{"name":"ป่าแมต","zipcode":"54000"},{"name":"น้ำชำ","zipcode":"54000"},{"name":"ทุ่งกวาว","zipcode":"54000"},{"name":"แม่หล่าย","zipcode":"54000"},{"name":"ในเวียง","zipcode":"54000"},{"name":"กาญจนา","zipcode":"54000"},{"name":"วังหงส์","zipcode":"54000"},{"name":"เหมืองหม้อ","zipcode":"54000"},{"name":"ช่อแฮ","zipcode":"54000"},{"name":"บ้านถิ่น","zipcode":"54000"},{"name":"ป่าแดง","zipcode":"54000"}]}]}
