{"province_id":43,"province_name":"น่าน","districts":[{"name":"ท่าวังผา","subdistricts":[{"name":"แสนทอง","zipcode":"55140"},{"name":"ริม","zipcode":"55140"},{"name":"ศรีภูมิ","zipcode":"55140"},{"name":"ยม","zipcode":"55140"},{"name":"ท่าวังผา","zipcode":"55140"},{"name":"ป่าคา","zipcode":"55140"},{"name":"จอมพระ","zipcode":"55140"},{"name":"ตาลชุม","zipcode":"55140"},{"name":"ผาทอง","zipcode":"55140"},{"name":"ผาตอ","zipcode":"55140"}]},{"name":"ทุ่งช้าง","subdistricts":[{"name":"และ","zipcode":"55130"},{"name":"ปอน","zipcode":"55130"},{"name":"ทุ่งช้าง","zipcode":"55130"},{"name":"งอบ","zipcode":"55130"}]},{"name":"นาน้อย","subdistricts":[{"name":"นาน้อย","zipcode":"55150"},{"name":"บัวใหญ่","zipcode":"55150"},{"name":"สถาน","zipcode":"55150"},{"name":"เชียงของ","zipcode":"55150"},{"name":"น้ำตก","zipcode":"55150"},{"name":"สันทะ","zipcode":"55150"},{"name":"ศรีษะเกษ","zipcode":"55150"}]},{"name":"นาหมื่น","subdistricts":[{"name":"บ่อแก้ว","zipcode":"55180"},{"name":"เมืองลี","zipcode":"55180"},{"name":"นาทะนุง","zipcode":"55180"},{"name":"ปิงหลวง","zipcode":"55180"}]},{"name":"บ่อเกลือ","subdistricts":[{"name":"บ่อเกลือใต้","zipcode":"55220"},{"name":"ภูฟ้า","zipcode":"55220"},{"name":"บ่อเกลือเหนือ","zipcode":"55220"},{"name":"ดงพญา","zipcode":"55220"}]},{"name":"บ้านหลวง","subdistricts":[{"name":"สวด","zipcode":"55190"},{"name":"บ้านฟ้า","zipcode":"55190"},{"name":"บ้านพี้","zipcode":"55190"},{"name":"ป่าคาหลวง","zipcode":"55190"}]},{"name":"ปัว","subdistricts":[{"name":"ปัว","zipcode":"55120"},{"name":"อวน","zipcode":"55120"},{"name":"ป่ากลาง","zipcode":"55120"},{"name":"ศิลาแลง","zipcode":"55120"},{"name":"ภูคา","zipcode":"55120"},{"name":"แงง","zipcode":"55120"},{"name":"ไชยวัฒนา","zipcode":"55120"},{"name":"วรนคร","zipcode":"55120"},{"name":"ศิลาเพชร","zipcode":"55120"},{"name":"สกาด","zipcode":"55120"},{"name":"สถาน","zipcode":"55120"},{"name":"เจดีย์ชัย","zipcode":"55120"}]},{"name":"ภูเพียง","subdistricts":[{"name":"นาปัง","zipcode":"55000"},{"name":"ฝายแก้ว","zipcode":"55000"},{"name":"เมืองจัง","zipcode":"55000"},{"name":"น้ำแก่น","zipcode":"55000"},{"name":"ม่วงตึ๊ด","zipcode":"55000"},{"name":"ท่าน้าว","zipcode":"55000"},{"name":"น้ำเกี๋ยน","zipcode":"55000"}]},{"name":"สองแคว","subdistricts":[{"name":"ยอด","zipcode":"55160"},{"name":"นาไร่หลวง","zipcode":"55160"},{"name":"ชนแดน","zipcode":"55160"}]},{"name":"สันติสุข","subdistricts":[{"name":"พงษ์","zipcode":"55210"},{"name":"ดู่พงษ์","zipcode":"55210"},{"name":"ป่าแลวหลวง","zipcode":"55210"}]},{"name":"เฉลิมพระเกียรติ","subdistricts":[{"name":"ขุนน่าน","zipcode":"55130"},{"name":"ห้วยโก๋น","zipcode":"55130"}]},{"name":"เชียงกลาง","subdistricts":[{"name":"เชียงกลาง","zipcode":"55160"},{"name":"พระพุทธบาท","zipcode":"55160"},{"name":"พระธาตุ","zipcode":"55160"},{"name":"เปือ","zipcode":"55160"},{"name":"พญาแก้ว","zipcode":"55160"},{"name":"เชียงคาน","zipcode":"55160"}]},{"name":"เมืองน่าน","subdistricts":[{"name":"บ่อ","zipcode":"55000"},{"name":"นาซาว","zipcode":"55000"},{"name":"ถืมตอง","zipcode":"55000"},{"name":"สวก","zipcode":"55000"},{"name":"ผาสิงห์","zipcode":"55000"},{"name":"ดู่ใต้","zipcode":"55000"},{"name":"ในเวียง","zipcode":"55000"},{"name":"เรือง","zipcode":"55000"},{"name":"สะเนียน","zipcode":"55000"},{"name":"ไชยสถาน","zipcode":"55000"},{"name":"กองควาย","zipcode":"55000"}]},{"name":"เวียงสา","subdistricts":[{"name":"ทุ่งศรีทอง","zipcode":"55110"},{"name":"ปงสนุก","zipcode":"55110"},{"name":"ไหล่น่าน","zipcode":"55110"},{"name":"จอมจันทร์","zipcode":"55110"},{"name":"น้ำปั้ว","zipcode":"55110"},{"name":"กลางเวียง","zipcode":"55110"},{"name":"แม่ขะนิง","zipcode":"55110"},{"name":"ส้าน","zipcode":"55110"},{"name":"อ่ายนาไลย","zipcode":"55110"},{"name":"ตาลชุม","zipcode":"55110"},{"name":"แม่สา","zipcode":"55110"},{"name":"ยาบหัวนา","zipcode":"55110"},{"name":"ขึ่ง","zipcode":"55110"},{"name":"แม่สาคร","zipcode":"55110"},{"name":"น้ำมวบ","zipcode":"55110"},{"name":"ส้านนาหนองใหม่","zipcode":"55110"},{"name":"นาเหลือง","zipcode":"55110"}]},{"name":"แม่จริม","subdistricts":[{"name":"น้ำพาง","zipcode":"55170"},{"name":"หนองแดง","zipcode":"55170"},{"name":"น้ำปาย","zipcode":"55170"},{"name":"หมอเมือง","zipcode":"55170"},{"name":"แม่จริม","zipcode":"55170"}]}]}
