{"province_id":44,"province_name":"พะเยา","districts":[{"name":"จุน","subdistricts":[{"name":"หงส์หิน","zipcode":"56150"},{"name":"จุน","zipcode":"56150"},{"name":"พระธาตุขิงแกง","zipcode":"56150"},{"name":"ทุ่งรวงทอง","zipcode":"56150"},{"name":"ลอ","zipcode":"56150"},{"name":"ห้วยข้าวก่ำ","zipcode":"56150"},{"name":"ห้วยยางขาม","zipcode":"56150"}]},{"name":"ดอกคำใต้","subdistricts":[{"name":"บุญเกิด","zipcode":"56120"},{"name":"บ้านถ้ำ","zipcode":"56120"},{"name":"หนองหล่ม","zipcode":"56120"},{"name":"ดอกคำใต้","zipcode":"56120"},{"name":"สันโค้ง","zipcode":"56120"},{"name":"สว่างอารมณ์","zipcode":"56120"},{"name":"บ้านปิน","zipcode":"56120"},{"name":"ดงสุวรรณ","zipcode":"56120"},{"name":"ดอนศรีชุม","zipcode":"56120"},{"name":"ป่าซาง","zipcode":"56120"},{"name":"คือเวียง","zipcode":"56120"},{"name":"ห้วยลาน","zipcode":"56120"}]},{"name":"ปง","subdistricts":[{"name":"ออย","zipcode":"56140"},{"name":"ปง","zipcode":"56140"},{"name":"นาปรัง","zipcode":"56140"},{"name":"งิม","zipcode":"56140"},{"name":"ควร","zipcode":"56140"},{"name":"ขุนควร","zipcode":"56140"},{"name":"ผาช้างน้อย","zipcode":"56140"}]},{"name":"ภูกามยาว","subdistricts":[{"name":"ดงเจน","zipcode":"56000"},{"name":"แม่อิง","zipcode":"56000"},{"name":"ห้วยแก้ว","zipcode":"56000"}]},{"name":"ภูซาง","subdistricts":[{"name":"เชียงแรง","zipcode":"56110"},{"name":"ป่าสัก","zipcode":"56110"},{"name":"สบบง","zipcode":"56110"},{"name":"ทุ่งกล้วย","zipcode":"56110"},{"name":"ภูซาง","zipcode":"56110"}]},{"name":"เชียงคำ","subdistricts":[{"name":"อ่างทอง","zipcode":"56110"},{"name":"น้ำแวน","zipcode":"56110"},{"name":"เชียงบาน","zipcode":"56110"},{"name":"เจดีย์คำ","zipcode":"56110"},{"name":"ทุ่งผาสุข","zipcode":"56110"},{"name":"เวียง","zipcode":"56110"},{"name":"แม่ลาว","zipcode":"56110"},{"name":"หย่วน","zipcode":"56110"},{"name":"ร่มเย็น","zipcode":"56110"},{"name":"ฝายกวาง","zipcode":"56110"}]},{"name":"เชียงม่วน","subdistricts":[{"name":"บ้านมาง","zipcode":"56160"},{"name":"สระ","zipcode":"56160"},{"name":"เชียงม่วน","zipcode":"56160"}]},{"name":"เมืองพะเยา","subdistricts":[{"name":"แม่ใส","zipcode":"56000"},{"name":"บ้านต๊ำ","zipcode":"56000"},{"name":"จำป่าหวาย","zipcode":"56000"},{"name":"แม่นาเรือ","zipcode":"56000"},{"name":"สันป่าม่วง","zipcode":"56000"},{"name":"แม่กา","zipcode":"56000"},{"name":"เวียง","zipcode":"56000"},{"name":"บ้านสาง","zipcode":"56000"},{"name":"บ้านต๋อม","zipcode":"56000"},{"name":"ท่าวังทอง","zipcode":"56000"},{"name":"บ้านตุ่น","zipcode":"56000"},{"name":"บ้านใหม่","zipcode":"56000"},{"name":"แม่ต๋ำ","zipcode":"56000"},{"name":"ท่าจำปี","zipcode":"56000"},{"name":"แม่ปืม","zipcode":"56000"}]},{"name":"แม่ใจ","subdistricts":[{"name":"แม่สุก","zipcode":"56130"},{"name":"แม่ใจ","zipcode":"56130"},{"name":"เจริญราษฎร์","zipcode":"56130"},{"name":"ป่าแฝก","zipcode":"56130"},{"name":"ศรีถ้อย","zipcode":"56130"},{"name":"บ้านเหล่า","zipcode":"56130"}]}]}
