{"province_id":45,"province_name":"เชียงราย","districts":[{"name":"ขุนตาล","subdistricts":[{"name":"ป่าตาล","zipcode":"57340"},{"name":"ยางฮอม","zipcode":"57340"},{"name":"ต้า","zipcode":"57340"}]},{"name":"ดอยหลวง","subdistricts":[{"name":"หนองป่าก่อ","zipcode":"57110"},{"name":"ปงน้อย","zipcode":"57110"},{"name":"โชคชัย","zipcode":"57110"}]},{"name":"ป่าแดด","subdistricts":[{"name":"ศรีโพธิ์เงิน","zipcode":"57190"},{"name":"สันมะค่า","zipcode":"57190"},{"name":"ป่าแดด","zipcode":"57190"},{"name":"โรงช้าง","zipcode":"57190"},{"name":"ป่าแงะ","zipcode":"57190"}]},{"name":"พญาเม็งราย","subdistricts":[{"name":"แม่เปา","zipcode":"57290"},{"name":"เม็งราย","zipcode":"57290"},{"name":"แม่ต๋ำ","zipcode":"57290"},{"name":"ตาดควัน","zipcode":"57290"},{"name":"ไม้ยา","zipcode":"57290"}]},{"name":"พาน","subdistricts":[{"name":"ธารทอง","zipcode":"57250"},{"name":"เวียงห้าว","zipcode":"57120"},{"name":"ป่าหุ่ง","zipcode":"57120"},{"name":"สันมะเค็ด","zipcode":"57120"},{"name":"เมืองพาน","zipcode":"57120"},{"name":"หัวง้ม","zipcode":"57120"},{"name":"สันกลาง","zipcode":"57120"},{"name":"สันติสุข","zipcode":"57120"},{"name":"ม่วงคำ","zipcode":"57120"},{"name":"แม่อ้อ","zipcode":"57120"},{"name":"ทานตะวัน","zipcode":"57280"},{"name":"เจริญเมือง","zipcode":"57120"},{"name":"แม่เย็น","zipcode":"57280"},{"name":"ดอยงาม","zipcode":"57120"},{"name":"ทรายขาว","zipcode":"57120"}]},{"name":"เชียงของ","subdistricts":[{"name":"ศรีดอนชัย","zipcode":"57230"},{"name":"บุญเรือง","zipcode":"57140"},{"name":"สถาน","zipcode":"57140"},{"name":"ริมโขง","zipcode":"57140"},{"name":"ห้วยซ้อ","zipcode":"57140"},{"name":"ครึ่ง","zipcode":"57140"},{"name":"เวียง","zipcode":"57140"}]},{"name":"เชียงแสน","subdistricts":[{"name":"บ้านแซว","zipcode":"57150"},{"name":"เวียง","zipcode":"57150"},{"name":"โยนก","zipcode":"57150"},{"name":"ศรีดอนมูล","zipcode":"57150"},{"name":"ป่าสัก","zipcode":"57150"},{"name":"แม่เงิน","zipcode":"57150"}]},{"name":"เทิง","subdistricts":[{"name":"ตับเต่า","zipcode":"57160"},{"name":"แม่ลอย","zipcode":"57230"},{"name":"ศรีดอนไชย","zipcode":"57160"},{"name":"งิ้ว","zipcode":"57160"},{"name":"หงาว","zipcode":"57160"},{"name":"เชียงเคี่ยน","zipcode":"57230"},{"name":"หนองแรด","zipcode":"57160"},{"name":"ปล้อง","zipcode":"57230"},{"name":"สันทรายงาม","zipcode":"57160"},{"name":"เวียง","zipcode":"57160"}]},{"name":"เมืองเชียงราย","subdistricts":[{"name":"ดอยฮาง","zipcode":"57000"},{"name":"แม่กรณ์","zipcode":"57000"},{"name":"เวียง","zipcode":"57000"},{"name":"ป่าอ้อดอนชัย","zipcode":"57000"},{"name":"แม่ยาว","zipcode":"57100"},{"name":"ริมกก","zipcode":"57100"},{"name":"นางแล","zipcode":"57100"},{"name":"ท่าสุด","zipcode":"57100"},{"name":"ห้วยชมภู","zipcode":"57000"},{"name":"รอบเวียง","zipcode":"57000"},{"name":"ท่าสาย","zipcode":"57000"},{"name":"สันทราย","zipcode":"57000"},{"name":"ดอยลาน","zipcode":"57000"},{"name":"แม่ข้าวต้ม","zipcode":"57100"},{"name":"ห้วยสัก","zipcode":"57000"},{"name":"บ้านดู่","zipcode":"57100"}]},{"name":"เวียงชัย","subdistricts":[{"name":"ดอนศิลา","zipcode":"57210"},{"name":"ผางาม","zipcode":"57210"},{"name":"เมืองชุม","zipcode":"57210"},{"name":"เวียงเหนือ","zipcode":"57210"},{"name":"เวียงชัย","zipcode":"57210"}]},{"name":"เวียงป่าเป้า","subdistricts":[{"name":"สันสลี","zipcode":"57170"},{"name":"แม่เจดีย์","zipcode":"57260"},{"name":"ป่างิ้ว","zipcode":"57170"},{"name":"เวียง","zipcode":"57170"},{"name":"แม่เจดีย์ใหม่","zipcode":"57260"},{"name":"เวียงกาหลง","zipcode":"57260"},{"name":"บ้านโป่ง","zipcode":"57170"}]},{"name":"เวียงเชียงรุ้ง","subdistricts":[{"name":"ดงมหาวัน","zipcode":"57210"},{"name":"ป่าซาง","zipcode":"57210"},{"name":"ทุ่งก่อ","zipcode":"57210"}]},{"name":"เวียงแก่น","subdistricts":[{"name":"หล่ายงาว","zipcode":"57310"},{"name":"ม่วงยาย","zipcode":"57310"},{"name":"ท่าข้าม","zipcode":"57310"},{"name":"ปอ","zipcode":"57310"}]},{"name":"แม่จัน","subdistricts":[{"name":"จันจว้า","zipcode":"57270"},{"name":"ป่าตึง","zipcode":"57110"},{"name":"สันทราย","zipcode":"57110"},{"name":"จันจว้าใต้","zipcode":"57270"},{"name":"แม่คำ","zipcode":"57240"},{"name":"แม่ไร่","zipcode":"57240"},{"name":"แม่จัน","zipcode":"57110"},{"name":"ท่าข้าวเปลือก","zipcode":"57110"},{"name":"จอมสวรรค์","zipcode":"57110"},{"name":"ป่าซาง","zipcode":"57110"},{"name":"ศรีค้ำ","zipcode":"57110"}]},{"name":"แม่ฟ้าหลวง","subdistricts":[{"name":"แม่สลองนอก","zipcode":"57110"},{"name":"เทอดไทย","zipcode":"57240"},{"name":"แม่ฟ้าหลวง","zipcode":"57240"},{"name":"แม่สลองใน","zipcode":"57110"}]},{"name":"แม่ลาว","subdistricts":[{"name":"ป่าก่อดำ","zipcode":"57250"},{"name":"จอมหมอกแก้ว","zipcode":"57250"},{"name":"โป่งแพร่","zipcode":"57000"},{"name":"บัวสลี","zipcode":"57250"},{"name":"ดงมะดะ","zipcode":"57250"}]},{"name":"แม่สรวย","subdistricts":[{"name":"แม่สรวย","zipcode":"57180"},{"name":"วาวี","zipcode":"57180"},{"name":"ศรีถ้อย","zipcode":"57180"},{"name":"ป่าแดด","zipcode":"57180"},{"name":"เจดีย์หลวง","zipcode":"57180"},{"name":"ท่าก๊อ","zipcode":"57180"},{"name":"แม่พริก","zipcode":"57180"}]},{"name":"แม่สาย","subdistricts":[{"name":"โป่งผา","zipcode":"57130"},{"name":"ห้วยไคร้","zipcode":"57220"},{"name":"บ้านด้าย","zipcode":"57220"},{"name":"ศรีเมืองชุม","zipcode":"57130"},{"name":"เกาะช้าง","zipcode":"57130"},{"name":"โป่งงาม","zipcode":"57130"},{"name":"แม่สาย","zipcode":"57130"},{"name":"เวียงพางคำ","zipcode":"57130"}]}]}
