{"province_id":46,"province_name":"แม่ฮ่องสอน","districts":[{"name":"ขุนยวม","subdistricts":[{"name":"แม่กิ๊","zipcode":"58140"},{"name":"เมืองปอน","zipcode":"58140"},{"name":"ขุนยวม","zipcode":"58140"},{"name":"แม่อูคอ","zipcode":"58140"},{"name":"แม่ยวมน้อย","zipcode":"58140"},{"name":"แม่เงา","zipcode":"58140"}]},{"name":"ปางมะผ้า","subdistricts":[{"name":"นาปู่ป้อม","zipcode":"58150"},{"name":"ปางมะผ้า","zipcode":"58150"},{"name":"ถ้ำลอด","zipcode":"58150"},{"name":"สบป่อง","zipcode":"58150"}]},{"name":"ปาย","subdistricts":[{"name":"เมืองแปง","zipcode":"58130"},{"name":"แม่ฮี้","zipcode":"58130"},{"name":"เวียงเหนือ","zipcode":"58130"},{"name":"โป่งสา","zipcode":"58130"},{"name":"ทุ่งยาว","zipcode":"58130"},{"name":"แม่นาเติง","zipcode":"58130"},{"name":"เวียงใต้","zipcode":"58130"}]},{"name":"สบเมย","subdistricts":[{"name":"กองก๋อย","zipcode":"58110"},{"name":"สบเมย","zipcode":"58110"},{"name":"แม่สามแลบ","zipcode":"58110"},{"name":"แม่สวด","zipcode":"58110"},{"name":"แม่คะตวน","zipcode":"58110"},{"name":"ป่าโปง","zipcode":"58110"}]},{"name":"เมืองแม่ฮ่องสอน","subdistricts":[{"name":"ห้วยปูลิง","zipcode":"58000"},{"name":"หมอกจำแป่","zipcode":"58000"},{"name":"ผาบ่อง","zipcode":"58000"},{"name":"จองคำ","zipcode":"58000"},{"name":"ห้วยผา","zipcode":"58000"},{"name":"ปางหมู","zipcode":"58000"},{"name":"ห้วยโป่ง","zipcode":"58000"}]},{"name":"แม่ลาน้อย","subdistricts":[{"name":"แม่นาจาง","zipcode":"58120"},{"name":"แม่โถ","zipcode":"58120"},{"name":"แม่ลาหลวง","zipcode":"58120"},{"name":"สันติคีรี","zipcode":"58120"},{"name":"ห้วยห้อม","zipcode":"58120"},{"name":"ท่าผาปุ้ม","zipcode":"58120"},{"name":"ขุนแม่ลาน้อย","zipcode":"58120"},{"name":"แม่ลาน้อย","zipcode":"58120"}]},{"name":"แม่สะเรียง","subdistricts":[{"name":"เสาหิน","zipcode":"58110"},{"name":"แม่เหาะ","zipcode":"58110"},{"name":"แม่สะเรียง","zipcode":"58110"},{"name":"ป่าแป๋","zipcode":"58110"},{"name":"แม่ยวม","zipcode":"58110"},{"name":"แม่คง","zipcode":"58110"},{"name":"บ้านกาศ","zipcode":"58110"}]}]}
