{"province_id":47,"province_name":"นครสวรรค์","districts":[{"name":"ชุมตาบง","subdistricts":[{"name":"ชุมตาบง","zipcode":"60150"},{"name":"ปางสวรรค์","zipcode":"60150"}]},{"name":"ชุมแสง","subdistricts":[{"name":"ทับกฤชใต้","zipcode":"60250"},{"name":"ท่าไม้","zipcode":"60120"},{"name":"ไผ่สิงห์","zipcode":"60120"},{"name":"พิกุล","zipcode":"60120"},{"name":"พันลาน","zipcode":"60250"},{"name":"ชุมแสง","zipcode":"60120"},{"name":"บางเคียน","zipcode":"60120"},{"name":"ฆะมัง","zipcode":"60120"},{"name":"เกยไชย","zipcode":"60120"},{"name":"โคกหม้อ","zipcode":"60120"},{"name":"ทับกฤช","zipcode":"60250"},{"name":"หนองกระเจา","zipcode":"60120"}]},{"name":"ตากฟ้า","subdistricts":[{"name":"เขาชายธง","zipcode":"60190"},{"name":"พุนกยูง","zipcode":"60190"},{"name":"สุขสำราญ","zipcode":"60190"},{"name":"ตากฟ้า","zipcode":"60190"},{"name":"อุดมธัญญา","zipcode":"60190"},{"name":"หนองพิกุล","zipcode":"60190"},{"name":"ลำพยนต์","zipcode":"60190"}]},{"name":"ตาคลี","subdistricts":[{"name":"หนองโพ","zipcode":"60140"},{"name":"ห้วยหอม","zipcode":"60210"},{"name":"ลาดทิพรส","zipcode":"60260"},{"name":"ช่องแค","zipcode":"60210"},{"name":"หนองหม้อ","zipcode":"60140"},{"name":"หัวหวาย","zipcode":"60140"},{"name":"พรหมนิมิต","zipcode":"60210"},{"name":"จันเสน","zipcode":"60260"},{"name":"สร้อยทอง","zipcode":"60210"},{"name":"ตาคลี","zipcode":"60140"}]},{"name":"ท่าตะโก","subdistricts":[{"name":"วังใหญ่","zipcode":"60160"},{"name":"ท่าตะโก","zipcode":"60160"},{"name":"ดอนคา","zipcode":"60160"},{"name":"สายลำโพง","zipcode":"60160"},{"name":"พนมเศษ","zipcode":"60160"},{"name":"พนมรอก","zipcode":"60160"},{"name":"ทำนบ","zipcode":"60160"},{"name":"วังมหากร","zipcode":"60160"},{"name":"หนองหลวง","zipcode":"60160"},{"name":"หัวถนน","zipcode":"60160"}]},{"name":"บรรพตพิสัย","subdistricts":[{"name":"บ้านแดน","zipcode":"60180"},{"name":"หนองกรด","zipcode":"60180"},{"name":"หูกวาง","zipcode":"60180"},{"name":"ตาสัง","zipcode":"60180"},{"name":"ท่างิ้ว","zipcode":"60180"},{"name":"เจริญผล","zipcode":"60180"},{"name":"บางแก้ว","zipcode":"60180"},{"name":"หนองตางู","zipcode":"60180"},{"name":"อ่างทอง","zipcode":"60180"},{"name":"ด่านช้าง","zipcode":"60180"},{"name":"บางตาหงาย","zipcode":"60180"},{"name":"ตาขีด","zipcode":"60180"},{"name":"บึงปลาทู","zipcode":"60180"}]},{"name":"พยุหะคีรี","subdistricts":[{"name":"น้ำทรง","zipcode":"60130"},{"name":"เนินมะกอก","zipcode":"60130"},{"name":"เขาทอง","zipcode":"60130"},{"name":"ยางขาว","zipcode":"60130"},{"name":"เขากะลา","zipcode":"60130"},{"name":"นิคมเขาบ่อแก้ว","zipcode":"60130"},{"name":"ท่าน้ำอ้อย","zipcode":"60130"},{"name":"พยุหะ","zipcode":"60130"},{"name":"ย่านมัทรี","zipcode":"60130"},{"name":"สระทะเล","zipcode":"60130"},{"name":"ม่วงหัก","zipcode":"60130"}]},{"name":"ลาดยาว","subdistricts":[{"name":"สระแก้ว","zipcode":"60150"},{"name":"สร้อยละคร","zipcode":"60150"},{"name":"เนินขี้เหล็ก","zipcode":"60150"},{"name":"วังม้า","zipcode":"60150"},{"name":"หนองนมวัว","zipcode":"60150"},{"name":"ลาดยาว","zipcode":"60150"},{"name":"มาบแก","zipcode":"60150"},{"name":"ศาลเจ้าไก่ต่อ","zipcode":"60150"},{"name":"วังเมือง","zipcode":"60150"},{"name":"บ้านไร่","zipcode":"60150"},{"name":"ห้วยน้ำหอม","zipcode":"60150"},{"name":"หนองยาว","zipcode":"60150"}]},{"name":"หนองบัว","subdistricts":[{"name":"ห้วยใหญ่","zipcode":"60110"},{"name":"ห้วยถั่วใต้","zipcode":"60110"},{"name":"ธารทหาร","zipcode":"60110"},{"name":"ทุ่งทอง","zipcode":"60110"},{"name":"หนองบัว","zipcode":"60110"},{"name":"ห้วยถั่วเหนือ","zipcode":"60110"},{"name":"ห้วยร่วม","zipcode":"60110"},{"name":"วังบ่อ","zipcode":"60110"},{"name":"หนองกลับ","zipcode":"60110"}]},{"name":"เก้าเลี้ยว","subdistricts":[{"name":"เขาดิน","zipcode":"60230"},{"name":"เก้าเลี้ยว","zipcode":"60230"},{"name":"หัวดง","zipcode":"60230"},{"name":"หนองเต่า","zipcode":"60230"},{"name":"มหาโพธิ","zipcode":"60230"}]},{"name":"เมืองนครสวรรค์","subdistricts":[{"name":"นครสวรรค์ออก","zipcode":"60000"},{"name":"พระนอน","zipcode":"60000"},{"name":"ตะเคียนเลื่อน","zipcode":"60000"},{"name":"บึงเสนาท","zipcode":"60000"},{"name":"บ้านมะเกลือ","zipcode":"60000"},{"name":"เกรียงไกร","zipcode":"60000"},{"name":"หนองกระโดน","zipcode":"60240"},{"name":"บางพระหลวง","zipcode":"60000"},{"name":"ปากน้ำโพ","zipcode":"60000"},{"name":"วัดไทร","zipcode":"60000"},{"name":"นครสวรรค์ตก","zipcode":"60000"},{"name":"บ้านแก่ง","zipcode":"60000"},{"name":"แควใหญ่","zipcode":"60000"},{"name":"หนองปลิง","zipcode":"60000"},{"name":"บางม่วง","zipcode":"60000"},{"name":"กลางแดด","zipcode":"60000"},{"name":"หนองกรด","zipcode":"60240"}]},{"name":"แม่วงก์","subdistricts":[{"name":"วังซ่าน","zipcode":"60150"},{"name":"แม่วงก์","zipcode":"60150"},{"name":"เขาชนกัน","zipcode":"60150"},{"name":"แม่เล่ย์","zipcode":"60150"}]},{"name":"แม่เปิน","subdistricts":[{"name":"แม่เปิน","zipcode":"60150"}]},{"name":"โกรกพระ","subdistricts":[{"name":"หาดสูง","zipcode":"60170"},{"name":"ยางตาล","zipcode":"60170"},{"name":"เนินกว้าว","zipcode":"60170"},{"name":"นากลาง","zipcode":"60170"},{"name":"บางมะฝ่อ","zipcode":"60170"},{"name":"เนินศาลา","zipcode":"60170"},{"name":"โกรกพระ","zipcode":"60170"},{"name":"ศาลาแดง","zipcode":"60170"},{"name":"บางประมุง","zipcode":"60170"}]},{"name":"ไพศาลี","subdistricts":[{"name":"โพธิ์ประสาท","zipcode":"60220"},{"name":"วังน้ำลัด","zipcode":"60220"},{"name":"ไพศาลี","zipcode":"60220"},{"name":"โคกเดื่อ","zipcode":"60220"},{"name":"วังข่อย","zipcode":"60220"},{"name":"ตะคร้อ","zipcode":"60220"},{"name":"สำโรงชัย","zipcode":"60220"},{"name":"นาขอม","zipcode":"60220"}]}]}
