{"province_id":48,"province_name":"อุทัยธานี","districts":[{"name":"ทัพทัน","subdistricts":[{"name":"ตลุกดู่","zipcode":"61120"},{"name":"เขาขี้ฝอย","zipcode":"61120"},{"name":"หนองกระทุ่ม","zipcode":"61120"},{"name":"ทัพทัน","zipcode":"61120"},{"name":"หนองยายดา","zipcode":"61120"},{"name":"หนองหญ้าปล้อง","zipcode":"61120"},{"name":"หนองสระ","zipcode":"61120"},{"name":"ทุ่งนาไทย","zipcode":"61120"},{"name":"หนองกลางดง","zipcode":"61120"},{"name":"โคกหม้อ","zipcode":"61120"}]},{"name":"บ้านไร่","subdistricts":[{"name":"หูช้าง","zipcode":"61180"},{"name":"ทัพหลวง","zipcode":"61140"},{"name":"แก่นมะกรูด","zipcode":"61140"},{"name":"หนองบ่มกล้วย","zipcode":"61180"},{"name":"วังหิน","zipcode":"61180"},{"name":"บ้านบึง","zipcode":"61140"},{"name":"ห้วยแห้ง","zipcode":"61140"},{"name":"หนองจอก","zipcode":"61180"},{"name":"บ้านไร่","zipcode":"61140"},{"name":"เจ้าวัด","zipcode":"61140"},{"name":"เมืองการุ้ง","zipcode":"61180"},{"name":"บ้านใหม่คลองเคียน","zipcode":"61180"},{"name":"คอกควาย","zipcode":"61140"}]},{"name":"ลานสัก","subdistricts":[{"name":"ลานสัก","zipcode":"61160"},{"name":"ทุ่งนางาม","zipcode":"61160"},{"name":"ระบำ","zipcode":"61160"},{"name":"ประดู่ยืน","zipcode":"61160"},{"name":"น้ำรอบ","zipcode":"61160"},{"name":"ป่าอ้อ","zipcode":"61160"}]},{"name":"สว่างอารมณ์","subdistricts":[{"name":"บ่อยาง","zipcode":"61150"},{"name":"พลวงสองนาง","zipcode":"61150"},{"name":"สว่างอารมณ์","zipcode":"61150"},{"name":"ไผ่เขียว","zipcode":"61150"},{"name":"หนองหลวง","zipcode":"61150"}]},{"name":"หนองขาหย่าง","subdistricts":[{"name":"ห้วยรอบ","zipcode":"61130"},{"name":"ดงขวาง","zipcode":"61130"},{"name":"หนองไผ่","zipcode":"61130"},{"name":"หมกแถว","zipcode":"61130"},{"name":"ทุ่งพึ่ง","zipcode":"61130"},{"name":"ดอนกลอย","zipcode":"61130"},{"name":"หลุมเข้า","zipcode":"61130"},{"name":"หนองขาหย่าง","zipcode":"61130"},{"name":"ท่าโพ","zipcode":"61130"}]},{"name":"หนองฉาง","subdistricts":[{"name":"เขาบางแกรก","zipcode":"61170"},{"name":"หนองยาง","zipcode":"61110"},{"name":"ทุ่งโพ","zipcode":"61110"},{"name":"บ้านเก่า","zipcode":"61110"},{"name":"เขากวางทอง","zipcode":"61110"},{"name":"หนองนางนวล","zipcode":"61110"},{"name":"ทุ่งพง","zipcode":"61110"},{"name":"หนองฉาง","zipcode":"61110"},{"name":"อุทัยเก่า","zipcode":"61110"},{"name":"หนองสรวง","zipcode":"61110"}]},{"name":"ห้วยคต","subdistricts":[{"name":"ทองหลาง","zipcode":"61170"},{"name":"ห้วยคต","zipcode":"61170"},{"name":"สุขฤทัย","zipcode":"61170"}]},{"name":"เมืองอุทัยธานี","subdistricts":[{"name":"หนองพังค่า","zipcode":"61000"},{"name":"หาดทนง","zipcode":"61000"},{"name":"หนองเต่า","zipcode":"61000"},{"name":"สะแกกรัง","zipcode":"61000"},{"name":"หนองแก","zipcode":"61000"},{"name":"อุทัยใหม่","zipcode":"61000"},{"name":"ทุ่งใหญ่","zipcode":"61000"},{"name":"เกาะเทโพ","zipcode":"61000"},{"name":"หนองไผ่แบน","zipcode":"61000"},{"name":"ดอนขวาง","zipcode":"61000"},{"name":"โนนเหล็ก","zipcode":"61000"},{"name":"น้ำซึม","zipcode":"61000"},{"name":"เนินแจง","zipcode":"61000"},{"name":"ท่าซุง","zipcode":"61000"}]}]}
