{"province_id":49,"province_name":"กำแพงเพชร","districts":[{"name":"ขาณุวรลักษบุรี","subdistricts":[{"name":"บ่อถ้ำ","zipcode":"62140"},{"name":"วังหามแห","zipcode":"62140"},{"name":"แสนตอ","zipcode":"62130"},{"name":"โค้งไผ่","zipcode":"62140"},{"name":"ยางสูง","zipcode":"62130"},{"name":"ดอนแตง","zipcode":"62140"},{"name":"เกาะตาล","zipcode":"62130"},{"name":"สลกบาตร","zipcode":"62140"},{"name":"ปางมะค่า","zipcode":"62140"},{"name":"ป่าพุทรา","zipcode":"62130"},{"name":"วังชะพลู","zipcode":"62140"}]},{"name":"คลองขลุง","subdistricts":[{"name":"วังแขม","zipcode":"62120"},{"name":"แม่ลาด","zipcode":"62120"},{"name":"วังบัว","zipcode":"62120"},{"name":"ท่ามะเขือ","zipcode":"62120"},{"name":"หัวถนน","zipcode":"62120"},{"name":"วังยาง","zipcode":"62120"},{"name":"คลองสมบูรณ์","zipcode":"62120"},{"name":"ท่าพุทรา","zipcode":"62120"},{"name":"วังไทร","zipcode":"62120"},{"name":"คลองขลุง","zipcode":"62120"}]},{"name":"คลองลาน","subdistricts":[{"name":"โป่งน้ำร้อน","zipcode":"62180"},{"name":"คลองลานพัฒนา","zipcode":"62180"},{"name":"คลองน้ำไหล","zipcode":"62180"},{"name":"สักงาม","zipcode":"62180"}]},{"name":"ทรายทองวัฒนา","subdistricts":[{"name":"ถาวรวัฒนา","zipcode":"62190"},{"name":"ทุ่งทราย","zipcode":"62190"},{"name":"ทุ่งทอง","zipcode":"62190"}]},{"name":"บึงสามัคคี","subdistricts":[{"name":"เทพนิมิต","zipcode":"62210"},{"name":"วังชะโอน","zipcode":"62210"},{"name":"ระหาน","zipcode":"62210"},{"name":"บึงสามัคคี","zipcode":"62210"}]},{"name":"ปางศิลาทอง","subdistricts":[{"name":"หินดาต","zipcode":"62120"},{"name":"ปางตาไว","zipcode":"62120"},{"name":"โพธิ์ทอง","zipcode":"62120"}]},{"name":"พรานกระต่าย","subdistricts":[{"name":"ท่าไม้","zipcode":"62110"},{"name":"คลองพิไกร","zipcode":"62110"},{"name":"พรานกระต่าย","zipcode":"62110"},{"name":"เขาคีริส","zipcode":"62110"},{"name":"วังควง","zipcode":"62110"},{"name":"ถ้ำกระต่ายทอง","zipcode":"62110"},{"name":"หนองหัววัว","zipcode":"62110"},{"name":"คุยบ้านโอง","zipcode":"62110"},{"name":"วังตะแบก","zipcode":"62110"},{"name":"ห้วยยั้ง","zipcode":"62110"}]},{"name":"ลานกระบือ","subdistricts":[{"name":"ประชาสุขสันต์","zipcode":"62170"},{"name":"หนองหลวง","zipcode":"62170"},{"name":"ลานกระบือ","zipcode":"62170"},{"name":"บึงทับแรต","zipcode":"62170"},{"name":"โนนพลวง","zipcode":"62170"},{"name":"ช่องลม","zipcode":"62170"},{"name":"จันทิมา","zipcode":"62170"}]},{"name":"เมืองกำแพงเพชร","subdistricts":[{"name":"ทรงธรรม","zipcode":"62000"},{"name":"เทพนคร","zipcode":"62000"},{"name":"นาบ่อคำ","zipcode":"62000"},{"name":"สระแก้ว","zipcode":"62000"},{"name":"คณฑี","zipcode":"62000"},{"name":"ไตรตรึงษ์","zipcode":"62160"},{"name":"คลองแม่ลาย","zipcode":"62000"},{"name":"ลานดอกไม้","zipcode":"62000"},{"name":"วังทอง","zipcode":"62000"},{"name":"นครชุม","zipcode":"62000"},{"name":"นิคมทุ่งโพธิ์ทะเล","zipcode":"62000"},{"name":"อ่างทอง","zipcode":"62000"},{"name":"ธำมรงค์","zipcode":"62160"},{"name":"หนองปลิง","zipcode":"62000"},{"name":"ในเมือง","zipcode":"62000"},{"name":"ท่าขุนราม","zipcode":"62000"}]},{"name":"โกสัมพีนคร","subdistricts":[{"name":"ลานดอกไม้ตก","zipcode":"62000"},{"name":"โกสัมพี","zipcode":"62000"},{"name":"เพชรชมภู","zipcode":"62000"}]},{"name":"ไทรงาม","subdistricts":[{"name":"หนองคล้า","zipcode":"62150"},{"name":"หนองแม่แตง","zipcode":"62150"},{"name":"มหาชัย","zipcode":"62150"},{"name":"หนองทอง","zipcode":"62150"},{"name":"ไทรงาม","zipcode":"62150"},{"name":"พานทอง","zipcode":"62150"},{"name":"หนองไม้กอง","zipcode":"62150"}]}]}
