{"province_id":5,"province_name":"พระนครศรีอยุธยา","districts":[{"name":"ท่าเรือ","subdistricts":[{"name":"วังแดง","zipcode":"13130"},{"name":"บ้านร่อม","zipcode":"13130"},{"name":"หนองขนาก","zipcode":"13130"},{"name":"จำปา","zipcode":"13130"},{"name":"โพธิ์เอน","zipcode":"13130"},{"name":"ศาลาลอย","zipcode":"13130"},{"name":"ท่าเจ้าสนุก","zipcode":"13130"},{"name":"ท่าหลวง","zipcode":"13130"},{"name":"ปากท่า","zipcode":"13130"},{"name":"ท่าเรือ","zipcode":"13130"}]},{"name":"นครหลวง","subdistricts":[{"name":"บ่อโพง","zipcode":"13260"},{"name":"แม่ลา","zipcode":"13260"},{"name":"นครหลวง","zipcode":"13260"},{"name":"บางระกำ","zipcode":"13260"},{"name":"สามไถ","zipcode":"13260"},{"name":"บ้านชุ้ง","zipcode":"13260"},{"name":"หนองปลิง","zipcode":"13260"},{"name":"ท่าช้าง","zipcode":"13260"},{"name":"บางพระครู","zipcode":"13260"},{"name":"พระนอน","zipcode":"13260"},{"name":"ปากจั่น","zipcode":"13260"},{"name":"คลองสะแก","zipcode":"13260"}]},{"name":"บางซ้าย","subdistricts":[{"name":"วังพัฒนา","zipcode":"13270"},{"name":"ปลายกลัด","zipcode":"13270"},{"name":"แก้วฟ้า","zipcode":"13270"},{"name":"เทพมงคล","zipcode":"13270"},{"name":"เต่าเล่า","zipcode":"13270"},{"name":"บางซ้าย","zipcode":"13270"}]},{"name":"บางบาล","subdistricts":[{"name":"บางหลวงโดด","zipcode":"13250"},{"name":"กบเจา","zipcode":"13250"},{"name":"วัดตะกู","zipcode":"13250"},{"name":"สะพานไทย","zipcode":"13250"},{"name":"บ้านกุ่ม","zipcode":"13250"},{"name":"น้ำเต้า","zipcode":"13250"},{"name":"วัดยม","zipcode":"13250"},{"name":"บางหัก","zipcode":"13250"},{"name":"บ้านคลัง","zipcode":"13250"},{"name":"บางหลวง","zipcode":"13250"},{"name":"มหาพราหมณ์","zipcode":"13250"},{"name":"ทางช้าง","zipcode":"13250"},{"name":"ไทรน้อย","zipcode":"13250"},{"name":"บางชะนี","zipcode":"13250"},{"name":"พระขาว","zipcode":"13250"},{"name":"บางบาล","zipcode":"13250"}]},{"name":"บางปะหัน","subdistricts":[{"name":"ทางกลาง","zipcode":"13220"},{"name":"บ้านขล้อ","zipcode":"13220"},{"name":"ทับน้ำ","zipcode":"13220"},{"name":"บางเดื่อ","zipcode":"13220"},{"name":"พุทเลา","zipcode":"13220"},{"name":"บางนางร้า","zipcode":"13220"},{"name":"บางปะหัน","zipcode":"13220"},{"name":"บ้านลี่","zipcode":"13220"},{"name":"บางเพลิง","zipcode":"13220"},{"name":"บ้านม้า","zipcode":"13220"},{"name":"เสาธง","zipcode":"13220"},{"name":"ตาลเอน","zipcode":"13220"},{"name":"ตานิม","zipcode":"13220"},{"name":"ขยาย","zipcode":"13220"},{"name":"โพธิ์สามต้น","zipcode":"13220"},{"name":"หันสัง","zipcode":"13220"},{"name":"ขวัญเมือง","zipcode":"13220"}]},{"name":"บางปะอิน","subdistricts":[{"name":"บ้านกรด","zipcode":"13160"},{"name":"บ้านสร้าง","zipcode":"13170"},{"name":"บางประแดง","zipcode":"13160"},{"name":"เชียงรากน้อย","zipcode":"13180"},{"name":"คุ้งลาน","zipcode":"13160"},{"name":"บ้านหว้า","zipcode":"13160"},{"name":"บ้านพลับ","zipcode":"13160"},{"name":"บางกระสั้น","zipcode":"13160"},{"name":"ตลาดเกรียบ","zipcode":"13160"},{"name":"สามเรือน","zipcode":"13160"},{"name":"บ้านโพ","zipcode":"13160"},{"name":"ตลิ่งชัน","zipcode":"13160"},{"name":"วัดยม","zipcode":"13160"},{"name":"บ้านเลน","zipcode":"13160"},{"name":"บ้านแป้ง","zipcode":"13160"},{"name":"คลองจิก","zipcode":"13160"},{"name":"ขนอนหลวง","zipcode":"13160"},{"name":"เกาะเกิด","zipcode":"13160"}]},{"name":"บางไทร","subdistricts":[{"name":"บ้านม้า","zipcode":"13190"},{"name":"กระแชง","zipcode":"13190"},{"name":"สนามชัย","zipcode":"13190"},{"name":"เชียงรากน้อย","zipcode":"13290"},{"name":"กกแก้วบูรพา","zipcode":"13190"},{"name":"แคตก","zipcode":"13190"},{"name":"บางไทร","zipcode":"13190"},{"name":"ช้างใหญ่","zipcode":"13290"},{"name":"ห่อหมก","zipcode":"13190"},{"name":"บางยี่โท","zipcode":"13190"},{"name":"บ้านเกาะ","zipcode":"13190"},{"name":"บ้านกลึง","zipcode":"13190"},{"name":"บ้านแป้ง","zipcode":"13190"},{"name":"โคกช้าง","zipcode":"13190"},{"name":"ไม้ตรา","zipcode":"13190"},{"name":"ช่างเหล็ก","zipcode":"13190"},{"name":"บางพลี","zipcode":"13190"},{"name":"โพแตง","zipcode":"13290"},{"name":"ไผ่พระ","zipcode":"13190"},{"name":"แคออก","zipcode":"13190"},{"name":"ราชคราม","zipcode":"13290"},{"name":"ช้างน้อย","zipcode":"13190"},{"name":"หน้าไม้","zipcode":"13190"}]},{"name":"บ้านแพรก","subdistricts":[{"name":"สำพะเนียง","zipcode":"13240"},{"name":"บ้านแพรก","zipcode":"13240"},{"name":"คลองน้อย","zipcode":"13240"},{"name":"บ้านใหม่","zipcode":"13240"},{"name":"สองห้อง","zipcode":"13240"}]},{"name":"ผักไห่","subdistricts":[{"name":"ดอนลาน","zipcode":"13280"},{"name":"จักราช","zipcode":"13280"},{"name":"ตาลาน","zipcode":"13120"},{"name":"ลำตะเคียน","zipcode":"13280"},{"name":"บ้านแค","zipcode":"13120"},{"name":"หน้าโคก","zipcode":"13120"},{"name":"นาคู","zipcode":"13280"},{"name":"ผักไห่","zipcode":"13120"},{"name":"หนองน้ำใหญ่","zipcode":"13280"},{"name":"ท่าดินแดง","zipcode":"13120"},{"name":"โคกช้าง","zipcode":"13120"},{"name":"ลาดน้ำเค็ม","zipcode":"13120"},{"name":"บ้านใหญ่","zipcode":"13120"},{"name":"กุฎี","zipcode":"13120"},{"name":"อมฤต","zipcode":"13120"},{"name":"ลาดชิด","zipcode":"13120"}]},{"name":"พระนครศรีอยุธยา","subdistricts":[{"name":"ภูเขาทอง","zipcode":"13000"},{"name":"ประตูชัย","zipcode":"13000"},{"name":"บ้านป้อม","zipcode":"13000"},{"name":"หันตรา","zipcode":"13000"},{"name":"ไผ่ลิง","zipcode":"13000"},{"name":"คลองสระบัว","zipcode":"13000"},{"name":"คลองตะเคียน","zipcode":"13000"},{"name":"หัวรอ","zipcode":"13000"},{"name":"บ้านเกาะ","zipcode":"13000"},{"name":"สำเภาล่ม","zipcode":"13000"},{"name":"กะมัง","zipcode":"13000"},{"name":"บ้านรุน","zipcode":"13000"},{"name":"ลุมพลี","zipcode":"13000"},{"name":"ปากกราน","zipcode":"13000"},{"name":"เกาะเรียน","zipcode":"13000"},{"name":"วัดตูม","zipcode":"13000"},{"name":"ท่าวาสุกรี","zipcode":"13000"},{"name":"คลองสวนพลู","zipcode":"13000"},{"name":"สวนพริก","zipcode":"13000"},{"name":"หอรัตนไชย","zipcode":"13000"},{"name":"บ้านใหม่","zipcode":"13000"}]},{"name":"ภาชี","subdistricts":[{"name":"ระโสม","zipcode":"13140"},{"name":"พระแก้ว","zipcode":"13140"},{"name":"ภาชี","zipcode":"13140"},{"name":"ไผ่ล้อม","zipcode":"13140"},{"name":"หนองน้ำใส","zipcode":"13140"},{"name":"โคกม่วง","zipcode":"13140"},{"name":"กระจิว","zipcode":"13140"},{"name":"ดอนหญ้านาง","zipcode":"13140"}]},{"name":"มหาราช","subdistricts":[{"name":"พิตเพียน","zipcode":"13150"},{"name":"หัวไผ่","zipcode":"13150"},{"name":"โรงช้าง","zipcode":"13150"},{"name":"ท่าตอ","zipcode":"13150"},{"name":"น้ำเต้า","zipcode":"13150"},{"name":"บ้านนา","zipcode":"13150"},{"name":"กะทุ่ม","zipcode":"13150"},{"name":"เจ้าปลุก","zipcode":"13150"},{"name":"บ้านใหม่","zipcode":"13150"},{"name":"บางนา","zipcode":"13150"},{"name":"บ้านขวาง","zipcode":"13150"},{"name":"มหาราช","zipcode":"13150"}]},{"name":"ลาดบัวหลวง","subdistricts":[{"name":"หลักชัย","zipcode":"13230"},{"name":"คลองพระยาบันลือ","zipcode":"13230"},{"name":"สิงหนาท","zipcode":"13230"},{"name":"สามเมือง","zipcode":"13230"},{"name":"ลาดบัวหลวง","zipcode":"13230"},{"name":"คู้สลอด","zipcode":"13230"},{"name":"พระยาบันลือ","zipcode":"13230"}]},{"name":"วังน้อย","subdistricts":[{"name":"บ่อตาโล่","zipcode":"13170"},{"name":"หันตะเภา","zipcode":"13170"},{"name":"สนับทึบ","zipcode":"13170"},{"name":"ชะแมบ","zipcode":"13170"},{"name":"วังน้อย","zipcode":"13170"},{"name":"วังจุฬา","zipcode":"13170"},{"name":"ลำตาเสา","zipcode":"13170"},{"name":"พยอม","zipcode":"13170"},{"name":"ลำไทร","zipcode":"13170"},{"name":"ข้าวงาม","zipcode":"13170"}]},{"name":"อุทัย","subdistricts":[{"name":"เสนา","zipcode":"13210"},{"name":"หนองไม้ซุง","zipcode":"13210"},{"name":"ธนู","zipcode":"13210"},{"name":"สามบัณฑิต","zipcode":"13210"},{"name":"หนองน้ำส้ม","zipcode":"13210"},{"name":"คานหาม","zipcode":"13210"},{"name":"อุทัย","zipcode":"13210"},{"name":"ข้าวเม่า","zipcode":"13210"},{"name":"บ้านหีบ","zipcode":"13210"},{"name":"โพสาวหาญ","zipcode":"13210"},{"name":"บ้านช้าง","zipcode":"13210"}]},{"name":"เสนา","subdistricts":[{"name":"บ้านแถว","zipcode":"13110"},{"name":"สามกอ","zipcode":"13110"},{"name":"บ้านหลวง","zipcode":"13110"},{"name":"รางจรเข้","zipcode":"13110"},{"name":"บ้านแพน","zipcode":"13110"},{"name":"ลาดงา","zipcode":"13110"},{"name":"มารวิชัย","zipcode":"13110"},{"name":"ชายนา","zipcode":"13110"},{"name":"บางนมโค","zipcode":"13110"},{"name":"เจ้าเสด็จ","zipcode":"13110"},{"name":"บ้านกระทุ่ม","zipcode":"13110"},{"name":"เจ้าเจ็ด","zipcode":"13110"},{"name":"ดอนทอง","zipcode":"13110"},{"name":"บ้านโพธิ์","zipcode":"13110"},{"name":"เสนา","zipcode":"13110"},{"name":"สามตุ่ม","zipcode":"13110"},{"name":"หัวเวียง","zipcode":"13110"}]}]}
