{"province_id":50,"province_name":"ตาก","districts":[{"name":"ท่าสองยาง","subdistricts":[{"name":"แม่หละ","zipcode":"63150"},{"name":"แม่ต้าน","zipcode":"63150"},{"name":"แม่วะหลวง","zipcode":"63150"},{"name":"แม่สอง","zipcode":"63150"},{"name":"ท่าสองยาง","zipcode":"63150"},{"name":"แม่อุสุ","zipcode":"63150"}]},{"name":"บ้านตาก","subdistricts":[{"name":"ตากตก","zipcode":"63120"},{"name":"สมอโคน","zipcode":"63120"},{"name":"ท้องฟ้า","zipcode":"63120"},{"name":"เกาะตะเภา","zipcode":"63120"},{"name":"แม่สลิด","zipcode":"63120"},{"name":"ตากออก","zipcode":"63120"},{"name":"ทุ่งกระเชาะ","zipcode":"63120"}]},{"name":"พบพระ","subdistricts":[{"name":"รวมไทยพัฒนา","zipcode":"63160"},{"name":"คีรีราษฎร์","zipcode":"63160"},{"name":"พบพระ","zipcode":"63160"},{"name":"วาเล่ย์","zipcode":"63160"},{"name":"ช่องแคบ","zipcode":"63160"}]},{"name":"วังเจ้า","subdistricts":[{"name":"ประดาง","zipcode":"63000"},{"name":"เชียงทอง","zipcode":"63000"},{"name":"นาโบสถ์","zipcode":"63000"}]},{"name":"สามเงา","subdistricts":[{"name":"วังหมัน","zipcode":"63130"},{"name":"บ้านนา","zipcode":"63130"},{"name":"ยกกระบัตร","zipcode":"63130"},{"name":"สามเงา","zipcode":"63130"},{"name":"วังจันทร์","zipcode":"63130"},{"name":"ย่านรี","zipcode":"63130"}]},{"name":"อุ้มผาง","subdistricts":[{"name":"หนองหลวง","zipcode":"63170"},{"name":"แม่ละมุ้ง","zipcode":"63170"},{"name":"โมโกร","zipcode":"63170"},{"name":"อุ้มผาง","zipcode":"63170"},{"name":"แม่กลอง","zipcode":"63170"},{"name":"แม่จัน","zipcode":"63170"}]},{"name":"เมืองตาก","subdistricts":[{"name":"ป่ามะม่วง","zipcode":"63000"},{"name":"หัวเดียด","zipcode":"63000"},{"name":"วังหิน","zipcode":"63000"},{"name":"หนองหลวง","zipcode":"63000"},{"name":"ตลุกกลางทุ่ง","zipcode":"63000"},{"name":"โป่งแดง","zipcode":"63000"},{"name":"หนองบัวใต้","zipcode":"63000"},{"name":"หนองบัวเหนือ","zipcode":"63000"},{"name":"แม่ท้อ","zipcode":"63000"},{"name":"เชียงเงิน","zipcode":"63000"},{"name":"น้ำรึม","zipcode":"63000"},{"name":"ระแหง","zipcode":"63000"},{"name":"วังประจบ","zipcode":"63000"},{"name":"ไม้งาม","zipcode":"63000"}]},{"name":"แม่ระมาด","subdistricts":[{"name":"ขะเนจื้อ","zipcode":"63140"},{"name":"แม่ระมาด","zipcode":"63140"},{"name":"พระธาตุ","zipcode":"63140"},{"name":"แม่ตื่น","zipcode":"63140"},{"name":"แม่จะเรา","zipcode":"63140"},{"name":"สามหมื่น","zipcode":"63140"}]},{"name":"แม่สอด","subdistricts":[{"name":"แม่กาษา","zipcode":"63110"},{"name":"พระธาตุผาแดง","zipcode":"63110"},{"name":"พะวอ","zipcode":"63110"},{"name":"มหาวัน","zipcode":"63110"},{"name":"แม่สอด","zipcode":"63110"},{"name":"ท่าสายลวด","zipcode":"63110"},{"name":"แม่ตาว","zipcode":"63110"},{"name":"ด่านแม่ละเมา","zipcode":"63110"},{"name":"แม่กุ","zipcode":"63110"},{"name":"แม่ปะ","zipcode":"63110"}]}]}
