{"province_id":51,"province_name":"สุโขทัย","districts":[{"name":"กงไกรลาศ","subdistricts":[{"name":"บ้านใหม่สุขเกษม","zipcode":"64170"},{"name":"ไกรกลาง","zipcode":"64170"},{"name":"ท่าฉนวน","zipcode":"64170"},{"name":"บ้านกร่าง","zipcode":"64170"},{"name":"ป่าแฝก","zipcode":"64170"},{"name":"ไกรใน","zipcode":"64170"},{"name":"หนองตูม","zipcode":"64170"},{"name":"ไกรนอก","zipcode":"64170"},{"name":"กกแรต","zipcode":"64170"},{"name":"กง","zipcode":"64170"},{"name":"ดงเดือย","zipcode":"64170"}]},{"name":"คีรีมาศ","subdistricts":[{"name":"บ้านน้ำพุ","zipcode":"64160"},{"name":"ทุ่งหลวง","zipcode":"64160"},{"name":"นาเชิงคีรี","zipcode":"64160"},{"name":"ศรีคีรีมาศ","zipcode":"64160"},{"name":"ทุ่งยางเมือง","zipcode":"64160"},{"name":"บ้านป้อม","zipcode":"64160"},{"name":"หนองกระดิ่ง","zipcode":"64160"},{"name":"โตนด","zipcode":"64160"},{"name":"หนองจิก","zipcode":"64160"},{"name":"สามพวง","zipcode":"64160"}]},{"name":"ทุ่งเสลี่ยม","subdistricts":[{"name":"ไทยชนะศึก","zipcode":"64150"},{"name":"เขาแก้วศรีสมบูรณ์","zipcode":"64230"},{"name":"ทุ่งเสลี่ยม","zipcode":"64150"},{"name":"บ้านใหม่ไชยมงคล","zipcode":"64230"},{"name":"กลางดง","zipcode":"64150"}]},{"name":"บ้านด่านลานหอย","subdistricts":[{"name":"บ้านด่าน","zipcode":"64140"},{"name":"วังลึก","zipcode":"64140"},{"name":"ตลิ่งชัน","zipcode":"64140"},{"name":"วังตะคร้อ","zipcode":"64140"},{"name":"ลานหอย","zipcode":"64140"},{"name":"หนองหญ้าปล้อง","zipcode":"64140"},{"name":"วังน้ำขาว","zipcode":"64140"}]},{"name":"ศรีนคร","subdistricts":[{"name":"หนองบัว","zipcode":"64180"},{"name":"น้ำขุม","zipcode":"64180"},{"name":"ศรีนคร","zipcode":"64180"},{"name":"คลองมะพลับ","zipcode":"64180"},{"name":"นครเดิฐ","zipcode":"64180"}]},{"name":"ศรีสัชนาลัย","subdistricts":[{"name":"ท่าชัย","zipcode":"64190"},{"name":"บ้านตึก","zipcode":"64130"},{"name":"บ้านแก่ง","zipcode":"64130"},{"name":"แม่สำ","zipcode":"64130"},{"name":"ศรีสัชนาลัย","zipcode":"64190"},{"name":"หาดเสี้ยว","zipcode":"64130"},{"name":"หนองอ้อ","zipcode":"64130"},{"name":"สารจิตร","zipcode":"64130"},{"name":"แม่สิน","zipcode":"64130"},{"name":"ดงคู่","zipcode":"64130"},{"name":"ป่างิ้ว","zipcode":"64130"}]},{"name":"ศรีสำโรง","subdistricts":[{"name":"วัดเกาะ","zipcode":"64120"},{"name":"คลองตาล","zipcode":"64120"},{"name":"ราวต้นจันทร์","zipcode":"64120"},{"name":"นาขุนไกร","zipcode":"64120"},{"name":"บ้านซ่าน","zipcode":"64120"},{"name":"บ้านนา","zipcode":"64120"},{"name":"บ้านไร่","zipcode":"64120"},{"name":"วังลึก","zipcode":"64120"},{"name":"เกาะตาเลี้ยง","zipcode":"64120"},{"name":"วังใหญ่","zipcode":"64120"},{"name":"วังทอง","zipcode":"64120"},{"name":"ทับผึ้ง","zipcode":"64120"},{"name":"สามเรือน","zipcode":"64120"}]},{"name":"สวรรคโลก","subdistricts":[{"name":"เมืองบางยม","zipcode":"64110"},{"name":"ในเมือง","zipcode":"64110"},{"name":"หนองกลับ","zipcode":"64110"},{"name":"นาทุ่ง","zipcode":"64110"},{"name":"ป่ากุมเกาะ","zipcode":"64110"},{"name":"วังไม้ขอน","zipcode":"64110"},{"name":"ท่าทอง","zipcode":"64110"},{"name":"คลองกระจง","zipcode":"64110"},{"name":"คลองยาง","zipcode":"64110"},{"name":"เมืองสวรรคโลก","zipcode":"64110"},{"name":"เมืองบางขลัง","zipcode":"64110"},{"name":"ย่านยาว","zipcode":"64110"},{"name":"ปากน้ำ","zipcode":"64110"},{"name":"วังพิณพาทย์","zipcode":"64110"}]},{"name":"เมืองสุโขทัย","subdistricts":[{"name":"บ้านหลุม","zipcode":"64000"},{"name":"ยางซ้าย","zipcode":"64000"},{"name":"วังทองแดง","zipcode":"64210"},{"name":"เมืองเก่า","zipcode":"64210"},{"name":"ตาลเตี้ย","zipcode":"64220"},{"name":"ธานี","zipcode":"64000"},{"name":"บ้านกล้วย","zipcode":"64000"},{"name":"ปากแคว","zipcode":"64000"},{"name":"ปากพระ","zipcode":"64000"},{"name":"บ้านสวน","zipcode":"64220"}]}]}
