{"province_id":52,"province_name":"พิษณุโลก","districts":[{"name":"ชาติตระการ","subdistricts":[{"name":"บ้านดง","zipcode":"65170"},{"name":"ชาติตระการ","zipcode":"65170"},{"name":"บ่อภาค","zipcode":"65170"},{"name":"สวนเมี่ยง","zipcode":"65170"},{"name":"ป่าแดง","zipcode":"65170"},{"name":"ท่าสะแก","zipcode":"65170"}]},{"name":"นครไทย","subdistricts":[{"name":"บ้านแยง","zipcode":"65120"},{"name":"ยางโกลน","zipcode":"65120"},{"name":"นครไทย","zipcode":"65120"},{"name":"นครชุม","zipcode":"65120"},{"name":"ห้วยเฮี้ย","zipcode":"65120"},{"name":"เนินเพิ่ม","zipcode":"65120"},{"name":"บ่อโพธิ์","zipcode":"65120"},{"name":"หนองกะท้าว","zipcode":"65120"},{"name":"น้ำกุ่ม","zipcode":"65120"},{"name":"นาบัว","zipcode":"65120"},{"name":"บ้านพร้าว","zipcode":"65120"}]},{"name":"บางกระทุ่ม","subdistricts":[{"name":"บางกระทุ่ม","zipcode":"65110"},{"name":"ไผ่ล้อม","zipcode":"65110"},{"name":"สนามคลี","zipcode":"65110"},{"name":"วัดตายม","zipcode":"65210"},{"name":"บ้านไร่","zipcode":"65110"},{"name":"นครป่าหมาก","zipcode":"65110"},{"name":"ท่าตาล","zipcode":"65110"},{"name":"โคกสลุด","zipcode":"65110"},{"name":"เนินกุ่ม","zipcode":"65210"}]},{"name":"บางระกำ","subdistricts":[{"name":"บึงกอก","zipcode":"65140"},{"name":"ท่านางงาม","zipcode":"65140"},{"name":"พันเสา","zipcode":"65140"},{"name":"นิคมพัฒนา","zipcode":"65140"},{"name":"บางระกำ","zipcode":"65140"},{"name":"หนองกุลา","zipcode":"65140"},{"name":"คุยม่วง","zipcode":"65240"},{"name":"วังอิทก","zipcode":"65140"},{"name":"บ่อทอง","zipcode":"65140"},{"name":"ปลักแรด","zipcode":"65140"},{"name":"ชุมแสงสงคราม","zipcode":"65240"}]},{"name":"พรหมพิราม","subdistricts":[{"name":"ทับยายเชียง","zipcode":"65150"},{"name":"มะตูม","zipcode":"65150"},{"name":"หนองแขม","zipcode":"65150"},{"name":"ท่าช้าง","zipcode":"65150"},{"name":"ตลุกเทียม","zipcode":"65180"},{"name":"ดงประคำ","zipcode":"65180"},{"name":"หอกลอง","zipcode":"65150"},{"name":"มะต้อง","zipcode":"65180"},{"name":"วงฆ้อง","zipcode":"65180"},{"name":"วังวน","zipcode":"65150"},{"name":"พรหมพิราม","zipcode":"65150"},{"name":"ศรีภิรมย์","zipcode":"65180"}]},{"name":"วังทอง","subdistricts":[{"name":"วังพิกุล","zipcode":"65130"},{"name":"ชัยนาม","zipcode":"65130"},{"name":"แม่ระกา","zipcode":"65130"},{"name":"วังนกแอ่น","zipcode":"65130"},{"name":"วังทอง","zipcode":"65130"},{"name":"แก่งโสภา","zipcode":"65220"},{"name":"ดินทอง","zipcode":"65130"},{"name":"บ้านกลาง","zipcode":"65220"},{"name":"หนองพระ","zipcode":"65130"},{"name":"พันชาลี","zipcode":"65130"},{"name":"ท่าหมื่นราม","zipcode":"65130"}]},{"name":"วัดโบสถ์","subdistricts":[{"name":"คันโช้ง","zipcode":"65160"},{"name":"บ้านยาง","zipcode":"65160"},{"name":"ท่างาม","zipcode":"65160"},{"name":"หินลาด","zipcode":"65160"},{"name":"ท้อแท้","zipcode":"65160"},{"name":"วัดโบสถ์","zipcode":"65160"}]},{"name":"เนินมะปราง","subdistricts":[{"name":"โคกแหลม","zipcode":"65190"},{"name":"ชมพู","zipcode":"65190"},{"name":"เนินมะปราง","zipcode":"65190"},{"name":"วังโพรง","zipcode":"65190"},{"name":"บ้านมุง","zipcode":"65190"},{"name":"วังยาง","zipcode":"65190"},{"name":"บ้านน้อยซุ้มขี้เหล็ก","zipcode":"65190"},{"name":"ไทรย้อย","zipcode":"65190"}]},{"name":"เมืองพิษณุโลก","subdistricts":[{"name":"วัดพริก","zipcode":"65230"},{"name":"มะขามสูง","zipcode":"65000"},{"name":"บ้านป่า","zipcode":"65000"},{"name":"วังน้ำคู้","zipcode":"65230"},{"name":"บ้านคลอง","zipcode":"65000"},{"name":"สมอแข","zipcode":"65000"},{"name":"ไผ่ขอดอน","zipcode":"65000"},{"name":"จอมทอง","zipcode":"65000"},{"name":"ท่าทอง","zipcode":"65000"},{"name":"อรัญญิก","zipcode":"65000"},{"name":"ปากโทก","zipcode":"65000"},{"name":"วัดจันทร์","zipcode":"65000"},{"name":"พลายชุมพล","zipcode":"65000"},{"name":"ดอนทอง","zipcode":"65000"},{"name":"ในเมือง","zipcode":"65000"},{"name":"งิ้วงาม","zipcode":"65230"},{"name":"บ้านกร่าง","zipcode":"65000"},{"name":"ท่าโพธิ์","zipcode":"65000"},{"name":"บึงพระ","zipcode":"65000"},{"name":"หัวรอ","zipcode":"65000"}]}]}
