{"province_id":53,"province_name":"พิจิตร","districts":[{"name":"ดงเจริญ","subdistricts":[{"name":"ห้วยร่วม","zipcode":"66210"},{"name":"วังงิ้วใต้","zipcode":"66210"},{"name":"ห้วยพุก","zipcode":"66210"},{"name":"วังงิ้ว","zipcode":"66210"},{"name":"สำนักขุนเณร","zipcode":"66210"}]},{"name":"ตะพานหิน","subdistricts":[{"name":"วังหลุม","zipcode":"66150"},{"name":"ไทรโรงโขน","zipcode":"66110"},{"name":"วังสำโรง","zipcode":"66110"},{"name":"งิ้วราย","zipcode":"66110"},{"name":"ดงตะขบ","zipcode":"66110"},{"name":"ทับหมัน","zipcode":"66110"},{"name":"หนองพยอม","zipcode":"66110"},{"name":"วังหว้า","zipcode":"66110"},{"name":"ห้วยเกตุ","zipcode":"66110"},{"name":"คลองคูณ","zipcode":"66110"},{"name":"ตะพานหิน","zipcode":"66110"},{"name":"ไผ่หลวง","zipcode":"66110"},{"name":"ทุ่งโพธิ์","zipcode":"66150"}]},{"name":"ทับคล้อ","subdistricts":[{"name":"เขาเจ็ดลูก","zipcode":"66230"},{"name":"ทับคล้อ","zipcode":"66150"},{"name":"ท้ายทุ่ง","zipcode":"66150"},{"name":"เขาทราย","zipcode":"66230"}]},{"name":"บางมูลนาก","subdistricts":[{"name":"วังสำโรง","zipcode":"66120"},{"name":"ลำประดา","zipcode":"66120"},{"name":"หอไกร","zipcode":"66120"},{"name":"ห้วยเขน","zipcode":"66120"},{"name":"บางมูลนาก","zipcode":"66120"},{"name":"ภูมิ","zipcode":"66120"},{"name":"เนินมะกอก","zipcode":"66120"},{"name":"วังตะกู","zipcode":"66210"},{"name":"บางไผ่","zipcode":"66120"},{"name":"วังกรด","zipcode":"66120"}]},{"name":"บึงนาราง","subdistricts":[{"name":"ห้วยแก้ว","zipcode":"66130"},{"name":"บางลาย","zipcode":"66130"},{"name":"โพธิ์ไทรงาม","zipcode":"66130"},{"name":"บึงนาราง","zipcode":"66130"},{"name":"แหลมรัง","zipcode":"66130"}]},{"name":"วชิรบารมี","subdistricts":[{"name":"วังโมกข์","zipcode":"66140"},{"name":"บ้านนา","zipcode":"66140"},{"name":"หนองหลุม","zipcode":"66220"},{"name":"บึงบัว","zipcode":"66140"}]},{"name":"วังทรายพูน","subdistricts":[{"name":"หนองพระ","zipcode":"66180"},{"name":"วังทรายพูน","zipcode":"66180"},{"name":"หนองปล้อง","zipcode":"66180"},{"name":"หนองปลาไหล","zipcode":"66180"}]},{"name":"สากเหล็ก","subdistricts":[{"name":"สากเหล็ก","zipcode":"66160"},{"name":"หนองหญ้าไทร","zipcode":"66160"},{"name":"ท่าเยี่ยม","zipcode":"66160"},{"name":"วังทับไทร","zipcode":"66160"},{"name":"คลองทราย","zipcode":"66160"}]},{"name":"สามง่าม","subdistricts":[{"name":"รังนก","zipcode":"66140"},{"name":"สามง่าม","zipcode":"66140"},{"name":"เนินปอ","zipcode":"66140"},{"name":"กำแพงดิน","zipcode":"66140"},{"name":"หนองโสน","zipcode":"66140"}]},{"name":"เมืองพิจิตร","subdistricts":[{"name":"โรงช้าง","zipcode":"66000"},{"name":"ดงป่าคำ","zipcode":"66170"},{"name":"ปากทาง","zipcode":"66000"},{"name":"บ้านบุ่ง","zipcode":"66000"},{"name":"ย่านยาว","zipcode":"66000"},{"name":"สายคำโห้","zipcode":"66000"},{"name":"เมืองเก่า","zipcode":"66000"},{"name":"ในเมือง","zipcode":"66000"},{"name":"หัวดง","zipcode":"66170"},{"name":"คลองคะเชนทร์","zipcode":"66000"},{"name":"ฆะมัง","zipcode":"66000"},{"name":"ท่าฬ่อ","zipcode":"66000"},{"name":"ดงกลาง","zipcode":"66170"},{"name":"ท่าหลวง","zipcode":"66000"},{"name":"ไผ่ขวาง","zipcode":"66000"},{"name":"ป่ามะคาบ","zipcode":"66000"}]},{"name":"โพทะเล","subdistricts":[{"name":"ท่าเสา","zipcode":"66130"},{"name":"ทุ่งน้อย","zipcode":"66130"},{"name":"บ้านน้อย","zipcode":"66130"},{"name":"ทะนง","zipcode":"66130"},{"name":"บางคลาน","zipcode":"66130"},{"name":"โพทะเล","zipcode":"66130"},{"name":"ท่าขมิ้น","zipcode":"66130"},{"name":"วัดขวาง","zipcode":"66130"},{"name":"ท่าบัว","zipcode":"66130"},{"name":"ท่านั่ง","zipcode":"66130"},{"name":"ท้ายน้ำ","zipcode":"66130"}]},{"name":"โพธิ์ประทับช้าง","subdistricts":[{"name":"เนินสว่าง","zipcode":"66190"},{"name":"ไผ่รอบ","zipcode":"66190"},{"name":"ไผ่ท่าโพ","zipcode":"66190"},{"name":"ทุ่งใหญ่","zipcode":"66190"},{"name":"ดงเสือเหลือง","zipcode":"66190"},{"name":"วังจิก","zipcode":"66190"},{"name":"โพธิ์ประทับช้าง","zipcode":"66190"}]}]}
