{"province_id":54,"province_name":"เพชรบูรณ์","districts":[{"name":"ชนแดน","subdistricts":[{"name":"ท่าข้าม","zipcode":"67150"},{"name":"ตะกุดไร","zipcode":"67190"},{"name":"ชนแดน","zipcode":"67150"},{"name":"บ้านกล้วย","zipcode":"67190"},{"name":"พุทธบาท","zipcode":"67150"},{"name":"ศาลาลาย","zipcode":"67150"},{"name":"ดงขุย","zipcode":"67190"},{"name":"ซับพุทรา","zipcode":"67150"},{"name":"ลาดแค","zipcode":"67150"}]},{"name":"น้ำหนาว","subdistricts":[{"name":"หลักด่าน","zipcode":"67260"},{"name":"วังกวาง","zipcode":"67260"},{"name":"น้ำหนาว","zipcode":"67260"},{"name":"โคกมน","zipcode":"67260"}]},{"name":"บึงสามพัน","subdistricts":[{"name":"พญาวัง","zipcode":"67160"},{"name":"กันจุ","zipcode":"67160"},{"name":"บึงสามพัน","zipcode":"67160"},{"name":"ซับไม้แดง","zipcode":"67160"},{"name":"ศรีมงคล","zipcode":"67160"},{"name":"วังพิกุล","zipcode":"67230"},{"name":"หนองแจง","zipcode":"67160"},{"name":"สระแก้ว","zipcode":"67160"},{"name":"ซับสมอทอด","zipcode":"67160"}]},{"name":"วังโป่ง","subdistricts":[{"name":"วังศาล","zipcode":"67240"},{"name":"ซับเปิบ","zipcode":"67240"},{"name":"วังโป่ง","zipcode":"67240"},{"name":"วังหิน","zipcode":"67240"},{"name":"ท้ายดง","zipcode":"67240"}]},{"name":"วิเชียรบุรี","subdistricts":[{"name":"พุเตย","zipcode":"67180"},{"name":"วังใหญ่","zipcode":"67180"},{"name":"น้ำร้อน","zipcode":"67130"},{"name":"ซับสมบูรณ์","zipcode":"67180"},{"name":"สามแยก","zipcode":"67130"},{"name":"พุขาม","zipcode":"67180"},{"name":"ท่าโรง","zipcode":"67130"},{"name":"ยางสาว","zipcode":"67130"},{"name":"บ่อรัง","zipcode":"67130"},{"name":"บึงกระจับ","zipcode":"67130"},{"name":"โคกปรง","zipcode":"67130"},{"name":"ภูน้ำหยด","zipcode":"67180"},{"name":"สระประดู่","zipcode":"67130"},{"name":"ซับน้อย","zipcode":"67180"}]},{"name":"ศรีเทพ","subdistricts":[{"name":"โคกสะอาด","zipcode":"67170"},{"name":"คลองกระจัง","zipcode":"67170"},{"name":"ศรีเทพ","zipcode":"67170"},{"name":"หนองย่างทอย","zipcode":"67170"},{"name":"นาสนุ่น","zipcode":"67170"},{"name":"สระกรวด","zipcode":"67170"},{"name":"ประดู่งาม","zipcode":"67170"}]},{"name":"หนองไผ่","subdistricts":[{"name":"ยางงาม","zipcode":"67220"},{"name":"เพชรละคร","zipcode":"67140"},{"name":"หนองไผ่","zipcode":"67140"},{"name":"บ้านโภชน์","zipcode":"67140"},{"name":"วังท่าดี","zipcode":"67140"},{"name":"กองทูล","zipcode":"67140"},{"name":"ท่าด้วง","zipcode":"67140"},{"name":"บ่อไทย","zipcode":"67140"},{"name":"วังโบสถ์","zipcode":"67140"},{"name":"ท่าแดง","zipcode":"67140"},{"name":"บัววัฒนา","zipcode":"67140"},{"name":"นาเฉลียง","zipcode":"67220"},{"name":"ห้วยโป่ง","zipcode":"67220"}]},{"name":"หล่มสัก","subdistricts":[{"name":"ช้างตะลูด","zipcode":"67110"},{"name":"ปากช่อง","zipcode":"67110"},{"name":"น้ำเฮี้ย","zipcode":"67110"},{"name":"บุ่งน้ำเต้า","zipcode":"67110"},{"name":"ห้วยไร่","zipcode":"67110"},{"name":"ฝายนาแซง","zipcode":"67110"},{"name":"บ้านหวาย","zipcode":"67110"},{"name":"ลานบ่า","zipcode":"67110"},{"name":"บ้านโสก","zipcode":"67110"},{"name":"วัดป่า","zipcode":"67110"},{"name":"บ้านไร่","zipcode":"67110"},{"name":"น้ำชุน","zipcode":"67110"},{"name":"สักหลง","zipcode":"67110"},{"name":"บ้านกลาง","zipcode":"67110"},{"name":"น้ำก้อ","zipcode":"67110"},{"name":"หนองสว่าง","zipcode":"67110"},{"name":"บุ่งคล้า","zipcode":"67110"},{"name":"บ้านติ้ว","zipcode":"67110"},{"name":"ตาลเดี่ยว","zipcode":"67110"},{"name":"ปากดุก","zipcode":"67110"},{"name":"หนองไขว่","zipcode":"67110"},{"name":"ท่าอิบุญ","zipcode":"67110"},{"name":"หล่มสัก","zipcode":"67110"}]},{"name":"หล่มเก่า","subdistricts":[{"name":"ตาดกลอย","zipcode":"67120"},{"name":"นาซำ","zipcode":"67120"},{"name":"วังบาล","zipcode":"67120"},{"name":"ศิลา","zipcode":"67120"},{"name":"หินฮาว","zipcode":"67120"},{"name":"นาเกาะ","zipcode":"67120"},{"name":"หล่มเก่า","zipcode":"67120"},{"name":"นาแซง","zipcode":"67120"},{"name":"บ้านเนิน","zipcode":"67120"}]},{"name":"เขาค้อ","subdistricts":[{"name":"เข็กน้อย","zipcode":"67280"},{"name":"สะเดาะพง","zipcode":"67270"},{"name":"เขาค้อ","zipcode":"67270"},{"name":"ทุ่งสมอ","zipcode":"67270"},{"name":"หนองแม่นา","zipcode":"67270"},{"name":"ริมสีม่วง","zipcode":"67270"},{"name":"แคมป์สน","zipcode":"67280"}]},{"name":"เมืองเพชรบูรณ์","subdistricts":[{"name":"ในเมือง","zipcode":"67000"},{"name":"วังชมภู","zipcode":"67210"},{"name":"นางั่ว","zipcode":"67000"},{"name":"นาป่า","zipcode":"67000"},{"name":"สะเดียง","zipcode":"67000"},{"name":"ห้วยใหญ่","zipcode":"67000"},{"name":"บ้านโคก","zipcode":"67000"},{"name":"ตะเบาะ","zipcode":"67000"},{"name":"น้ำร้อน","zipcode":"67000"},{"name":"ท่าพล","zipcode":"67250"},{"name":"นายม","zipcode":"67210"},{"name":"ป่าเลา","zipcode":"67000"},{"name":"ระวิง","zipcode":"67210"},{"name":"ชอนไพร","zipcode":"67000"},{"name":"บ้านโตก","zipcode":"67000"},{"name":"ห้วยสะแก","zipcode":"67210"},{"name":"ดงมูลเหล็ก","zipcode":"67000"}]}]}
