{"province_id":55,"province_name":"ราชบุรี","districts":[{"name":"จอมบึง","subdistricts":[{"name":"ปากช่อง","zipcode":"70150"},{"name":"แก้มอ้น","zipcode":"70150"},{"name":"เบิกไพร","zipcode":"70150"},{"name":"จอมบึง","zipcode":"70150"},{"name":"รางบัว","zipcode":"70150"},{"name":"ด่านทับตะโก","zipcode":"70150"}]},{"name":"ดำเนินสะดวก","subdistricts":[{"name":"ดอนไผ่","zipcode":"70130"},{"name":"ดอนคลัง","zipcode":"70130"},{"name":"ท่านัด","zipcode":"70130"},{"name":"ตาหลวง","zipcode":"70130"},{"name":"แพงพวย","zipcode":"70130"},{"name":"ประสาทสิทธิ์","zipcode":"70210"},{"name":"บัวงาม","zipcode":"70210"},{"name":"ขุนพิทักษ์","zipcode":"70130"},{"name":"ดอนกรวย","zipcode":"70130"},{"name":"สี่หมื่น","zipcode":"70130"},{"name":"ศรีสุราษฎร์","zipcode":"70130"},{"name":"บ้านไร่","zipcode":"70130"},{"name":"ดำเนินสะดวก","zipcode":"70130"}]},{"name":"บางแพ","subdistricts":[{"name":"วัดแก้ว","zipcode":"70160"},{"name":"วังเย็น","zipcode":"70160"},{"name":"โพหัก","zipcode":"70160"},{"name":"ดอนใหญ่","zipcode":"70160"},{"name":"หัวโพ","zipcode":"70160"},{"name":"บางแพ","zipcode":"70160"},{"name":"ดอนคา","zipcode":"70160"}]},{"name":"บ้านคา","subdistricts":[{"name":"บ้านคา","zipcode":"70180"},{"name":"บ้านบึง","zipcode":"70180"},{"name":"หนองพันจันทร์","zipcode":"70180"}]},{"name":"บ้านโป่ง","subdistricts":[{"name":"หนองปลาหมอ","zipcode":"70110"},{"name":"หนองกบ","zipcode":"70110"},{"name":"บ้านม่วง","zipcode":"70110"},{"name":"กรับใหญ่","zipcode":"70190"},{"name":"ลาดบัวขาว","zipcode":"70110"},{"name":"สวนกล้วย","zipcode":"70110"},{"name":"บ้านโป่ง","zipcode":"70110"},{"name":"เขาขลุง","zipcode":"70110"},{"name":"หนองอ้อ","zipcode":"70110"},{"name":"คุ้งพยอม","zipcode":"70110"},{"name":"ปากแรต","zipcode":"70110"},{"name":"นครชุมน์","zipcode":"70110"},{"name":"ท่าผา","zipcode":"70110"},{"name":"เบิกไพร","zipcode":"70110"},{"name":"ดอนกระเบื้อง","zipcode":"70110"}]},{"name":"ปากท่อ","subdistricts":[{"name":"บ่อกระดาน","zipcode":"70140"},{"name":"วังมะนาว","zipcode":"70140"},{"name":"วัดยางงาม","zipcode":"70140"},{"name":"ห้วยยางโทน","zipcode":"70140"},{"name":"ปากท่อ","zipcode":"70140"},{"name":"ยางหัก","zipcode":"70140"},{"name":"ดอนทราย","zipcode":"70140"},{"name":"อ่างหิน","zipcode":"70140"},{"name":"ทุ่งหลวง","zipcode":"70140"},{"name":"ป่าไก่","zipcode":"70140"},{"name":"วันดาว","zipcode":"70140"},{"name":"หนองกระทุ่ม","zipcode":"70140"}]},{"name":"วัดเพลง","subdistricts":[{"name":"จอมประทัด","zipcode":"70170"},{"name":"วัดเพลง","zipcode":"70170"},{"name":"เกาะศาลพระ","zipcode":"70170"}]},{"name":"สวนผึ้ง","subdistricts":[{"name":"ท่าเคย","zipcode":"70180"},{"name":"สวนผึ้ง","zipcode":"70180"},{"name":"ตะนาวศรี","zipcode":"70180"},{"name":"ป่าหวาย","zipcode":"70180"}]},{"name":"เมืองราชบุรี","subdistricts":[{"name":"พงสวาย","zipcode":"70000"},{"name":"น้ำพุ","zipcode":"70000"},{"name":"ห้วยไผ่","zipcode":"70000"},{"name":"หลุมดิน","zipcode":"70000"},{"name":"สามเรือน","zipcode":"70000"},{"name":"ดอนตะโก","zipcode":"70000"},{"name":"บ้านไร่","zipcode":"70000"},{"name":"เขาแร้ง","zipcode":"70000"},{"name":"อ่างทอง","zipcode":"70000"},{"name":"หน้าเมือง","zipcode":"70000"},{"name":"คูบัว","zipcode":"70000"},{"name":"ดอนแร่","zipcode":"70000"},{"name":"คุ้งน้ำวน","zipcode":"70000"},{"name":"บางป่า","zipcode":"70000"},{"name":"พิกุลทอง","zipcode":"70000"},{"name":"หนองกลางนา","zipcode":"70000"},{"name":"เกาะพลับพลา","zipcode":"70000"},{"name":"โคกหม้อ","zipcode":"70000"},{"name":"เจดีย์หัก","zipcode":"70000"},{"name":"ท่าราบ","zipcode":"70000"},{"name":"หินกอง","zipcode":"70000"},{"name":"คุ้งกระถิน","zipcode":"70000"}]},{"name":"โพธาราม","subdistricts":[{"name":"นางแก้ว","zipcode":"70120"},{"name":"เจ็ดเสมียน","zipcode":"70120"},{"name":"ดอนกระเบื้อง","zipcode":"70120"},{"name":"บางโตนด","zipcode":"70120"},{"name":"บ้านสิงห์","zipcode":"70120"},{"name":"หนองกวาง","zipcode":"70120"},{"name":"สร้อยฟ้า","zipcode":"70120"},{"name":"คลองตาคต","zipcode":"70120"},{"name":"ธรรมเสน","zipcode":"70120"},{"name":"คลองข่อย","zipcode":"70120"},{"name":"หนองโพ","zipcode":"70120"},{"name":"เตาปูน","zipcode":"70120"},{"name":"ดอนทราย","zipcode":"70120"},{"name":"โพธาราม","zipcode":"70120"},{"name":"ท่าชุมพล","zipcode":"70120"},{"name":"บ้านฆ้อง","zipcode":"70120"},{"name":"เขาชะงุ้ม","zipcode":"70120"},{"name":"ชำแระ","zipcode":"70120"},{"name":"บ้านเลือก","zipcode":"70120"}]}]}
