{"province_id":56,"province_name":"กาญจนบุรี","districts":[{"name":"ด่านมะขามเตี้ย","subdistricts":[{"name":"ด่านมะขามเตี้ย","zipcode":"71260"},{"name":"หนองไผ่","zipcode":"71260"},{"name":"กลอนโด","zipcode":"71260"},{"name":"จรเข้เผือก","zipcode":"71260"}]},{"name":"ทองผาภูมิ","subdistricts":[{"name":"สหกรณ์นิคม","zipcode":"71180"},{"name":"ชะแล","zipcode":"71180"},{"name":"หินดาด","zipcode":"71180"},{"name":"ท่าขนุน","zipcode":"71180"},{"name":"ห้วยเขย่ง","zipcode":"71180"},{"name":"ลิ่นถิ่น","zipcode":"71180"},{"name":"ปิล๊อก","zipcode":"71180"}]},{"name":"ท่าม่วง","subdistricts":[{"name":"ม่วงชุม","zipcode":"71110"},{"name":"ท่าม่วง","zipcode":"71110"},{"name":"หนองตากยา","zipcode":"71110"},{"name":"ทุ่งทอง","zipcode":"71110"},{"name":"ท่าตะคร้อ","zipcode":"71130"},{"name":"ท่าล้อ","zipcode":"71110"},{"name":"บ้านใหม่","zipcode":"71110"},{"name":"วังขนาย","zipcode":"71110"},{"name":"เขาน้อย","zipcode":"71110"},{"name":"รางสาลี่","zipcode":"71110"},{"name":"หนองขาว","zipcode":"71110"},{"name":"พังตรุ","zipcode":"71110"},{"name":"วังศาลา","zipcode":"71110"}]},{"name":"ท่ามะกา","subdistricts":[{"name":"ท่าไม้","zipcode":"71120"},{"name":"เขาสามสิบหาบ","zipcode":"71120"},{"name":"ดอนขมิ้น","zipcode":"71120"},{"name":"ท่าเสา","zipcode":"71120"},{"name":"ยางม่วง","zipcode":"71120"},{"name":"ท่าเรือ","zipcode":"71130"},{"name":"แสนตอ","zipcode":"71130"},{"name":"ตะคร้ำเอน","zipcode":"71130"},{"name":"พระแท่น","zipcode":"71130"},{"name":"อุโลกสี่หมื่น","zipcode":"71130"},{"name":"หนองลาน","zipcode":"71130"},{"name":"ดอนชะเอม","zipcode":"71130"},{"name":"โคกตะบอง","zipcode":"71120"},{"name":"สนามแย้","zipcode":"70190"},{"name":"พงตึก","zipcode":"71120"},{"name":"ท่ามะกา","zipcode":"71120"},{"name":"หวายเหนียว","zipcode":"71120"}]},{"name":"บ่อพลอย","subdistricts":[{"name":"หลุมรัง","zipcode":"71160"},{"name":"หนองกุ่ม","zipcode":"71160"},{"name":"ช่องด่าน","zipcode":"71160"},{"name":"หนองรี","zipcode":"71220"},{"name":"บ่อพลอย","zipcode":"71160"},{"name":"หนองกร่าง","zipcode":"71220"}]},{"name":"พนมทวน","subdistricts":[{"name":"ดอนเจดีย์","zipcode":"71140"},{"name":"หนองโรง","zipcode":"71140"},{"name":"หนองสาหร่าย","zipcode":"71140"},{"name":"พังตรุ","zipcode":"71140"},{"name":"ทุ่งสมอ","zipcode":"71140"},{"name":"ดอนตาเพชร","zipcode":"71140"},{"name":"พนมทวน","zipcode":"71140"},{"name":"รางหวาย","zipcode":"71170"}]},{"name":"ศรีสวัสดิ์","subdistricts":[{"name":"หนองเป็ด","zipcode":"71250"},{"name":"นาสวน","zipcode":"71250"},{"name":"แม่กระบุง","zipcode":"71250"},{"name":"ท่ากระดาน","zipcode":"71250"},{"name":"ด่านแม่แฉลบ","zipcode":"71250"},{"name":"เขาโจด","zipcode":"71220"}]},{"name":"สังขละบุรี","subdistricts":[{"name":"ไล่โว่","zipcode":"71240"},{"name":"หนองลู","zipcode":"71240"},{"name":"ปรังเผล","zipcode":"71240"}]},{"name":"หนองปรือ","subdistricts":[{"name":"หนองปลาไหล","zipcode":"71220"},{"name":"สมเด็จเจริญ","zipcode":"71220"},{"name":"หนองปรือ","zipcode":"71220"}]},{"name":"ห้วยกระเจา","subdistricts":[{"name":"ห้วยกระเจา","zipcode":"71170"},{"name":"สระลงเรือ","zipcode":"71170"},{"name":"วังไผ่","zipcode":"71170"},{"name":"ดอนแสลบ","zipcode":"71170"}]},{"name":"เมืองกาญจนบุรี","subdistricts":[{"name":"แก่งเสี้ยน","zipcode":"71000"},{"name":"หนองหญ้า","zipcode":"71000"},{"name":"ปากแพรก","zipcode":"71000"},{"name":"วังด้ง","zipcode":"71190"},{"name":"บ้านเหนือ","zipcode":"71000"},{"name":"วังเย็น","zipcode":"71000"},{"name":"หนองบัว","zipcode":"71190"},{"name":"เกาะสำโรง","zipcode":"71000"},{"name":"ท่ามะขาม","zipcode":"71000"},{"name":"ช่องสะเดา","zipcode":"71190"},{"name":"บ้านใต้","zipcode":"71000"},{"name":"ลาดหญ้า","zipcode":"71190"},{"name":"บ้านเก่า","zipcode":"71000"}]},{"name":"เลาขวัญ","subdistricts":[{"name":"เลาขวัญ","zipcode":"71210"},{"name":"ทุ่งกระบ่ำ","zipcode":"71210"},{"name":"หนองปลิง","zipcode":"71210"},{"name":"หนองโสน","zipcode":"71210"},{"name":"หนองฝ้าย","zipcode":"71210"},{"name":"หนองนกแก้ว","zipcode":"71210"},{"name":"หนองประดู่","zipcode":"71210"}]},{"name":"ไทรโยค","subdistricts":[{"name":"ไทรโยค","zipcode":"71150"},{"name":"ท่าเสา","zipcode":"71150"},{"name":"บ้องตี้","zipcode":"71150"},{"name":"วังกระแจะ","zipcode":"71150"},{"name":"สิงห์","zipcode":"71150"},{"name":"ลุ่มสุ่ม","zipcode":"71150"},{"name":"ศรีมงคล","zipcode":"71150"}]}]}
