{"province_id":57,"province_name":"สุพรรณบุรี","districts":[{"name":"ดอนเจดีย์","subdistricts":[{"name":"หนองสาหร่าย","zipcode":"72170"},{"name":"ทะเลบก","zipcode":"72250"},{"name":"ไร่รถ","zipcode":"72170"},{"name":"ดอนเจดีย์","zipcode":"72170"},{"name":"สระกระโจม","zipcode":"72250"}]},{"name":"ด่านช้าง","subdistricts":[{"name":"หนองมะค่าโมง","zipcode":"72180"},{"name":"นิคมกระเสียว","zipcode":"72180"},{"name":"องค์พระ","zipcode":"72180"},{"name":"ด่านช้าง","zipcode":"72180"},{"name":"วังยาว","zipcode":"72180"},{"name":"วังคัน","zipcode":"72180"},{"name":"ห้วยขมิ้น","zipcode":"72180"}]},{"name":"บางปลาม้า","subdistricts":[{"name":"โคกคราม","zipcode":"72150"},{"name":"วัดโบสถ์","zipcode":"72150"},{"name":"สาลี","zipcode":"72150"},{"name":"มะขามล้ม","zipcode":"72150"},{"name":"บางใหญ่","zipcode":"72150"},{"name":"จรเข้ใหญ่","zipcode":"72150"},{"name":"บางปลาม้า","zipcode":"72150"},{"name":"วัดดาว","zipcode":"72150"},{"name":"ไผ่กองดิน","zipcode":"72150"},{"name":"วังน้ำเย็น","zipcode":"72150"},{"name":"กฤษณา","zipcode":"72150"},{"name":"บ้านแหลม","zipcode":"72150"},{"name":"ตะค่า","zipcode":"72150"},{"name":"องครักษ์","zipcode":"72150"}]},{"name":"ศรีประจันต์","subdistricts":[{"name":"ปลายนา","zipcode":"72140"},{"name":"บางงาม","zipcode":"72140"},{"name":"วังยาง","zipcode":"72140"},{"name":"บ้านกร่าง","zipcode":"72140"},{"name":"วังหว้า","zipcode":"72140"},{"name":"ดอนปรู","zipcode":"72140"},{"name":"มดแดง","zipcode":"72140"},{"name":"วังน้ำซับ","zipcode":"72140"},{"name":"ศรีประจันต์","zipcode":"72140"}]},{"name":"สองพี่น้อง","subdistricts":[{"name":"ศรีสำราญ","zipcode":"72110"},{"name":"บางตะเคียน","zipcode":"72110"},{"name":"บ้านช้าง","zipcode":"72110"},{"name":"บางเลน","zipcode":"72110"},{"name":"บ่อสุพรรณ","zipcode":"72190"},{"name":"บางพลับ","zipcode":"72110"},{"name":"ทุ่งคอก","zipcode":"72190"},{"name":"บ้านกุ่ม","zipcode":"72110"},{"name":"ต้นตาล","zipcode":"72110"},{"name":"บางตาเถร","zipcode":"72110"},{"name":"ดอนมะนาว","zipcode":"72110"},{"name":"เนินพระปรางค์","zipcode":"72110"},{"name":"สองพี่น้อง","zipcode":"72110"},{"name":"หนองบ่อ","zipcode":"72110"},{"name":"หัวโพธิ์","zipcode":"72110"}]},{"name":"สามชุก","subdistricts":[{"name":"สามชุก","zipcode":"72130"},{"name":"ย่านยาว","zipcode":"72130"},{"name":"หนองสะเดา","zipcode":"72130"},{"name":"หนองผักนาก","zipcode":"72130"},{"name":"วังลึก","zipcode":"72130"},{"name":"กระเสียว","zipcode":"72130"},{"name":"บ้านสระ","zipcode":"72130"}]},{"name":"หนองหญ้าไซ","subdistricts":[{"name":"หนองราชวัตร","zipcode":"72240"},{"name":"หนองขาม","zipcode":"72240"},{"name":"หนองโพธิ์","zipcode":"72240"},{"name":"หนองหญ้าไซ","zipcode":"72240"},{"name":"ทัพหลวง","zipcode":"72240"},{"name":"แจงงาม","zipcode":"72240"}]},{"name":"อู่ทอง","subdistricts":[{"name":"ดอนคา","zipcode":"72160"},{"name":"อู่ทอง","zipcode":"72160"},{"name":"กระจัน","zipcode":"72160"},{"name":"ดอนมะเกลือ","zipcode":"72220"},{"name":"เจดีย์","zipcode":"72160"},{"name":"บ้านดอน","zipcode":"72160"},{"name":"พลับพลาไชย","zipcode":"72160"},{"name":"สระยายโสม","zipcode":"72220"},{"name":"หนองโอ่ง","zipcode":"72160"},{"name":"สระพังลาน","zipcode":"72220"},{"name":"ยุ้งทะลาย","zipcode":"72160"},{"name":"บ้านโข้ง","zipcode":"72160"},{"name":"จรเข้สามพัน","zipcode":"72160"}]},{"name":"เดิมบางนางบวช","subdistricts":[{"name":"นางบวช","zipcode":"72120"},{"name":"หัวเขา","zipcode":"72120"},{"name":"เขาพระ","zipcode":"72120"},{"name":"ยางนอน","zipcode":"72120"},{"name":"ทุ่งคลี","zipcode":"72120"},{"name":"วังศรีราช","zipcode":"72120"},{"name":"เขาดิน","zipcode":"72120"},{"name":"หัวนา","zipcode":"72120"},{"name":"เดิมบาง","zipcode":"72120"},{"name":"หนองกระทุ่ม","zipcode":"72120"},{"name":"โคกช้าง","zipcode":"72120"},{"name":"ป่าสะแก","zipcode":"72120"},{"name":"ปากน้ำ","zipcode":"72120"},{"name":"บ่อกรุ","zipcode":"72120"}]},{"name":"เมืองสุพรรณบุรี","subdistricts":[{"name":"ศาลาขาว","zipcode":"72210"},{"name":"พิหารแดง","zipcode":"72000"},{"name":"รั้วใหญ่","zipcode":"72000"},{"name":"ตลิ่งชัน","zipcode":"72230"},{"name":"ดอนตาล","zipcode":"72000"},{"name":"โพธิ์พระยา","zipcode":"72000"},{"name":"บ้านโพธิ์","zipcode":"72000"},{"name":"ไผ่ขวาง","zipcode":"72000"},{"name":"สวนแตง","zipcode":"72210"},{"name":"ดอนกำยาน","zipcode":"72000"},{"name":"ทับตีเหล็ก","zipcode":"72000"},{"name":"บางกุ้ง","zipcode":"72210"},{"name":"ดอนมะสังข์","zipcode":"72000"},{"name":"ท่าพี่เลี้ยง","zipcode":"72000"},{"name":"สนามคลี","zipcode":"72230"},{"name":"สระแก้ว","zipcode":"72230"},{"name":"โคกโคเฒ่า","zipcode":"72000"},{"name":"สนามชัย","zipcode":"72000"},{"name":"ดอนโพธิ์ทอง","zipcode":"72000"},{"name":"ท่าระหัด","zipcode":"72000"}]}]}
