{"province_id":58,"province_name":"นครปฐม","districts":[{"name":"กำแพงแสน","subdistricts":[{"name":"ห้วยขวาง","zipcode":"73140"},{"name":"สระพัฒนา","zipcode":"73180"},{"name":"กระตีบ","zipcode":"73180"},{"name":"หนองกระทุ่ม","zipcode":"73140"},{"name":"ทุ่งบัว","zipcode":"73140"},{"name":"กำแพงแสน","zipcode":"73140"},{"name":"ทุ่งขวาง","zipcode":"73140"},{"name":"ห้วยหมอนทอง","zipcode":"73140"},{"name":"ทุ่งลูกนก","zipcode":"73140"},{"name":"วังน้ำเขียว","zipcode":"73140"},{"name":"ดอนข่อย","zipcode":"73140"},{"name":"ทุ่งกระพังโหม","zipcode":"73140"},{"name":"รางพิกุล","zipcode":"73140"},{"name":"สระสี่มุม","zipcode":"73140"},{"name":"ห้วยม่วง","zipcode":"73180"}]},{"name":"ดอนตูม","subdistricts":[{"name":"ลำเหย","zipcode":"73150"},{"name":"ลำลูกบัว","zipcode":"73150"},{"name":"สามง่าม","zipcode":"73150"},{"name":"ดอนรวก","zipcode":"73150"},{"name":"ดอนพุทรา","zipcode":"73150"},{"name":"ห้วยพระ","zipcode":"73150"},{"name":"ห้วยด้วน","zipcode":"73150"},{"name":"บ้านหลวง","zipcode":"73150"}]},{"name":"นครชัยศรี","subdistricts":[{"name":"ท่าพระยา","zipcode":"73120"},{"name":"นครชัยศรี","zipcode":"73120"},{"name":"บางพระ","zipcode":"73120"},{"name":"แหลมบัว","zipcode":"73120"},{"name":"ท่ากระชับ","zipcode":"73120"},{"name":"ห้วยพลู","zipcode":"73120"},{"name":"โคกพระเจดีย์","zipcode":"73120"},{"name":"ท่าตำหนัก","zipcode":"73120"},{"name":"งิ้วราย","zipcode":"73120"},{"name":"วัดสำโรง","zipcode":"73120"},{"name":"พะเนียด","zipcode":"73120"},{"name":"บางกระเบา","zipcode":"73120"},{"name":"บางแก้วฟ้า","zipcode":"73120"},{"name":"ศรีมหาโพธิ์","zipcode":"73120"},{"name":"ขุนแก้ว","zipcode":"73120"},{"name":"วัดละมุด","zipcode":"73120"},{"name":"ศรีษะทอง","zipcode":"73120"},{"name":"บางแก้ว","zipcode":"73120"},{"name":"ไทยาวาส","zipcode":"73120"},{"name":"ดอนแฝก","zipcode":"73120"},{"name":"บางระกำ","zipcode":"73120"},{"name":"วัดแค","zipcode":"73120"},{"name":"ลานตากฟ้า","zipcode":"73120"},{"name":"สัมปทวน","zipcode":"73120"}]},{"name":"บางเลน","subdistricts":[{"name":"ลำพญา","zipcode":"73130"},{"name":"หินมูล","zipcode":"73190"},{"name":"คลองนกกระทุง","zipcode":"73130"},{"name":"บางระกำ","zipcode":"73130"},{"name":"นิลเพชร","zipcode":"73130"},{"name":"บางหลวง","zipcode":"73190"},{"name":"ไผ่หูช้าง","zipcode":"73130"},{"name":"ไทรงาม","zipcode":"73130"},{"name":"บางเลน","zipcode":"73130"},{"name":"นราภิรมย์","zipcode":"73130"},{"name":"บางไทรป่า","zipcode":"73130"},{"name":"บัวปากท่า","zipcode":"73130"},{"name":"บางภาษี","zipcode":"73130"},{"name":"ดอนตูม","zipcode":"73130"},{"name":"บางปลา","zipcode":"73130"}]},{"name":"พุทธมณฑล","subdistricts":[{"name":"คลองโยง","zipcode":"73170"},{"name":"มหาสวัสดิ์","zipcode":"73170"},{"name":"ศาลายา","zipcode":"73170"}]},{"name":"สามพราน","subdistricts":[{"name":"สามพราน","zipcode":"73110"},{"name":"คลองใหม่","zipcode":"73110"},{"name":"บางกระทึก","zipcode":"73210"},{"name":"อ้อมใหญ่","zipcode":"73160"},{"name":"ท่าตลาด","zipcode":"73110"},{"name":"ทรงคนอง","zipcode":"73210"},{"name":"ยายชา","zipcode":"73110"},{"name":"บางช้าง","zipcode":"73110"},{"name":"ตลาดจินดา","zipcode":"73110"},{"name":"บางเตย","zipcode":"73210"},{"name":"กระทุ่มล้ม","zipcode":"73220"},{"name":"หอมเกร็ด","zipcode":"73110"},{"name":"บ้านใหม่","zipcode":"73110"},{"name":"ไร่ขิง","zipcode":"73210"},{"name":"ท่าข้าม","zipcode":"73110"},{"name":"คลองจินดา","zipcode":"73110"}]},{"name":"เมืองนครปฐม","subdistricts":[{"name":"ทุ่งน้อย","zipcode":"73000"},{"name":"ดอนยายหอม","zipcode":"73000"},{"name":"พระปฐมเจดีย์","zipcode":"73000"},{"name":"สระกะเทียม","zipcode":"73000"},{"name":"หนองปากโลง","zipcode":"73000"},{"name":"มาบแค","zipcode":"73000"},{"name":"โพรงมะเดื่อ","zipcode":"73000"},{"name":"บ้านยาง","zipcode":"73000"},{"name":"นครปฐม","zipcode":"73000"},{"name":"ธรรมศาลา","zipcode":"73000"},{"name":"หนองดินแดง","zipcode":"73000"},{"name":"ทัพหลวง","zipcode":"73000"},{"name":"ถนนขาด","zipcode":"73000"},{"name":"บางแขม","zipcode":"73000"},{"name":"สวนป่าน","zipcode":"73000"},{"name":"สามควายเผือก","zipcode":"73000"},{"name":"สนามจันทร์","zipcode":"73000"},{"name":"ลำพยา","zipcode":"73000"},{"name":"วังตะกู","zipcode":"73000"},{"name":"ตาก้อง","zipcode":"73000"},{"name":"วังเย็น","zipcode":"73000"},{"name":"หนองงูเหลือม","zipcode":"73000"},{"name":"บ่อพลับ","zipcode":"73000"},{"name":"พระประโทน","zipcode":"73000"},{"name":"ห้วยจรเข้","zipcode":"73000"}]}]}
