{"province_id":59,"province_name":"สมุทรสาคร","districts":[{"name":"กระทุ่มแบน","subdistricts":[{"name":"หนองนกไข่","zipcode":"74110"},{"name":"บางยาง","zipcode":"74110"},{"name":"ท่าเสา","zipcode":"74110"},{"name":"ท่าไม้","zipcode":"74110"},{"name":"ดอนไก่ดี","zipcode":"74110"},{"name":"ตลาดกระทุ่มแบน","zipcode":"74110"},{"name":"คลองมะเดื่อ","zipcode":"74110"},{"name":"สวนหลวง","zipcode":"74110"},{"name":"แคราย","zipcode":"74110"},{"name":"อ้อมน้อย","zipcode":"74130"}]},{"name":"บ้านแพ้ว","subdistricts":[{"name":"คลองตัน","zipcode":"74120"},{"name":"หลักสาม","zipcode":"74120"},{"name":"หลักสอง","zipcode":"74120"},{"name":"เกษตรพัฒนา","zipcode":"74120"},{"name":"หนองสองห้อง","zipcode":"74120"},{"name":"อำแพง","zipcode":"74120"},{"name":"ยกกระบัตร","zipcode":"74120"},{"name":"เจ็ดริ้ว","zipcode":"74120"},{"name":"บ้านแพ้ว","zipcode":"74120"},{"name":"หนองบัว","zipcode":"74120"},{"name":"สวนส้ม","zipcode":"74120"},{"name":"โรงเข้","zipcode":"74120"}]},{"name":"เมืองสมุทรสาคร","subdistricts":[{"name":"กาหลง","zipcode":"74000"},{"name":"ชัยมงคล","zipcode":"74000"},{"name":"คอกกระบือ","zipcode":"74000"},{"name":"บ้านบ่อ","zipcode":"74000"},{"name":"บางกระเจ้า","zipcode":"74000"},{"name":"นาดี","zipcode":"74000"},{"name":"ท่าฉลอม","zipcode":"74000"},{"name":"โคกขาม","zipcode":"74000"},{"name":"นาโคก","zipcode":"74000"},{"name":"บางน้ำจืด","zipcode":"74000"},{"name":"บางโทรัด","zipcode":"74000"},{"name":"บางหญ้าแพรก","zipcode":"74000"},{"name":"ท่าทราย","zipcode":"74000"},{"name":"โกรกกราก","zipcode":"74000"},{"name":"บ้านเกาะ","zipcode":"74000"},{"name":"ท่าจีน","zipcode":"74000"},{"name":"มหาชัย","zipcode":"74000"},{"name":"พันท้ายนรสิงห์","zipcode":"74000"}]}]}
