{"province_id":6,"province_name":"อ่างทอง","districts":[{"name":"ป่าโมก","subdistricts":[{"name":"โผงเผง","zipcode":"14130"},{"name":"บางปลากด","zipcode":"14130"},{"name":"นรสิงห์","zipcode":"14130"},{"name":"โรงช้าง","zipcode":"14130"},{"name":"ป่าโมก","zipcode":"14130"},{"name":"เอกราช","zipcode":"14130"},{"name":"บางเสด็จ","zipcode":"14130"},{"name":"สายทอง","zipcode":"14130"}]},{"name":"วิเศษชัยชาญ","subdistricts":[{"name":"สาวร้องไห้","zipcode":"14110"},{"name":"คลองขนาก","zipcode":"14110"},{"name":"ศาลเจ้าโรงทอง","zipcode":"14110"},{"name":"หลักแก้ว","zipcode":"14110"},{"name":"บางจัก","zipcode":"14110"},{"name":"ม่วงเตี้ย","zipcode":"14110"},{"name":"ท่าช้าง","zipcode":"14110"},{"name":"ไผ่วง","zipcode":"14110"},{"name":"ไผ่ดำพัฒนา","zipcode":"14110"},{"name":"ตลาดใหม่","zipcode":"14110"},{"name":"ห้วยคันแหลน","zipcode":"14110"},{"name":"ไผ่จำศิล","zipcode":"14110"},{"name":"หัวตะพาน","zipcode":"14110"},{"name":"ยี่ล้น","zipcode":"14110"},{"name":"สี่ร้อย","zipcode":"14110"}]},{"name":"สามโก้","subdistricts":[{"name":"สามโก้","zipcode":"14160"},{"name":"โพธิ์ม่วงพันธ์","zipcode":"14160"},{"name":"ราษฎรพัฒนา","zipcode":"14160"},{"name":"มงคลธรรมนิมิต","zipcode":"14160"},{"name":"อบทม","zipcode":"14160"}]},{"name":"เมืองอ่างทอง","subdistricts":[{"name":"บ้านแห","zipcode":"14000"},{"name":"จำปาหล่อ","zipcode":"14000"},{"name":"ศาลาแดง","zipcode":"14000"},{"name":"บ้านอิฐ","zipcode":"14000"},{"name":"ตลาดหลวง","zipcode":"14000"},{"name":"คลองวัว","zipcode":"14000"},{"name":"ตลาดกรวด","zipcode":"14000"},{"name":"โพสะ","zipcode":"14000"},{"name":"ป่างิ้ว","zipcode":"14000"},{"name":"หัวไผ่","zipcode":"14000"},{"name":"บางแก้ว","zipcode":"14000"},{"name":"ย่านซื่อ","zipcode":"14000"},{"name":"มหาดไทย","zipcode":"14000"},{"name":"บ้านรี","zipcode":"14000"}]},{"name":"แสวงหา","subdistricts":[{"name":"วังน้ำเย็น","zipcode":"14150"},{"name":"ศรีพราน","zipcode":"14150"},{"name":"จำลอง","zipcode":"14150"},{"name":"สีบัวทอง","zipcode":"14150"},{"name":"บ้านพราน","zipcode":"14150"},{"name":"แสวงหา","zipcode":"14150"},{"name":"ห้วยไผ่","zipcode":"14150"}]},{"name":"โพธิ์ทอง","subdistricts":[{"name":"ทางพระ","zipcode":"14120"},{"name":"รำมะสัก","zipcode":"14120"},{"name":"ยางช้าย","zipcode":"14120"},{"name":"บางพลับ","zipcode":"14120"},{"name":"คำหยาด","zipcode":"14120"},{"name":"องครักษ์","zipcode":"14120"},{"name":"อ่างแก้ว","zipcode":"14120"},{"name":"สามง่าม","zipcode":"14120"},{"name":"บางระกำ","zipcode":"14120"},{"name":"บ่อแร่","zipcode":"14120"},{"name":"หนองแม่ไก่","zipcode":"14120"},{"name":"โคกพุทรา","zipcode":"14120"},{"name":"อินทประมูล","zipcode":"14120"},{"name":"บางเจ้าฉ่า","zipcode":"14120"},{"name":"โพธิ์รังนก","zipcode":"14120"}]},{"name":"ไชโย","subdistricts":[{"name":"ชัยฤทธิ์","zipcode":"14140"},{"name":"ชะไว","zipcode":"14140"},{"name":"จรเข้ร้อง","zipcode":"14140"},{"name":"ไชโย","zipcode":"14140"},{"name":"เทวราช","zipcode":"14140"},{"name":"ไชยภูมิ","zipcode":"14140"},{"name":"ตรีณรงค์","zipcode":"14140"},{"name":"หลักฟ้า","zipcode":"14140"},{"name":"ราชสถิตย์","zipcode":"14140"}]}]}
