{"province_id":60,"province_name":"สมุทรสงคราม","districts":[{"name":"บางคนที","subdistricts":[{"name":"บางกระบือ","zipcode":"75120"},{"name":"บางคนที","zipcode":"75120"},{"name":"บางนกแขวก","zipcode":"75120"},{"name":"บางยี่รงค์","zipcode":"75120"},{"name":"บางกุ้ง","zipcode":"75120"},{"name":"กระดังงา","zipcode":"75120"},{"name":"บ้านปราโมทย์","zipcode":"75120"},{"name":"ดอนมะโนรา","zipcode":"75120"},{"name":"ยายแพง","zipcode":"75120"},{"name":"โรงหีบ","zipcode":"75120"},{"name":"จอมปลวก","zipcode":"75120"},{"name":"บางสะแก","zipcode":"75120"},{"name":"บางพรม","zipcode":"75120"}]},{"name":"อัมพวา","subdistricts":[{"name":"บางช้าง","zipcode":"75110"},{"name":"ยี่สาร","zipcode":"75110"},{"name":"วัดประดู่","zipcode":"75110"},{"name":"บางแค","zipcode":"75110"},{"name":"สวนหลวง","zipcode":"75110"},{"name":"แควอ้อม","zipcode":"75110"},{"name":"บางนางลี่","zipcode":"75110"},{"name":"เหมืองใหม่","zipcode":"75110"},{"name":"แพรกหนามแดง","zipcode":"75110"},{"name":"ท่าคา","zipcode":"75110"},{"name":"ปลายโพงพาง","zipcode":"75110"},{"name":"อัมพวา","zipcode":"75110"}]},{"name":"เมืองสมุทรสงคราม","subdistricts":[{"name":"บางจะเกร็ง","zipcode":"75000"},{"name":"บ้านปรก","zipcode":"75000"},{"name":"คลองโคน","zipcode":"75000"},{"name":"บางขันแตก","zipcode":"75000"},{"name":"แหลมใหญ่","zipcode":"75000"},{"name":"บางแก้ว","zipcode":"75000"},{"name":"นางตะเคียน","zipcode":"75000"},{"name":"ลาดใหญ่","zipcode":"75000"},{"name":"คลองเขิน","zipcode":"75000"},{"name":"แม่กลอง","zipcode":"75000"},{"name":"ท้ายหาด","zipcode":"75000"}]}]}
