{"province_id":61,"province_name":"เพชรบุรี","districts":[{"name":"ชะอำ","subdistricts":[{"name":"สามพระยา","zipcode":"76120"},{"name":"ชะอำ","zipcode":"76120"},{"name":"ห้วยทรายเหนือ","zipcode":"76120"},{"name":"เขาใหญ่","zipcode":"76120"},{"name":"ดอนขุนห้วย","zipcode":"76120"},{"name":"บางเก่า","zipcode":"76120"},{"name":"ไร่ใหม่พัฒนา","zipcode":"76120"},{"name":"หนองศาลา","zipcode":"76120"},{"name":"นายาง","zipcode":"76120"}]},{"name":"ท่ายาง","subdistricts":[{"name":"ท่าแลง","zipcode":"76130"},{"name":"หนองจอก","zipcode":"76130"},{"name":"ปึกเตียน","zipcode":"76130"},{"name":"ท่าคอย","zipcode":"76130"},{"name":"วังไคร้","zipcode":"76130"},{"name":"บ้านในดง","zipcode":"76130"},{"name":"มาบปลาเค้า","zipcode":"76130"},{"name":"เขากระปุก","zipcode":"76130"},{"name":"ยางหย่อง","zipcode":"76130"},{"name":"กลัดหลวง","zipcode":"76130"},{"name":"ท่ายาง","zipcode":"76130"},{"name":"ท่าไม้รวก","zipcode":"76130"}]},{"name":"บ้านลาด","subdistricts":[{"name":"ไร่มะขาม","zipcode":"76150"},{"name":"ห้วยลึก","zipcode":"76150"},{"name":"สะพานไกร","zipcode":"76150"},{"name":"ตำหรุ","zipcode":"76150"},{"name":"ท่าช้าง","zipcode":"76150"},{"name":"หนองกะปุ","zipcode":"76150"},{"name":"บ้านหาด","zipcode":"76150"},{"name":"ไร่สะท้อน","zipcode":"76150"},{"name":"ท่าเสน","zipcode":"76150"},{"name":"ไร่โคก","zipcode":"76150"},{"name":"สมอพลือ","zipcode":"76150"},{"name":"ถ้ำรงค์","zipcode":"76150"},{"name":"ลาดโพธิ์","zipcode":"76150"},{"name":"บ้านทาน","zipcode":"76150"},{"name":"ห้วยข้อง","zipcode":"76150"},{"name":"หนองกระเจ็ด","zipcode":"76150"},{"name":"บ้านลาด","zipcode":"76150"},{"name":"โรงเข้","zipcode":"76150"}]},{"name":"บ้านแหลม","subdistricts":[{"name":"บางตะบูนออก","zipcode":"76110"},{"name":"แหลมผักเบี้ย","zipcode":"76100"},{"name":"ท่าแร้งออก","zipcode":"76110"},{"name":"ปากทะเล","zipcode":"76110"},{"name":"บางครก","zipcode":"76110"},{"name":"บ้านแหลม","zipcode":"76110"},{"name":"บางตะบูน","zipcode":"76110"},{"name":"บางแก้ว","zipcode":"76110"},{"name":"ท่าแร้ง","zipcode":"76110"},{"name":"บางขุนไทร","zipcode":"76110"}]},{"name":"หนองหญ้าปล้อง","subdistricts":[{"name":"ยางน้ำกลัดใต้","zipcode":"76160"},{"name":"หนองหญ้าปล้อง","zipcode":"76160"},{"name":"ท่าตะคร้อ","zipcode":"76160"},{"name":"ยางน้ำกลัดเหนือ","zipcode":"76160"}]},{"name":"เขาย้อย","subdistricts":[{"name":"เขาย้อย","zipcode":"76140"},{"name":"ห้วยโรง","zipcode":"76140"},{"name":"หนองปรง","zipcode":"76140"},{"name":"ทับคาง","zipcode":"76140"},{"name":"สระพัง","zipcode":"76140"},{"name":"ห้วยท่าช้าง","zipcode":"76140"},{"name":"หนองชุมพล","zipcode":"76140"},{"name":"หนองปลาไหล","zipcode":"76140"},{"name":"บางเค็ม","zipcode":"76140"},{"name":"หนองชุมพลเหนือ","zipcode":"76140"}]},{"name":"เมืองเพชรบุรี","subdistricts":[{"name":"ช่องสะแก","zipcode":"76000"},{"name":"บ้านกุ่ม","zipcode":"76000"},{"name":"หัวสะพาน","zipcode":"76000"},{"name":"บ้านหม้อ","zipcode":"76000"},{"name":"นาพันสาม","zipcode":"76000"},{"name":"หนองขนาน","zipcode":"76000"},{"name":"โพพระ","zipcode":"76000"},{"name":"เวียงคอย","zipcode":"76000"},{"name":"คลองกระแชง","zipcode":"76000"},{"name":"โพไร่หวาน","zipcode":"76000"},{"name":"นาวุ้ง","zipcode":"76000"},{"name":"หนองโสน","zipcode":"76000"},{"name":"ต้นมะพร้าว","zipcode":"76000"},{"name":"ต้นมะม่วง","zipcode":"76000"},{"name":"ธงชัย","zipcode":"76000"},{"name":"หนองพลับ","zipcode":"76000"},{"name":"หาดเจ้าสำราญ","zipcode":"76100"},{"name":"บางจาก","zipcode":"76000"},{"name":"บางจาน","zipcode":"76000"},{"name":"ดอนยาง","zipcode":"76000"},{"name":"สำมะโรง","zipcode":"76000"},{"name":"ไร่ส้ม","zipcode":"76000"},{"name":"ท่าราบ","zipcode":"76000"},{"name":"วังตะโก","zipcode":"76000"}]},{"name":"แก่งกระจาน","subdistricts":[{"name":"ป่าเด็ง","zipcode":"76170"},{"name":"สองพี่น้อง","zipcode":"76170"},{"name":"พุสวรรค์","zipcode":"76170"},{"name":"วังจันทร์","zipcode":"76170"},{"name":"แก่งกระจาน","zipcode":"76170"},{"name":"ห้วยแม่เพรียง","zipcode":"76170"}]}]}
