{"province_id":62,"province_name":"ประจวบคีรีขันธ์","districts":[{"name":"กุยบุรี","subdistricts":[{"name":"ดอนยายหนู","zipcode":"77150"},{"name":"กุยเหนือ","zipcode":"77150"},{"name":"สามกระทาย","zipcode":"77150"},{"name":"เขาแดง","zipcode":"77150"},{"name":"กุยบุรี","zipcode":"77150"},{"name":"หาดขาม","zipcode":"77150"}]},{"name":"ทับสะแก","subdistricts":[{"name":"ห้วยยาง","zipcode":"77130"},{"name":"นาหูกวาง","zipcode":"77130"},{"name":"ทับสะแก","zipcode":"77130"},{"name":"แสงอรุณ","zipcode":"77130"},{"name":"เขาล้าน","zipcode":"77130"},{"name":"อ่างทอง","zipcode":"77130"}]},{"name":"บางสะพาน","subdistricts":[{"name":"ธงชัย","zipcode":"77190"},{"name":"พงศ์ประศาสน์","zipcode":"77140"},{"name":"แม่รำพึง","zipcode":"77140"},{"name":"ชัยเกษม","zipcode":"77190"},{"name":"ร่อนทอง","zipcode":"77230"},{"name":"กำเนิดนพคุณ","zipcode":"77140"},{"name":"ทองมงคล","zipcode":"77230"}]},{"name":"บางสะพานน้อย","subdistricts":[{"name":"ช้างแรก","zipcode":"77170"},{"name":"บางสะพาน","zipcode":"77170"},{"name":"ไชยราช","zipcode":"77170"},{"name":"ทรายทอง","zipcode":"77170"},{"name":"ปากแพรก","zipcode":"77170"}]},{"name":"ปราณบุรี","subdistricts":[{"name":"เขาจ้าว","zipcode":"77120"},{"name":"หนองตาแต้ม","zipcode":"77120"},{"name":"เขาน้อย","zipcode":"77120"},{"name":"วังก์พง","zipcode":"77120"},{"name":"ปากน้ำปราณ","zipcode":"77220"},{"name":"ปราณบุรี","zipcode":"77120"}]},{"name":"สามร้อยยอด","subdistricts":[{"name":"ไร่ใหม่","zipcode":"77180"},{"name":"ไร่เก่า","zipcode":"77180"},{"name":"สามร้อยยอด","zipcode":"77120"},{"name":"ศาลาลัย","zipcode":"77180"},{"name":"ศิลาลอย","zipcode":"77180"}]},{"name":"หัวหิน","subdistricts":[{"name":"ทับใต้","zipcode":"77110"},{"name":"หินเหล็กไฟ","zipcode":"77110"},{"name":"หัวหิน","zipcode":"77110"},{"name":"ห้วยสัตว์ใหญ่","zipcode":"77110"},{"name":"หนองพลับ","zipcode":"77110"},{"name":"หนองแก","zipcode":"77110"},{"name":"บึงนคร","zipcode":"77110"}]},{"name":"เมืองประจวบคีรีขันธ์","subdistricts":[{"name":"คลองวาฬ","zipcode":"77000"},{"name":"ประจวบคีรีขันธ์","zipcode":"77000"},{"name":"บ่อนอก","zipcode":"77210"},{"name":"ห้วยทราย","zipcode":"77000"},{"name":"เกาะหลัก","zipcode":"77000"},{"name":"อ่าวน้อย","zipcode":"77000"}]}]}
