{"province_id":63,"province_name":"นครศรีธรรมราช","districts":[{"name":"ขนอม","subdistricts":[{"name":"ควนทอง","zipcode":"80210"},{"name":"ท้องเนียน","zipcode":"80210"},{"name":"ขนอม","zipcode":"80210"}]},{"name":"จุฬาภรณ์","subdistricts":[{"name":"นาหมอบุญ","zipcode":"80130"},{"name":"ควนหนองคว้า","zipcode":"80130"},{"name":"บ้านควนมุด","zipcode":"80180"},{"name":"สามตำบล","zipcode":"80130"},{"name":"ทุ่งโพธิ์","zipcode":"80130"},{"name":"บ้านชะอวด","zipcode":"80180"}]},{"name":"ฉวาง","subdistricts":[{"name":"ห้วยปริก","zipcode":"80260"},{"name":"กะเปียด","zipcode":"80260"},{"name":"จันดี","zipcode":"80250"},{"name":"นาแว","zipcode":"80260"},{"name":"ไสหร้า","zipcode":"80150"},{"name":"ฉวาง","zipcode":"80150"},{"name":"นากะชะ","zipcode":"80150"},{"name":"ไม้เรียง","zipcode":"80150"},{"name":"นาเขลียง","zipcode":"80260"},{"name":"ละอาย","zipcode":"80250"}]},{"name":"ชะอวด","subdistricts":[{"name":"ชะอวด","zipcode":"80180"},{"name":"บ้านตูล","zipcode":"80180"},{"name":"นางหลง","zipcode":"80180"},{"name":"เคร็ง","zipcode":"80180"},{"name":"ควนหนองหงษ์","zipcode":"80180"},{"name":"ท่าเสม็ด","zipcode":"80180"},{"name":"ขอนหาด","zipcode":"80180"},{"name":"วังอ่าง","zipcode":"80180"},{"name":"เขาพระทอง","zipcode":"80180"},{"name":"ท่าประจะ","zipcode":"80180"},{"name":"เกาะขันธ์","zipcode":"80180"}]},{"name":"ช้างกลาง","subdistricts":[{"name":"สวนขัน","zipcode":"80250"},{"name":"ช้างกลาง","zipcode":"80250"},{"name":"หลักช้าง","zipcode":"80250"}]},{"name":"ถ้ำพรรณรา","subdistricts":[{"name":"ดุสิต","zipcode":"80260"},{"name":"ถ้ำพรรณรา","zipcode":"80260"},{"name":"คลองเส","zipcode":"80260"}]},{"name":"ท่าศาลา","subdistricts":[{"name":"ตลิ่งชัน","zipcode":"80160"},{"name":"กลาย","zipcode":"80160"},{"name":"ไทยบุรี","zipcode":"80160"},{"name":"สระแก้ว","zipcode":"80160"},{"name":"โพธิ์ทอง","zipcode":"80160"},{"name":"ท่าขึ้น","zipcode":"80160"},{"name":"ดอนตะโก","zipcode":"80160"},{"name":"ท่าศาลา","zipcode":"80160"},{"name":"โมคลาน","zipcode":"80160"},{"name":"หัวตะพาน","zipcode":"80160"}]},{"name":"ทุ่งสง","subdistricts":[{"name":"เขาขาว","zipcode":"80110"},{"name":"นาหลวงเสน","zipcode":"80110"},{"name":"ถ้ำใหญ่","zipcode":"80110"},{"name":"ควนกรด","zipcode":"80110"},{"name":"ชะมาย","zipcode":"80110"},{"name":"ที่วัง","zipcode":"80110"},{"name":"เขาโร","zipcode":"80110"},{"name":"นาโพธิ์","zipcode":"80110"},{"name":"นาไม้ไผ่","zipcode":"80110"},{"name":"หนองหงส์","zipcode":"80110"},{"name":"น้ำตก","zipcode":"80110"},{"name":"ปากแพรก","zipcode":"80110"},{"name":"กะปาง","zipcode":"80310"}]},{"name":"ทุ่งใหญ่","subdistricts":[{"name":"ทุ่งสัง","zipcode":"80240"},{"name":"กรุงหยัน","zipcode":"80240"},{"name":"ปริก","zipcode":"80240"},{"name":"ทุ่งใหญ่","zipcode":"80240"},{"name":"ท่ายาง","zipcode":"80240"},{"name":"บางรูป","zipcode":"80240"},{"name":"กุแหระ","zipcode":"80240"}]},{"name":"นบพิตำ","subdistricts":[{"name":"กรุงชิง","zipcode":"80160"},{"name":"กะหรอ","zipcode":"80160"},{"name":"นบพิตำ","zipcode":"80160"},{"name":"นาเหรง","zipcode":"80160"}]},{"name":"นาบอน","subdistricts":[{"name":"แก้วแสน","zipcode":"80220"},{"name":"นาบอน","zipcode":"80220"},{"name":"ทุ่งสง","zipcode":"80220"}]},{"name":"บางขัน","subdistricts":[{"name":"วังหิน","zipcode":"80360"},{"name":"บางขัน","zipcode":"80360"},{"name":"บ้านนิคม","zipcode":"80360"},{"name":"บ้านลำนาว","zipcode":"80360"}]},{"name":"ปากพนัง","subdistricts":[{"name":"แหลมตะลุมพุก","zipcode":"80140"},{"name":"คลองน้อย","zipcode":"80330"},{"name":"ปากพนังฝั่งตะวันออก","zipcode":"80140"},{"name":"บ้านใหม่","zipcode":"80140"},{"name":"บางพระ","zipcode":"80140"},{"name":"คลองกระบือ","zipcode":"80140"},{"name":"ปากแพรก","zipcode":"80140"},{"name":"ปากพนังฝั่งตะวันตก","zipcode":"80140"},{"name":"ป่าระกำ","zipcode":"80140"},{"name":"บ้านเพิง","zipcode":"80140"},{"name":"หูล่อง","zipcode":"80140"},{"name":"ปากพนัง","zipcode":"80140"},{"name":"บางตะพง","zipcode":"80140"},{"name":"เกาะทวด","zipcode":"80330"},{"name":"ขนาบนาก","zipcode":"80140"},{"name":"บางศาลา","zipcode":"80140"},{"name":"ชะเมา","zipcode":"80330"},{"name":"ท่าพยา","zipcode":"80140"}]},{"name":"พรหมคีรี","subdistricts":[{"name":"อินคีรี","zipcode":"80320"},{"name":"พรหมโลก","zipcode":"80320"},{"name":"ทอนหงส์","zipcode":"80320"},{"name":"บ้านเกาะ","zipcode":"80320"},{"name":"นาเรียง","zipcode":"80320"}]},{"name":"พระพรหม","subdistricts":[{"name":"ช้างซ้าย","zipcode":"80000"},{"name":"นาสาร","zipcode":"80000"},{"name":"ท้ายสำเภา","zipcode":"80000"},{"name":"นาพรุ","zipcode":"80000"}]},{"name":"พิปูน","subdistricts":[{"name":"กะทูน","zipcode":"80270"},{"name":"ควนกลาง","zipcode":"80270"},{"name":"เขาพระ","zipcode":"80270"},{"name":"พิปูน","zipcode":"80270"},{"name":"ยางค้อม","zipcode":"80270"}]},{"name":"ร่อนพิบูลย์","subdistricts":[{"name":"เสาธง","zipcode":"80350"},{"name":"ร่อนพิบูลย์","zipcode":"80130"},{"name":"ควนชุม","zipcode":"80130"},{"name":"ควนเกย","zipcode":"80130"},{"name":"หินตก","zipcode":"80350"},{"name":"ควนพัง","zipcode":"80130"}]},{"name":"ลานสกา","subdistricts":[{"name":"ขุนทะเล","zipcode":"80230"},{"name":"ท่าดี","zipcode":"80230"},{"name":"เขาแก้ว","zipcode":"80230"},{"name":"กำโลน","zipcode":"80230"},{"name":"ลานสกา","zipcode":"80230"}]},{"name":"สิชล","subdistricts":[{"name":"เสาเภา","zipcode":"80340"},{"name":"ทุ่งใส","zipcode":"80120"},{"name":"ทุ่งปรัง","zipcode":"80120"},{"name":"เทพราช","zipcode":"80340"},{"name":"เปลี่ยน","zipcode":"80120"},{"name":"ฉลอง","zipcode":"80120"},{"name":"เขาน้อย","zipcode":"80120"},{"name":"สิชล","zipcode":"80120"},{"name":"สี่ขีด","zipcode":"80120"}]},{"name":"หัวไทร","subdistricts":[{"name":"เกาะเพชร","zipcode":"80170"},{"name":"แหลม","zipcode":"80170"},{"name":"ควนชะลิก","zipcode":"80170"},{"name":"หน้าสตน","zipcode":"80170"},{"name":"บางนบ","zipcode":"80170"},{"name":"เขาพังไกร","zipcode":"80170"},{"name":"รามแก้ว","zipcode":"80170"},{"name":"ทรายขาว","zipcode":"80170"},{"name":"ท่าซอม","zipcode":"80170"},{"name":"หัวไทร","zipcode":"80170"},{"name":"บ้านราม","zipcode":"80170"}]},{"name":"เฉลิมพระเกียรติ","subdistricts":[{"name":"ดอนตรอ","zipcode":"80290"},{"name":"สวนหลวง","zipcode":"80190"},{"name":"เชียรเขา","zipcode":"80190"},{"name":"ทางพูน","zipcode":"80190"}]},{"name":"เชียรใหญ่","subdistricts":[{"name":"บ้านเนิน","zipcode":"80190"},{"name":"เขาพระบาท","zipcode":"80190"},{"name":"ท่าขนาน","zipcode":"80190"},{"name":"เสือหึง","zipcode":"80190"},{"name":"ไสหมาก","zipcode":"80190"},{"name":"แม่เจ้าอยู่หัว","zipcode":"80190"},{"name":"บ้านกลาง","zipcode":"80190"},{"name":"การะเกด","zipcode":"80190"},{"name":"เชียรใหญ่","zipcode":"80190"},{"name":"ท้องลำเจียก","zipcode":"80190"}]},{"name":"เมืองนครศรีธรรมราช","subdistricts":[{"name":"ปากพูน","zipcode":"80000"},{"name":"กำแพงเซา","zipcode":"80280"},{"name":"โพธิ์เสด็จ","zipcode":"80000"},{"name":"ปากนคร","zipcode":"80000"},{"name":"นาเคียน","zipcode":"80000"},{"name":"คลัง","zipcode":"80000"},{"name":"ท่าซัก","zipcode":"80000"},{"name":"ไชยมนตรี","zipcode":"80000"},{"name":"ในเมือง","zipcode":"80000"},{"name":"บางจาก","zipcode":"80330"},{"name":"นาทราย","zipcode":"80280"},{"name":"ท่างิ้ว","zipcode":"80280"},{"name":"ท่าไร่","zipcode":"80000"},{"name":"ท่าเรือ","zipcode":"80290"},{"name":"มะม่วงสองต้น","zipcode":"80000"},{"name":"ท่าวัง","zipcode":"80000"}]}]}
