{"province_id":64,"province_name":"กระบี่","districts":[{"name":"คลองท่อม","subdistricts":[{"name":"คลองพน","zipcode":"81170"},{"name":"คลองท่อมใต้","zipcode":"81120"},{"name":"พรุดินนา","zipcode":"81120"},{"name":"ทรายขาว","zipcode":"81170"},{"name":"คลองท่อมเหนือ","zipcode":"81120"},{"name":"เพหลา","zipcode":"81120"},{"name":"ห้วยน้ำขาว","zipcode":"81120"}]},{"name":"ปลายพระยา","subdistricts":[{"name":"คีรีวง","zipcode":"81160"},{"name":"เขาเขน","zipcode":"81160"},{"name":"เขาต่อ","zipcode":"81160"},{"name":"ปลายพระยา","zipcode":"81160"}]},{"name":"ลำทับ","subdistricts":[{"name":"ดินอุดม","zipcode":"81120"},{"name":"ทุ่งไทรทอง","zipcode":"81120"},{"name":"ลำทับ","zipcode":"81120"},{"name":"ดินแดง","zipcode":"81120"}]},{"name":"อ่าวลึก","subdistricts":[{"name":"คลองยา","zipcode":"81110"},{"name":"อ่าวลึกใต้","zipcode":"81110"},{"name":"อ่าวลึกเหนือ","zipcode":"81110"},{"name":"คลองหิน","zipcode":"81110"},{"name":"บ้านกลาง","zipcode":"81110"},{"name":"แหลมสัก","zipcode":"81110"},{"name":"เขาใหญ่","zipcode":"81110"},{"name":"อ่าวลึกน้อย","zipcode":"81110"},{"name":"นาเหนือ","zipcode":"81110"}]},{"name":"เกาะลันตา","subdistricts":[{"name":"เกาะลันตาใหญ่","zipcode":"81150"},{"name":"คลองยาง","zipcode":"81120"},{"name":"เกาะลันตาน้อย","zipcode":"81150"},{"name":"ศาลาด่าน","zipcode":"81150"},{"name":"เกาะกลาง","zipcode":"81120"}]},{"name":"เขาพนม","subdistricts":[{"name":"หน้าเขา","zipcode":"81140"},{"name":"สินปุน","zipcode":"80240"},{"name":"เขาพนม","zipcode":"81140"},{"name":"โคกหาร","zipcode":"80240"},{"name":"พรุเตียว","zipcode":"81140"},{"name":"เขาดิน","zipcode":"81140"}]},{"name":"เมืองกระบี่","subdistricts":[{"name":"คลองประสงค์","zipcode":"81000"},{"name":"กระบี่น้อย","zipcode":"81000"},{"name":"อ่าวนาง","zipcode":"81000"},{"name":"ปากน้ำ","zipcode":"81000"},{"name":"ทับปริก","zipcode":"81000"},{"name":"เขาคราม","zipcode":"81000"},{"name":"หนองทะเล","zipcode":"81000"},{"name":"กระบี่ใหญ่","zipcode":"81000"},{"name":"ไสไทย","zipcode":"81000"},{"name":"เขาทอง","zipcode":"81000"}]},{"name":"เหนือคลอง","subdistricts":[{"name":"คลองขนาน","zipcode":"81130"},{"name":"ห้วยยูง","zipcode":"81130"},{"name":"เหนือคลอง","zipcode":"81130"},{"name":"ตลิ่งชัน","zipcode":"81130"},{"name":"คลองเขม้า","zipcode":"81130"},{"name":"เกาะศรีบอยา","zipcode":"81130"},{"name":"ปกาสัย","zipcode":"81130"},{"name":"โคกยาง","zipcode":"81130"}]}]}
