{"province_id":65,"province_name":"พังงา","districts":[{"name":"กะปง","subdistricts":[{"name":"ท่านา","zipcode":"82170"},{"name":"รมณีย์","zipcode":"82170"},{"name":"เหมาะ","zipcode":"82170"},{"name":"กะปง","zipcode":"82170"},{"name":"เหล","zipcode":"82170"}]},{"name":"คุระบุรี","subdistricts":[{"name":"เกาะพระทอง","zipcode":"82150"},{"name":"คุระ","zipcode":"82150"},{"name":"แม่นางขาว","zipcode":"82150"},{"name":"บางวัน","zipcode":"82150"}]},{"name":"ตะกั่วทุ่ง","subdistricts":[{"name":"ท่าอยู่","zipcode":"82130"},{"name":"กระโสม","zipcode":"82130"},{"name":"คลองเคียน","zipcode":"82130"},{"name":"หล่อยูง","zipcode":"82140"},{"name":"กะไหล","zipcode":"82130"},{"name":"ถ้ำ","zipcode":"82130"},{"name":"โคกกลอย","zipcode":"82140"}]},{"name":"ตะกั่วป่า","subdistricts":[{"name":"บางม่วง","zipcode":"82110"},{"name":"บางนายสี","zipcode":"82110"},{"name":"คึกคัก","zipcode":"82190"},{"name":"ตำตัว","zipcode":"82110"},{"name":"บางไทร","zipcode":"82110"},{"name":"เกาะคอเขา","zipcode":"82190"},{"name":"ตะกั่วป่า","zipcode":"82110"},{"name":"โคกเคียน","zipcode":"82110"}]},{"name":"ทับปุด","subdistricts":[{"name":"บางเหรียง","zipcode":"82180"},{"name":"ถ้ำทองหลาง","zipcode":"82180"},{"name":"มะรุ่ย","zipcode":"82180"},{"name":"โคกเจริญ","zipcode":"82180"},{"name":"บ่อแสน","zipcode":"82180"},{"name":"ทับปุด","zipcode":"82180"}]},{"name":"ท้ายเหมือง","subdistricts":[{"name":"ลำภี","zipcode":"82120"},{"name":"บางทอง","zipcode":"82120"},{"name":"ท้ายเหมือง","zipcode":"82120"},{"name":"ลำแก่น","zipcode":"82120"},{"name":"ทุ่งมะพร้าว","zipcode":"82120"},{"name":"นาเตย","zipcode":"82120"}]},{"name":"เกาะยาว","subdistricts":[{"name":"พรุใน","zipcode":"83000"},{"name":"เกาะยาวน้อย","zipcode":"82160"},{"name":"เกาะยาวใหญ่","zipcode":"82160"}]},{"name":"เมืองพังงา","subdistricts":[{"name":"ป่ากอ","zipcode":"82000"},{"name":"นบปริง","zipcode":"82000"},{"name":"ทุ่งคาโงก","zipcode":"82000"},{"name":"ตากแดด","zipcode":"82000"},{"name":"ถ้ำน้ำผุด","zipcode":"82000"},{"name":"เกาะปันหยี","zipcode":"82000"},{"name":"ท้ายช้าง","zipcode":"82000"},{"name":"สองแพรก","zipcode":"82000"},{"name":"บางเตย","zipcode":"82000"}]}]}
