{"province_id":67,"province_name":"สุราษฎร์ธานี","districts":[{"name":"กาญจนดิษฐ์","subdistricts":[{"name":"ท่าอุแท","zipcode":"84160"},{"name":"ทุ่งกง","zipcode":"84290"},{"name":"ตะเคียนทอง","zipcode":"84160"},{"name":"ท่าทอง","zipcode":"84160"},{"name":"พลายวาส","zipcode":"84160"},{"name":"ทุ่งรัง","zipcode":"84290"},{"name":"กรูด","zipcode":"84160"},{"name":"ช้างขวา","zipcode":"84160"},{"name":"กะแดะ","zipcode":"84160"},{"name":"ป่าร่อน","zipcode":"84160"},{"name":"ท่าทองใหม่","zipcode":"84290"},{"name":"คลองสระ","zipcode":"84160"},{"name":"ช้างซ้าย","zipcode":"84160"}]},{"name":"คีรีรัฐนิคม","subdistricts":[{"name":"ถ้ำสิงขร","zipcode":"84180"},{"name":"ท่ากระดาน","zipcode":"84180"},{"name":"น้ำหัก","zipcode":"84180"},{"name":"บ้านทำเนียบ","zipcode":"84180"},{"name":"ท่าขนอน","zipcode":"84180"},{"name":"ย่านยาว","zipcode":"84180"},{"name":"กะเปา","zipcode":"84180"},{"name":"บ้านยาง","zipcode":"84180"}]},{"name":"ชัยบุรี","subdistricts":[{"name":"ไทรทอง","zipcode":"84350"},{"name":"ชัยบุรี","zipcode":"84350"},{"name":"คลองน้อย","zipcode":"84350"},{"name":"สองแพรก","zipcode":"84350"}]},{"name":"ดอนสัก","subdistricts":[{"name":"ไชยคราม","zipcode":"84220"},{"name":"ดอนสัก","zipcode":"84220"},{"name":"ปากแพรก","zipcode":"84340"},{"name":"ชลคราม","zipcode":"84160"}]},{"name":"ท่าฉาง","subdistricts":[{"name":"ท่าฉาง","zipcode":"84150"},{"name":"ปากฉลุย","zipcode":"84150"},{"name":"เขาถ่าน","zipcode":"84150"},{"name":"ท่าเคย","zipcode":"84150"},{"name":"เสวียด","zipcode":"84150"},{"name":"คลองไทร","zipcode":"84150"}]},{"name":"ท่าชนะ","subdistricts":[{"name":"คลองพา","zipcode":"84170"},{"name":"คันธุลี","zipcode":"84170"},{"name":"สมอทอง","zipcode":"84170"},{"name":"วัง","zipcode":"84170"},{"name":"ประสงค์","zipcode":"84170"},{"name":"ท่าชนะ","zipcode":"84170"}]},{"name":"บ้านตาขุน","subdistricts":[{"name":"เขาพัง","zipcode":"84230"},{"name":"พระแสง","zipcode":"84230"},{"name":"พรุไทย","zipcode":"84230"},{"name":"เขาวง","zipcode":"84230"}]},{"name":"บ้านนาสาร","subdistricts":[{"name":"น้ำพุ","zipcode":"84120"},{"name":"พรุพี","zipcode":"84270"},{"name":"ควนสุบรรณ","zipcode":"84120"},{"name":"ท่าชี","zipcode":"84120"},{"name":"ทุ่งเตาใหม่","zipcode":"84120"},{"name":"ทุ่งเตา","zipcode":"84120"},{"name":"คลองปราบ","zipcode":"84120"},{"name":"นาสาร","zipcode":"84120"},{"name":"ควนศรี","zipcode":"84270"},{"name":"เพิ่มพูนทรัพย์","zipcode":"84120"},{"name":"ลำพูน","zipcode":"84120"}]},{"name":"บ้านนาเดิม","subdistricts":[{"name":"ทรัพย์ทวี","zipcode":"84240"},{"name":"บ้านนา","zipcode":"84240"},{"name":"นาใต้","zipcode":"84240"},{"name":"ท่าเรือ","zipcode":"84240"}]},{"name":"พนม","subdistricts":[{"name":"พังกาญจน์","zipcode":"84250"},{"name":"คลองศก","zipcode":"84250"},{"name":"พนม","zipcode":"84250"},{"name":"คลองชะอุ่น","zipcode":"84250"},{"name":"พลูเถื่อน","zipcode":"84250"},{"name":"ต้นยวน","zipcode":"84250"}]},{"name":"พระแสง","subdistricts":[{"name":"บางสวรรค์","zipcode":"84210"},{"name":"อิปัน","zipcode":"84210"},{"name":"ไทรโสภา","zipcode":"84210"},{"name":"ไทรขึง","zipcode":"84210"},{"name":"สินปุน","zipcode":"84210"},{"name":"สาคู","zipcode":"84210"},{"name":"สินเจริญ","zipcode":"84210"}]},{"name":"พุนพิน","subdistricts":[{"name":"เขาหัวควาย","zipcode":"84130"},{"name":"พุนพิน","zipcode":"84130"},{"name":"ท่าข้าม","zipcode":"84130"},{"name":"หัวเตย","zipcode":"84130"},{"name":"ท่าโรงช้าง","zipcode":"84130"},{"name":"น้ำรอบ","zipcode":"84130"},{"name":"บางมะเดื่อ","zipcode":"84130"},{"name":"ตะปาน","zipcode":"84130"},{"name":"บางงอน","zipcode":"84130"},{"name":"ท่าสะท้อน","zipcode":"84130"},{"name":"หนองไทร","zipcode":"84130"},{"name":"กรูด","zipcode":"84130"},{"name":"มะลวน","zipcode":"84130"},{"name":"บางเดือน","zipcode":"84130"},{"name":"ศรีวิชัย","zipcode":"84130"},{"name":"ลีเล็ด","zipcode":"84130"}]},{"name":"วิภาวดี","subdistricts":[{"name":"ตะกุกใต้","zipcode":"84180"},{"name":"ตะกุกเหนือ","zipcode":"84180"}]},{"name":"เกาะพะงัน","subdistricts":[{"name":"บ้านใต้","zipcode":"84280"},{"name":"เกาะเต่า","zipcode":"84280"},{"name":"เกาะพะงัน","zipcode":"84280"}]},{"name":"เกาะสมุย","subdistricts":[{"name":"บ่อผุด","zipcode":"84320"},{"name":"หน้าเมือง","zipcode":"84140"},{"name":"ลิปะน้อย","zipcode":"84140"},{"name":"แม่น้ำ","zipcode":"84330"},{"name":"มะเร็ต","zipcode":"84310"},{"name":"ตลิ่งงาม","zipcode":"84140"},{"name":"อ่างทอง","zipcode":"84140"}]},{"name":"เคียนซา","subdistricts":[{"name":"อรัญคามวารี","zipcode":"84260"},{"name":"พ่วงพรมคร","zipcode":"84210"},{"name":"บ้านเสด็จ","zipcode":"84260"},{"name":"เขาตอก","zipcode":"84260"},{"name":"เคียนซา","zipcode":"84260"}]},{"name":"เมืองสุราษฎร์ธานี","subdistricts":[{"name":"บางไทร","zipcode":"84000"},{"name":"ตลาด","zipcode":"84000"},{"name":"บางชนะ","zipcode":"84000"},{"name":"คลองฉนาก","zipcode":"84000"},{"name":"ขุนทะเล","zipcode":"84100"},{"name":"บางโพธิ์","zipcode":"84000"},{"name":"มะขามเตี้ย","zipcode":"84000"},{"name":"คลองน้อย","zipcode":"84000"},{"name":"บางใบไม้","zipcode":"84000"},{"name":"บางกุ้ง","zipcode":"84000"},{"name":"วัดประดู่","zipcode":"84000"}]},{"name":"เวียงสระ","subdistricts":[{"name":"เวียงสระ","zipcode":"84190"},{"name":"ทุ่งหลวง","zipcode":"84190"},{"name":"บ้านส้อง","zipcode":"84190"},{"name":"เขานิพันธ์","zipcode":"84190"},{"name":"คลองฉนวน","zipcode":"84190"}]},{"name":"ไชยา","subdistricts":[{"name":"เลม็ด","zipcode":"84110"},{"name":"โมถ่าย","zipcode":"84110"},{"name":"ตลาดไชยา","zipcode":"84110"},{"name":"ป่าเว","zipcode":"84110"},{"name":"เวียง","zipcode":"84110"},{"name":"ปากหมาก","zipcode":"84110"},{"name":"พุมเรียง","zipcode":"84110"},{"name":"ตะกรบ","zipcode":"84110"},{"name":"ทุ่ง","zipcode":"84110"}]}]}
