{"province_id":68,"province_name":"ระนอง","districts":[{"name":"กระบุรี","subdistricts":[{"name":"มะมุ","zipcode":"85110"},{"name":"น้ำจืด","zipcode":"85110"},{"name":"จ.ป.ร.","zipcode":"85110"},{"name":"ปากจั่น","zipcode":"85110"},{"name":"น้ำจืดน้อย","zipcode":"85110"},{"name":"บางใหญ่","zipcode":"85110"},{"name":"ลำเลียง","zipcode":"85110"}]},{"name":"กะเปอร์","subdistricts":[{"name":"เชี่ยวเหลียง","zipcode":"85120"},{"name":"ม่วงกลวง","zipcode":"85120"},{"name":"บ้านนา","zipcode":"85120"},{"name":"กะเปอร์","zipcode":"85120"},{"name":"บางหิน","zipcode":"85120"}]},{"name":"ละอุ่น","subdistricts":[{"name":"บางพระใต้","zipcode":"85130"},{"name":"ละอุ่นใต้","zipcode":"85130"},{"name":"ในวงเหนือ","zipcode":"85130"},{"name":"บางพระเหนือ","zipcode":"85130"},{"name":"ละอุ่นเหนือ","zipcode":"85130"},{"name":"ในวงใต้","zipcode":"85130"},{"name":"บางแก้ว","zipcode":"85130"}]},{"name":"สุขสำราญ","subdistricts":[{"name":"นาคา","zipcode":"85120"},{"name":"กำพวน","zipcode":"85120"}]},{"name":"เมืองระนอง","subdistricts":[{"name":"ปากน้ำ","zipcode":"85000"},{"name":"หงาว","zipcode":"85000"},{"name":"ทรายแดง","zipcode":"85130"},{"name":"เขานิเวศน์","zipcode":"85000"},{"name":"บางนอน","zipcode":"85000"},{"name":"บางริ้น","zipcode":"85000"},{"name":"เกาะพยาม","zipcode":"85000"},{"name":"ราชกรูด","zipcode":"85000"},{"name":"หาดส้มแป้น","zipcode":"85000"}]}]}
