{"province_id":69,"province_name":"ชุมพร","districts":[{"name":"ท่าแซะ","subdistricts":[{"name":"ทรัพย์อนันต์","zipcode":"86140"},{"name":"คุริง","zipcode":"86140"},{"name":"หงษ์เจริญ","zipcode":"86140"},{"name":"รับร่อ","zipcode":"86190"},{"name":"สองพี่น้อง","zipcode":"86140"},{"name":"สลุย","zipcode":"86140"},{"name":"หินแก้ว","zipcode":"86190"},{"name":"ท่าแซะ","zipcode":"86140"},{"name":"ท่าข้าม","zipcode":"86140"},{"name":"นากระตาม","zipcode":"86140"}]},{"name":"ทุ่งตะโก","subdistricts":[{"name":"ตะโก","zipcode":"86220"},{"name":"ปากตะโก","zipcode":"86220"},{"name":"ช่องไม้แก้ว","zipcode":"86220"},{"name":"ทุ่งตะไคร","zipcode":"86220"}]},{"name":"ปะทิว","subdistricts":[{"name":"ชุมโค","zipcode":"86160"},{"name":"ทะเลทรัพย์","zipcode":"86160"},{"name":"เขาไชยราช","zipcode":"86210"},{"name":"ดอนยาง","zipcode":"86210"},{"name":"สะพลี","zipcode":"86230"},{"name":"บางสน","zipcode":"86160"},{"name":"ปากคลอง","zipcode":"86210"}]},{"name":"พะโต๊ะ","subdistricts":[{"name":"พระรักษ์","zipcode":"86180"},{"name":"ปากทรง","zipcode":"86180"},{"name":"ปังหวาน","zipcode":"86180"},{"name":"พะโต๊ะ","zipcode":"86180"}]},{"name":"ละแม","subdistricts":[{"name":"สวนแตง","zipcode":"86170"},{"name":"ละแม","zipcode":"86170"},{"name":"ทุ่งคาวัด","zipcode":"86170"},{"name":"ทุ่งหลวง","zipcode":"86170"}]},{"name":"สวี","subdistricts":[{"name":"นาสัก","zipcode":"86130"},{"name":"สวี","zipcode":"86130"},{"name":"ครน","zipcode":"86130"},{"name":"ปากแพรก","zipcode":"86130"},{"name":"เขาทะลุ","zipcode":"86130"},{"name":"ทุ่งระยะ","zipcode":"86130"},{"name":"วิสัยใต้","zipcode":"86130"},{"name":"นาโพธิ์","zipcode":"86130"},{"name":"ด่านสวี","zipcode":"86130"},{"name":"เขาค่าย","zipcode":"86130"},{"name":"ท่าหิน","zipcode":"86130"}]},{"name":"หลังสวน","subdistricts":[{"name":"แหลมทราย","zipcode":"86110"},{"name":"นาขา","zipcode":"86110"},{"name":"ปากน้ำ","zipcode":"86150"},{"name":"ขันเงิน","zipcode":"86110"},{"name":"บางมะพร้าว","zipcode":"86110"},{"name":"วังตะกอ","zipcode":"86110"},{"name":"นาพญา","zipcode":"86110"},{"name":"พ้อแดง","zipcode":"86110"},{"name":"ท่ามะพลา","zipcode":"86110"},{"name":"บางน้ำจืด","zipcode":"86150"},{"name":"หลังสวน","zipcode":"86110"},{"name":"หาดยาย","zipcode":"86110"},{"name":"บ้านควน","zipcode":"86110"}]},{"name":"เมืองชุมพร","subdistricts":[{"name":"ตากแดด","zipcode":"86000"},{"name":"ท่าตะเภา","zipcode":"86000"},{"name":"บ้านนา","zipcode":"86190"},{"name":"นาทุ่ง","zipcode":"86000"},{"name":"ถ้ำสิงห์","zipcode":"86100"},{"name":"วังไผ่","zipcode":"86000"},{"name":"ท่ายาง","zipcode":"86000"},{"name":"วิสัยเหนือ","zipcode":"86100"},{"name":"บางลึก","zipcode":"86000"},{"name":"ปากน้ำ","zipcode":"86120"},{"name":"ขุนกระทิง","zipcode":"86000"},{"name":"นาชะอัง","zipcode":"86000"},{"name":"วังใหม่","zipcode":"86190"},{"name":"บางหมาก","zipcode":"86000"},{"name":"หาดทรายรี","zipcode":"86120"},{"name":"หาดพันไกร","zipcode":"86000"},{"name":"ทุ่งคา","zipcode":"86100"}]}]}
