{"province_id":7,"province_name":"ลพบุรี","districts":[{"name":"ชัยบาดาล","subdistricts":[{"name":"ชัยนารายณ์","zipcode":"15130"},{"name":"นิคมลำนารายณ์","zipcode":"15130"},{"name":"ท่าดินดำ","zipcode":"15130"},{"name":"เกาะรัง","zipcode":"15130"},{"name":"ม่วงค่อม","zipcode":"15230"},{"name":"เขาแหลม","zipcode":"15130"},{"name":"นาโสม","zipcode":"15190"},{"name":"ศิลาทิพย์","zipcode":"15130"},{"name":"ชัยบาดาล","zipcode":"15230"},{"name":"มะกอกหวาน","zipcode":"15230"},{"name":"ลำนารายณ์","zipcode":"15130"},{"name":"ท่ามะนาว","zipcode":"15130"},{"name":"บัวชุม","zipcode":"15130"},{"name":"หนองยายโต๊ะ","zipcode":"15130"},{"name":"ห้วยหิน","zipcode":"15130"},{"name":"บ้านใหม่สามัคคี","zipcode":"15130"},{"name":"ซับตะเคียน","zipcode":"15130"}]},{"name":"ท่าวุ้ง","subdistricts":[{"name":"บางลี่","zipcode":"15150"},{"name":"ลาดสาลี่","zipcode":"15150"},{"name":"บางคู้","zipcode":"15150"},{"name":"เขาสมอคอน","zipcode":"15180"},{"name":"บางงา","zipcode":"15150"},{"name":"บ้านเบิก","zipcode":"15150"},{"name":"โพตลาดแก้ว","zipcode":"15150"},{"name":"หัวสำโรง","zipcode":"15150"},{"name":"ท่าวุ้ง","zipcode":"15150"},{"name":"โคกสลุด","zipcode":"15150"},{"name":"มุจลินท์","zipcode":"15150"}]},{"name":"ท่าหลวง","subdistricts":[{"name":"แก่งผักกูด","zipcode":"15230"},{"name":"ทะเลวังวัด","zipcode":"15230"},{"name":"ซับจำปา","zipcode":"15230"},{"name":"ท่าหลวง","zipcode":"15230"},{"name":"หัวลำ","zipcode":"15230"},{"name":"หนองผักแว่น","zipcode":"15230"}]},{"name":"บ้านหมี่","subdistricts":[{"name":"โพนทอง","zipcode":"15110"},{"name":"บ้านชี","zipcode":"15180"},{"name":"สายห้วยแก้ว","zipcode":"15110"},{"name":"บางกะพี้","zipcode":"15110"},{"name":"บ้านกล้วย","zipcode":"15110"},{"name":"สนามแจง","zipcode":"15110"},{"name":"ชอนม่วง","zipcode":"15110"},{"name":"บางพึ่ง","zipcode":"15110"},{"name":"ไผ่ใหญ่","zipcode":"15110"},{"name":"เชียงงา","zipcode":"15110"},{"name":"บางขาม","zipcode":"15180"},{"name":"พุคา","zipcode":"15110"},{"name":"มหาสอน","zipcode":"15110"},{"name":"หนองเต่า","zipcode":"15110"},{"name":"ดงพลับ","zipcode":"15110"},{"name":"หนองกระเบียน","zipcode":"15110"},{"name":"หนองทรายขาว","zipcode":"15110"},{"name":"บ้านทราย","zipcode":"15110"},{"name":"หนองเมือง","zipcode":"15110"},{"name":"ดอนดึง","zipcode":"15110"},{"name":"หินปัก","zipcode":"15110"},{"name":"บ้านหมี่","zipcode":"15110"}]},{"name":"พัฒนานิคม","subdistricts":[{"name":"มะนาวหวาน","zipcode":"15140"},{"name":"ห้วยขุนราม","zipcode":"18220"},{"name":"พัฒนานิคม","zipcode":"15140"},{"name":"ชอนน้อย","zipcode":"15140"},{"name":"ดีลัง","zipcode":"15220"},{"name":"น้ำสุด","zipcode":"15140"},{"name":"ช่องสาริกา","zipcode":"15220"},{"name":"หนองบัว","zipcode":"15140"},{"name":"โคกสลุง","zipcode":"15140"}]},{"name":"ลำสนธิ","subdistricts":[{"name":"เขารวก","zipcode":"15190"},{"name":"หนองรี","zipcode":"15190"},{"name":"ลำสนธิ","zipcode":"15190"},{"name":"เขาน้อย","zipcode":"15130"},{"name":"กุดตาเพชร","zipcode":"15190"},{"name":"ซับสมบูรณ์","zipcode":"15190"}]},{"name":"สระโบสถ์","subdistricts":[{"name":"ทุ่งท่าช้าง","zipcode":"15240"},{"name":"สระโบสถ์","zipcode":"15240"},{"name":"ห้วยใหญ่","zipcode":"15240"},{"name":"มหาโพธิ","zipcode":"15240"},{"name":"นิยมชัย","zipcode":"15240"}]},{"name":"หนองม่วง","subdistricts":[{"name":"ชอนสารเดช","zipcode":"15170"},{"name":"ชอนสมบูรณ์","zipcode":"15170"},{"name":"บ่อทอง","zipcode":"15170"},{"name":"ยางโทน","zipcode":"15170"},{"name":"ดงดินแดง","zipcode":"15170"},{"name":"หนองม่วง","zipcode":"15170"}]},{"name":"เมืองลพบุรี","subdistricts":[{"name":"กกโก","zipcode":"15000"},{"name":"โพธิ์ตรุ","zipcode":"15000"},{"name":"นิคมสร้างตนเอง","zipcode":"15000"},{"name":"โคกลำพาน","zipcode":"15000"},{"name":"ทะเลชุบศร","zipcode":"15000"},{"name":"พรหมมาสตร์","zipcode":"15000"},{"name":"ท่าแค","zipcode":"15000"},{"name":"เขาสามยอด","zipcode":"15000"},{"name":"ท้ายตลาด","zipcode":"15000"},{"name":"ดอนโพธิ์","zipcode":"15000"},{"name":"โก่งธนู","zipcode":"13240"},{"name":"สี่คลอง","zipcode":"15000"},{"name":"บางขันหมาก","zipcode":"15000"},{"name":"โคกตูม","zipcode":"15210"},{"name":"ท่าหิน","zipcode":"15000"},{"name":"โพธิ์เก้าต้น","zipcode":"15000"},{"name":"ท่าศาลา","zipcode":"15000"},{"name":"โคกกะเทียม","zipcode":"15000"},{"name":"ป่าตาล","zipcode":"15000"},{"name":"ตะลุง","zipcode":"15000"},{"name":"เขาพระงาม","zipcode":"15000"},{"name":"ถนนใหญ่","zipcode":"15000"},{"name":"บ้านข่อย","zipcode":"15000"},{"name":"งิ้วราย","zipcode":"15000"}]},{"name":"โคกสำโรง","subdistricts":[{"name":"เพนียด","zipcode":"15120"},{"name":"โคกสำโรง","zipcode":"15120"},{"name":"หนองแขม","zipcode":"15120"},{"name":"คลองเกตุ","zipcode":"15120"},{"name":"วังขอนขว้าง","zipcode":"15120"},{"name":"หลุมข้าว","zipcode":"15120"},{"name":"วังเพลิง","zipcode":"15120"},{"name":"เกาะแก้ว","zipcode":"15120"},{"name":"สะแกราบ","zipcode":"15120"},{"name":"วังจั่น","zipcode":"15120"},{"name":"ห้วยโป่ง","zipcode":"15120"},{"name":"ดงมะรุม","zipcode":"15120"},{"name":"ถลุงเหล็ก","zipcode":"15120"}]},{"name":"โคกเจริญ","subdistricts":[{"name":"โคกแสมสาร","zipcode":"15250"},{"name":"หนองมะค่า","zipcode":"15250"},{"name":"โคกเจริญ","zipcode":"15250"},{"name":"วังทอง","zipcode":"15250"},{"name":"ยางราก","zipcode":"15250"}]}]}
