{"province_id":70,"province_name":"สงขลา","districts":[{"name":"กระแสสินธุ์","subdistricts":[{"name":"เกาะใหญ่","zipcode":"90270"},{"name":"กระแสสินธุ์","zipcode":"90270"},{"name":"โรง","zipcode":"90270"},{"name":"เชิงแส","zipcode":"90270"}]},{"name":"คลองหอยโข่ง","subdistricts":[{"name":"คลองหลา","zipcode":"90115"},{"name":"ทุ่งลาน","zipcode":"90230"},{"name":"โคกม่วง","zipcode":"90230"},{"name":"คลองหอยโข่ง","zipcode":"90230"}]},{"name":"ควนเนียง","subdistricts":[{"name":"บางเหรียง","zipcode":"90220"},{"name":"ควนโส","zipcode":"90220"},{"name":"ห้วยลึก","zipcode":"90220"},{"name":"รัตภูมิ","zipcode":"90220"}]},{"name":"จะนะ","subdistricts":[{"name":"สะพานไม้แก่น","zipcode":"90130"},{"name":"ขุนตัดหวาย","zipcode":"90130"},{"name":"บ้านนา","zipcode":"90130"},{"name":"คลองเปียะ","zipcode":"90130"},{"name":"นาทับ","zipcode":"90130"},{"name":"คู","zipcode":"90130"},{"name":"สะกอม","zipcode":"90130"},{"name":"ท่าหมอไทร","zipcode":"90130"},{"name":"ป่าชิง","zipcode":"90130"},{"name":"ตลิ่งชัน","zipcode":"90130"},{"name":"น้ำขาว","zipcode":"90130"},{"name":"แค","zipcode":"90130"},{"name":"นาหว้า","zipcode":"90130"},{"name":"จะโหนง","zipcode":"90130"}]},{"name":"นาทวี","subdistricts":[{"name":"ทับช้าง","zipcode":"90160"},{"name":"นาทวี","zipcode":"90160"},{"name":"ท่าประดู่","zipcode":"90160"},{"name":"คลองทราย","zipcode":"90160"},{"name":"ประกอบ","zipcode":"90160"},{"name":"ฉาง","zipcode":"90160"},{"name":"สะท้อน","zipcode":"90160"},{"name":"ปลักหนู","zipcode":"90160"},{"name":"คลองกวาง","zipcode":"90160"},{"name":"นาหมอศรี","zipcode":"90160"}]},{"name":"นาหม่อม","subdistricts":[{"name":"ทุ่งขมิ้น","zipcode":"90310"},{"name":"นาหม่อม","zipcode":"90310"},{"name":"คลองหรัง","zipcode":"90310"},{"name":"พิจิตร","zipcode":"90310"}]},{"name":"บางกล่ำ","subdistricts":[{"name":"แม่ทอม","zipcode":"90110"},{"name":"บางกล่ำ","zipcode":"90110"},{"name":"บ้านหาร","zipcode":"90110"},{"name":"ท่าช้าง","zipcode":"90110"}]},{"name":"ระโนด","subdistricts":[{"name":"พังยาง","zipcode":"90140"},{"name":"ระโนด","zipcode":"90140"},{"name":"บ่อตรุ","zipcode":"90140"},{"name":"บ้านขาว","zipcode":"90140"},{"name":"ท่าบอน","zipcode":"90140"},{"name":"ระวะ","zipcode":"90140"},{"name":"คลองแดน","zipcode":"90140"},{"name":"ปากแตระ","zipcode":"90140"},{"name":"แดนสงวน","zipcode":"90140"},{"name":"บ้านใหม่","zipcode":"90140"},{"name":"วัดสน","zipcode":"90140"},{"name":"ตะเครียะ","zipcode":"90140"}]},{"name":"รัตภูมิ","subdistricts":[{"name":"ควนรู","zipcode":"90180"},{"name":"ท่าชะมวง","zipcode":"90180"},{"name":"เขาพระ","zipcode":"90180"},{"name":"คูหาใต้","zipcode":"90180"},{"name":"กำแพงเพชร","zipcode":"90180"}]},{"name":"สทิงพระ","subdistricts":[{"name":"คูขุด","zipcode":"90190"},{"name":"ชุมพล","zipcode":"90190"},{"name":"บ่อแดง","zipcode":"90190"},{"name":"สนามชัย","zipcode":"90190"},{"name":"ท่าหิน","zipcode":"90190"},{"name":"จะทิ้งพระ","zipcode":"90190"},{"name":"คลองรี","zipcode":"90190"},{"name":"บ่อดาน","zipcode":"90190"},{"name":"ดีหลวง","zipcode":"90190"},{"name":"วัดจันทร์","zipcode":"90190"},{"name":"กระดังงา","zipcode":"90190"}]},{"name":"สะบ้าย้อย","subdistricts":[{"name":"เปียน","zipcode":"90210"},{"name":"บาโหย","zipcode":"90210"},{"name":"สะบ้าย้อย","zipcode":"90210"},{"name":"คูหา","zipcode":"90210"},{"name":"บ้านโหนด","zipcode":"90210"},{"name":"ธารคีรี","zipcode":"90210"},{"name":"ทุ่งพอ","zipcode":"90210"},{"name":"เขาแดง","zipcode":"90210"},{"name":"จะแหน","zipcode":"90210"}]},{"name":"สะเดา","subdistricts":[{"name":"ท่าโพธิ์","zipcode":"90170"},{"name":"สำนักแต้ว","zipcode":"90120"},{"name":"เขามีเกียรติ","zipcode":"90170"},{"name":"ปริก","zipcode":"90120"},{"name":"ปาดังเบซาร์","zipcode":"90240"},{"name":"ทุ่งหมอ","zipcode":"90240"},{"name":"พังลา","zipcode":"90170"},{"name":"สำนักขาม","zipcode":"90320"},{"name":"สะเดา","zipcode":"90120"}]},{"name":"สิงหนคร","subdistricts":[{"name":"ทำนบ","zipcode":"90280"},{"name":"บางเขียด","zipcode":"90330"},{"name":"ป่าขาด","zipcode":"90330"},{"name":"ชิงโค","zipcode":"90280"},{"name":"ชะแล้","zipcode":"90330"},{"name":"รำแดง","zipcode":"90330"},{"name":"ม่วงงาม","zipcode":"90330"},{"name":"สทิงหม้อ","zipcode":"90280"},{"name":"หัวเขา","zipcode":"90280"},{"name":"ปากรอ","zipcode":"90330"},{"name":"วัดขนุน","zipcode":"90330"}]},{"name":"หาดใหญ่","subdistricts":[{"name":"ทุ่งตำเสา","zipcode":"90110"},{"name":"ควนลัง","zipcode":"90110"},{"name":"ฉลุง","zipcode":"90110"},{"name":"บ้านพรุ","zipcode":"90250"},{"name":"คลองแห","zipcode":"90110"},{"name":"ท่าข้าม","zipcode":"90110"},{"name":"คูเต่า","zipcode":"90110"},{"name":"ทุ่งใหญ่","zipcode":"90110"},{"name":"หาดใหญ่","zipcode":"90110"},{"name":"พะตง","zipcode":"90230"},{"name":"คลองอู่ตะเภา","zipcode":"90110"},{"name":"น้ำน้อย","zipcode":"90110"},{"name":"คอหงส์","zipcode":"90110"}]},{"name":"เทพา","subdistricts":[{"name":"เกาะสะบ้า","zipcode":"90150"},{"name":"เทพา","zipcode":"90150"},{"name":"วังใหญ่","zipcode":"90260"},{"name":"ลำไพล","zipcode":"90260"},{"name":"ปากบาง","zipcode":"90150"},{"name":"สะกอม","zipcode":"90150"},{"name":"ท่าม่วง","zipcode":"90260"}]},{"name":"เมืองสงขลา","subdistricts":[{"name":"บ่อยาง","zipcode":"90000"},{"name":"เกาะยอ","zipcode":"90100"},{"name":"พะวง","zipcode":"90100"},{"name":"เขารูปช้าง","zipcode":"90000"},{"name":"ทุ่งหวัง","zipcode":"90000"},{"name":"เกาะแต้ว","zipcode":"90000"}]}]}
