{"province_id":71,"province_name":"สตูล","districts":[{"name":"ควนกาหลง","subdistricts":[{"name":"อุใดเจริญ","zipcode":"91130"},{"name":"ทุ่งนุ้ย","zipcode":"91130"},{"name":"ควนกาหลง","zipcode":"91130"}]},{"name":"ควนโดน","subdistricts":[{"name":"ควนสตอ","zipcode":"91160"},{"name":"ย่านซื่อ","zipcode":"91160"},{"name":"ควนโดน","zipcode":"91160"},{"name":"วังประจัน","zipcode":"91160"}]},{"name":"ท่าแพ","subdistricts":[{"name":"แป-ระ","zipcode":"91150"},{"name":"สาคร","zipcode":"91150"},{"name":"ท่าแพ","zipcode":"91150"},{"name":"ท่าเรือ","zipcode":"91150"}]},{"name":"ทุ่งหว้า","subdistricts":[{"name":"ทุ่งบุหลัง","zipcode":"91120"},{"name":"นาทอน","zipcode":"91120"},{"name":"ป่าแก่บ่อหิน","zipcode":"91120"},{"name":"ขอนคลาน","zipcode":"91120"},{"name":"ทุ่งหว้า","zipcode":"91120"}]},{"name":"มะนัง","subdistricts":[{"name":"นิคมพัฒนา","zipcode":"91130"},{"name":"ปาล์มพัฒนา","zipcode":"91130"}]},{"name":"ละงู","subdistricts":[{"name":"น้ำผุด","zipcode":"91110"},{"name":"เขาขาว","zipcode":"91110"},{"name":"กำแพง","zipcode":"91110"},{"name":"แหลมสน","zipcode":"91110"},{"name":"ปากน้ำ","zipcode":"91110"},{"name":"ละงู","zipcode":"91110"}]},{"name":"เมืองสตูล","subdistricts":[{"name":"ตำมะลัง","zipcode":"91000"},{"name":"คลองขุด","zipcode":"91000"},{"name":"ตันหยงโป","zipcode":"91000"},{"name":"เกตรี","zipcode":"91140"},{"name":"ฉลุง","zipcode":"91140"},{"name":"ปูยู","zipcode":"91000"},{"name":"ควนขัน","zipcode":"91000"},{"name":"เจ๊ะบิลัง","zipcode":"91000"},{"name":"พิมาน","zipcode":"91000"},{"name":"เกาะสาหร่าย","zipcode":"91000"},{"name":"ควนโพธิ์","zipcode":"91140"},{"name":"บ้านควน","zipcode":"91140"}]}]}
