{"province_id":72,"province_name":"ตรัง","districts":[{"name":"กันตัง","subdistricts":[{"name":"บางหมาก","zipcode":"92110"},{"name":"คลองลุ","zipcode":"92110"},{"name":"กันตัง","zipcode":"92110"},{"name":"เกาะลิบง","zipcode":"92110"},{"name":"กันตังใต้","zipcode":"92110"},{"name":"บางสัก","zipcode":"92110"},{"name":"บางเป้า","zipcode":"92110"},{"name":"ย่านซื่อ","zipcode":"92110"},{"name":"ควนธานี","zipcode":"92110"},{"name":"คลองชีล้อม","zipcode":"92110"},{"name":"โคกยาง","zipcode":"92110"},{"name":"นาเกลือ","zipcode":"92110"},{"name":"วังวน","zipcode":"92110"},{"name":"บ่อน้ำร้อน","zipcode":"92110"}]},{"name":"นาโยง","subdistricts":[{"name":"ช่อง","zipcode":"92170"},{"name":"นาหมื่นศรี","zipcode":"92170"},{"name":"ละมอ","zipcode":"92170"},{"name":"นาโยงเหนือ","zipcode":"92170"},{"name":"นาข้าวเสีย","zipcode":"92170"},{"name":"โคกสะบ้า","zipcode":"92170"}]},{"name":"ปะเหลียน","subdistricts":[{"name":"บ้านนา","zipcode":"92140"},{"name":"แหลมสอม","zipcode":"92180"},{"name":"ปะเหลียน","zipcode":"92180"},{"name":"เกาะสุกร","zipcode":"92120"},{"name":"ท่าข้าม","zipcode":"92120"},{"name":"สุโสะ","zipcode":"92120"},{"name":"บางด้วน","zipcode":"92140"},{"name":"ท่าพญา","zipcode":"92140"},{"name":"ทุ่งยาว","zipcode":"92180"},{"name":"ลิพัง","zipcode":"92180"}]},{"name":"ย่านตาขาว","subdistricts":[{"name":"เกาะเปียะ","zipcode":"92140"},{"name":"ย่านตาขาว","zipcode":"92140"},{"name":"ทุ่งกระบือ","zipcode":"92140"},{"name":"ในควน","zipcode":"92140"},{"name":"หนองบ่อ","zipcode":"92140"},{"name":"ทุ่งค่าย","zipcode":"92140"},{"name":"โพรงจระเข้","zipcode":"92140"},{"name":"นาชุมเห็ด","zipcode":"92140"}]},{"name":"รัษฎา","subdistricts":[{"name":"หนองบัว","zipcode":"92160"},{"name":"ควนเมา","zipcode":"92160"},{"name":"หนองปรือ","zipcode":"92130"},{"name":"คลองปาง","zipcode":"92160"},{"name":"เขาไพร","zipcode":"92160"}]},{"name":"วังวิเศษ","subdistricts":[{"name":"วังมะปรางเหนือ","zipcode":"92220"},{"name":"อ่าวตง","zipcode":"92220"},{"name":"เขาวิเศษ","zipcode":"92220"},{"name":"ท่าสะบ้า","zipcode":"92000"},{"name":"วังมะปราง","zipcode":"92220"}]},{"name":"สิเกา","subdistricts":[{"name":"เขาไม้แก้ว","zipcode":"92150"},{"name":"นาเมืองเพชร","zipcode":"92000"},{"name":"กะลาเส","zipcode":"92150"},{"name":"บ่อหิน","zipcode":"92150"},{"name":"ไม้ฝาด","zipcode":"92150"}]},{"name":"ห้วยยอด","subdistricts":[{"name":"บางกุ้ง","zipcode":"92210"},{"name":"วังคีรี","zipcode":"92210"},{"name":"ปากคม","zipcode":"92130"},{"name":"หนองช้างแล่น","zipcode":"92130"},{"name":"ในเตา","zipcode":"92130"},{"name":"เขาปูน","zipcode":"92130"},{"name":"นาวง","zipcode":"92210"},{"name":"เขากอบ","zipcode":"92130"},{"name":"ท่างิ้ว","zipcode":"92130"},{"name":"บางดี","zipcode":"92210"},{"name":"ทุ่งต่อ","zipcode":"92130"},{"name":"ปากแจ่ม","zipcode":"92190"},{"name":"ห้วยยอด","zipcode":"92130"},{"name":"ห้วยนาง","zipcode":"92130"},{"name":"เขาขาว","zipcode":"92130"},{"name":"ลำภูรา","zipcode":"92190"}]},{"name":"หาดสำราญ","subdistricts":[{"name":"ตะเสะ","zipcode":"92120"},{"name":"หาดสำราญ","zipcode":"92120"},{"name":"บ้าหวี","zipcode":"92120"}]},{"name":"เมืองตรัง","subdistricts":[{"name":"น้ำผุด","zipcode":"92000"},{"name":"นาบินหลา","zipcode":"92000"},{"name":"นาโต๊ะหมิง","zipcode":"92000"},{"name":"นาพละ","zipcode":"92000"},{"name":"นาท่ามเหนือ","zipcode":"92190"},{"name":"บางรัก","zipcode":"92000"},{"name":"นาตาล่วง","zipcode":"92000"},{"name":"ควนปริง","zipcode":"92000"},{"name":"หนองตรุด","zipcode":"92000"},{"name":"บ้านควน","zipcode":"92000"},{"name":"นาท่ามใต้","zipcode":"92190"},{"name":"โคกหล่อ","zipcode":"92000"},{"name":"ทับเที่ยง","zipcode":"92000"},{"name":"บ้านโพธิ์","zipcode":"92000"},{"name":"นาโยงใต้","zipcode":"92170"}]}]}
