{"province_id":73,"province_name":"พัทลุง","districts":[{"name":"กงหรา","subdistricts":[{"name":"สมหวัง","zipcode":"93000"},{"name":"คลองเฉลิม","zipcode":"93180"},{"name":"กงหรา","zipcode":"93180"},{"name":"คลองทรายขาว","zipcode":"93180"},{"name":"ชะรัด","zipcode":"93000"}]},{"name":"ควนขนุน","subdistricts":[{"name":"ปันแต","zipcode":"93110"},{"name":"ชะมวง","zipcode":"93110"},{"name":"พนมวังก์","zipcode":"93110"},{"name":"มะกอกเหนือ","zipcode":"93150"},{"name":"ทะเลน้อย","zipcode":"93150"},{"name":"โตนดด้วน","zipcode":"93110"},{"name":"แพรกหา","zipcode":"93110"},{"name":"แหลมโตนด","zipcode":"93110"},{"name":"พนางตุง","zipcode":"93150"},{"name":"นาขยาด","zipcode":"93110"},{"name":"ดอนทราย","zipcode":"93110"},{"name":"ควนขนุน","zipcode":"93110"}]},{"name":"ตะโหมด","subdistricts":[{"name":"ตะโหมด","zipcode":"93160"},{"name":"คลองใหญ่","zipcode":"93160"},{"name":"แม่ขรี","zipcode":"93160"}]},{"name":"บางแก้ว","subdistricts":[{"name":"โคกสัก","zipcode":"93140"},{"name":"ท่ามะเดื่อ","zipcode":"93140"},{"name":"นาปะขอ","zipcode":"93140"}]},{"name":"ปากพะยูน","subdistricts":[{"name":"หารเทา","zipcode":"93120"},{"name":"เกาะหมาก","zipcode":"93120"},{"name":"ดอนประดู่","zipcode":"93120"},{"name":"ดอนทราย","zipcode":"93120"},{"name":"ฝาละมี","zipcode":"93120"},{"name":"เกาะนางคำ","zipcode":"93120"},{"name":"ปากพะยูน","zipcode":"93120"}]},{"name":"ป่าบอน","subdistricts":[{"name":"หนองธง","zipcode":"93170"},{"name":"ป่าบอน","zipcode":"93170"},{"name":"ทุ่งนารี","zipcode":"93170"},{"name":"โคกทราย","zipcode":"93170"},{"name":"วังใหม่","zipcode":"93170"}]},{"name":"ป่าพะยอม","subdistricts":[{"name":"ลานข่อย","zipcode":"93110"},{"name":"เกาะเต่า","zipcode":"93110"},{"name":"ป่าพะยอม","zipcode":"93110"},{"name":"บ้านพร้าว","zipcode":"93110"}]},{"name":"ศรีนครินทร์","subdistricts":[{"name":"อ่างทอง","zipcode":"93000"},{"name":"ชุมพล","zipcode":"93000"},{"name":"ลำสินธุ์","zipcode":"93000"},{"name":"บ้านนา","zipcode":"93000"}]},{"name":"ศรีบรรพต","subdistricts":[{"name":"เขาปู่","zipcode":"93190"},{"name":"ตะแพน","zipcode":"93190"},{"name":"เขาย่า","zipcode":"93190"}]},{"name":"เขาชัยสน","subdistricts":[{"name":"โคกม่วง","zipcode":"93130"},{"name":"จองถนน","zipcode":"93130"},{"name":"เขาชัยสน","zipcode":"93130"},{"name":"หานโพธิ์","zipcode":"93130"},{"name":"ควนขนุน","zipcode":"93130"}]},{"name":"เมืองพัทลุง","subdistricts":[{"name":"พญาขัน","zipcode":"93000"},{"name":"ท่าแค","zipcode":"93000"},{"name":"ชัยบุรี","zipcode":"93000"},{"name":"นาท่อม","zipcode":"93000"},{"name":"ควนมะพร้าว","zipcode":"93000"},{"name":"ท่ามิหรำ","zipcode":"93000"},{"name":"ลำปำ","zipcode":"93000"},{"name":"คูหาสวรรค์","zipcode":"93000"},{"name":"นาโหนด","zipcode":"93000"},{"name":"ปรางหมู่","zipcode":"93000"},{"name":"ร่มเมือง","zipcode":"93000"},{"name":"โคกชะงาย","zipcode":"93000"},{"name":"ตำนาน","zipcode":"93000"},{"name":"เขาเจียก","zipcode":"93000"}]}]}
