{"province_id":74,"province_name":"ปัตตานี","districts":[{"name":"กะพ้อ","subdistricts":[{"name":"กะรุบี","zipcode":"94230"},{"name":"ตะโละดือรามัน","zipcode":"94230"},{"name":"ปล่องหอย","zipcode":"94230"}]},{"name":"ทุ่งยางแดง","subdistricts":[{"name":"น้ำดำ","zipcode":"94140"},{"name":"ตะโละแมะนา","zipcode":"94140"},{"name":"ปากู","zipcode":"94140"},{"name":"พิเทน","zipcode":"94140"}]},{"name":"ปะนาเระ","subdistricts":[{"name":"บ้านกลาง","zipcode":"94130"},{"name":"ท่าข้าม","zipcode":"94130"},{"name":"คอกกระบือ","zipcode":"94130"},{"name":"ควน","zipcode":"94190"},{"name":"บ้านน้ำบ่อ","zipcode":"94130"},{"name":"บ้านนอก","zipcode":"94130"},{"name":"พ่อมิ่ง","zipcode":"94130"},{"name":"ปะนาเระ","zipcode":"94130"},{"name":"ท่าน้ำ","zipcode":"94130"},{"name":"ดอน","zipcode":"94130"}]},{"name":"มายอ","subdistricts":[{"name":"สาคอใต้","zipcode":"94140"},{"name":"กระหวะ","zipcode":"94140"},{"name":"ปะโด","zipcode":"94140"},{"name":"ถนน","zipcode":"94140"},{"name":"กระเสาะ","zipcode":"94140"},{"name":"สะกำ","zipcode":"94140"},{"name":"ลุโบะยิไร","zipcode":"94140"},{"name":"สาคอบน","zipcode":"94140"},{"name":"ตรัง","zipcode":"94140"},{"name":"เกาะจัน","zipcode":"94140"},{"name":"มายอ","zipcode":"94140"},{"name":"ปานัน","zipcode":"94140"},{"name":"ลางา","zipcode":"94190"}]},{"name":"ยะรัง","subdistricts":[{"name":"ปิตูมุดี","zipcode":"94160"},{"name":"กอลำ","zipcode":"94160"},{"name":"สะนอ","zipcode":"94160"},{"name":"คลองใหม่","zipcode":"94160"},{"name":"สะดาวา","zipcode":"94160"},{"name":"วัด","zipcode":"94160"},{"name":"เขาตูม","zipcode":"94160"},{"name":"ระแว้ง","zipcode":"94160"},{"name":"เมาะมาวี","zipcode":"94160"},{"name":"ประจัน","zipcode":"94160"},{"name":"กระโด","zipcode":"94160"},{"name":"ยะรัง","zipcode":"94160"}]},{"name":"ยะหริ่ง","subdistricts":[{"name":"ตอหลัง","zipcode":"94150"},{"name":"จะรัง","zipcode":"94150"},{"name":"หนองแรต","zipcode":"94150"},{"name":"ตันหยงดาลอ","zipcode":"94150"},{"name":"มะนังยง","zipcode":"94150"},{"name":"ยามู","zipcode":"94150"},{"name":"ตะโละ","zipcode":"94150"},{"name":"บาโลย","zipcode":"94190"},{"name":"ตาแกะ","zipcode":"94150"},{"name":"แหลมโพธิ์","zipcode":"94150"},{"name":"ปิยามุมัง","zipcode":"94150"},{"name":"ตันหยงจึงงา","zipcode":"94190"},{"name":"ราตาปันยัง","zipcode":"94150"},{"name":"บางปู","zipcode":"94150"},{"name":"ตะโละกาโปร์","zipcode":"94150"},{"name":"สาบัน","zipcode":"94150"},{"name":"ตาลีอายร์","zipcode":"94150"},{"name":"ปุลากง","zipcode":"94150"}]},{"name":"สายบุรี","subdistricts":[{"name":"ตะลุบัน","zipcode":"94110"},{"name":"เตราะบอน","zipcode":"94110"},{"name":"ทุ่งคล้า","zipcode":"94190"},{"name":"บางเก่า","zipcode":"94110"},{"name":"มะนังดาลำ","zipcode":"94110"},{"name":"ตะบิ้ง","zipcode":"94110"},{"name":"กะดุนง","zipcode":"94110"},{"name":"บือเระ","zipcode":"94110"},{"name":"แป้น","zipcode":"94110"},{"name":"ปะเสยะวอ","zipcode":"94110"},{"name":"ละหาร","zipcode":"94110"}]},{"name":"หนองจิก","subdistricts":[{"name":"บ่อทอง","zipcode":"94170"},{"name":"ลิปะสะโง","zipcode":"94170"},{"name":"ตุยง","zipcode":"94170"},{"name":"ปุโละปุโย","zipcode":"94170"},{"name":"ดอนรัก","zipcode":"94170"},{"name":"บางเขา","zipcode":"94170"},{"name":"เกาะเปาะ","zipcode":"94170"},{"name":"ท่ากำชำ","zipcode":"94170"},{"name":"ยาบี","zipcode":"94170"},{"name":"ดาโต๊ะ","zipcode":"94170"},{"name":"บางตาวา","zipcode":"94170"},{"name":"คอลอตันหยง","zipcode":"94170"}]},{"name":"เมืองปัตตานี","subdistricts":[{"name":"สะบารัง","zipcode":"94000"},{"name":"ปุยุด","zipcode":"94000"},{"name":"คลองมานิง","zipcode":"94000"},{"name":"ตะลุโบะ","zipcode":"94000"},{"name":"บานา","zipcode":"94000"},{"name":"ปะกาฮะรัง","zipcode":"94000"},{"name":"อาเนาะรู","zipcode":"94000"},{"name":"กะมิยอ","zipcode":"94000"},{"name":"บาราเฮาะ","zipcode":"94000"},{"name":"ตันหยงลุโละ","zipcode":"94000"},{"name":"รูสะมิแล","zipcode":"94000"},{"name":"จะบังติกอ","zipcode":"94000"},{"name":"บาราโหม","zipcode":"94000"}]},{"name":"แม่ลาน","subdistricts":[{"name":"ป่าไร่","zipcode":"94180"},{"name":"แม่ลาน","zipcode":"94180"},{"name":"ม่วงเตี้ย","zipcode":"94180"}]},{"name":"โคกโพธิ์","subdistricts":[{"name":"ปากล่อ","zipcode":"94180"},{"name":"ช้างให้ตก","zipcode":"94120"},{"name":"ทรายขาว","zipcode":"94120"},{"name":"นาเกตุ","zipcode":"94120"},{"name":"บางโกระ","zipcode":"94120"},{"name":"ทุ่งพลา","zipcode":"94180"},{"name":"โคกโพธิ์","zipcode":"94120"},{"name":"นาประดู่","zipcode":"94180"},{"name":"ควนโนรี","zipcode":"94180"},{"name":"ป่าบอน","zipcode":"94120"},{"name":"ท่าเรือ","zipcode":"94120"},{"name":"มะกรูด","zipcode":"94120"}]},{"name":"ไม้แก่น","subdistricts":[{"name":"ไม้แก่น","zipcode":"94220"},{"name":"ตะโละไกรทอง","zipcode":"94220"},{"name":"ไทรทอง","zipcode":"94220"},{"name":"ดอนทราย","zipcode":"94220"}]}]}
