{"province_id":75,"province_name":"ยะลา","districts":[{"name":"กรงปินัง","subdistricts":[{"name":"ห้วยกระทิง","zipcode":"95000"},{"name":"กรงปินัง","zipcode":"95000"},{"name":"ปุโรง","zipcode":"95000"},{"name":"สะเอะ","zipcode":"95000"}]},{"name":"กาบัง","subdistricts":[{"name":"กาบัง","zipcode":"95120"},{"name":"บาละ","zipcode":"95120"}]},{"name":"ธารโต","subdistricts":[{"name":"ธารโต","zipcode":"95150"},{"name":"คีรีเขต","zipcode":"95150"},{"name":"บ้านแหร","zipcode":"95150"},{"name":"แม่หวาด","zipcode":"95170"}]},{"name":"บันนังสตา","subdistricts":[{"name":"ตลิ่งชัน","zipcode":"95130"},{"name":"ตาเนาะปูเต๊ะ","zipcode":"95130"},{"name":"บันนังสตา","zipcode":"95130"},{"name":"เขื่อนบางลาง","zipcode":"95130"},{"name":"ถ้ำทะลุ","zipcode":"95130"},{"name":"บาเจาะ","zipcode":"95130"}]},{"name":"ยะหา","subdistricts":[{"name":"บาโร๊ะ","zipcode":"95120"},{"name":"ละแอ","zipcode":"95120"},{"name":"กาตอง","zipcode":"95120"},{"name":"ตาชี","zipcode":"95120"},{"name":"ปะแต","zipcode":"95120"},{"name":"ยะหา","zipcode":"95120"},{"name":"บาโงยซิแน","zipcode":"95120"}]},{"name":"รามัน","subdistricts":[{"name":"ตะโล๊ะหะลอ","zipcode":"95140"},{"name":"เนินงาม","zipcode":"95140"},{"name":"กาลูปัง","zipcode":"95140"},{"name":"วังพญา","zipcode":"95140"},{"name":"จะกว๊ะ","zipcode":"95140"},{"name":"บือมัง","zipcode":"95140"},{"name":"โกตาบารู","zipcode":"95140"},{"name":"บาลอ","zipcode":"95140"},{"name":"กาลอ","zipcode":"95140"},{"name":"อาซ่อง","zipcode":"95140"},{"name":"ท่าธง","zipcode":"95140"},{"name":"กายูบอเกาะ","zipcode":"95140"},{"name":"ยะต๊ะ","zipcode":"95140"},{"name":"เกะรอ","zipcode":"95140"},{"name":"บาโงย","zipcode":"95140"},{"name":"กอตอตือร๊ะ","zipcode":"95140"}]},{"name":"เบตง","subdistricts":[{"name":"ธารน้ำทิพย์","zipcode":"95110"},{"name":"ตาเนาะแมเราะ","zipcode":"95110"},{"name":"เบตง","zipcode":"95110"},{"name":"อัยเยอร์เวง","zipcode":"95110"},{"name":"ยะรม","zipcode":"95110"}]},{"name":"เมืองยะลา","subdistricts":[{"name":"ตาเซะ","zipcode":"95000"},{"name":"ลำใหม่","zipcode":"95160"},{"name":"บันนังสาเรง","zipcode":"95000"},{"name":"ยะลา","zipcode":"95000"},{"name":"เปาะเส้ง","zipcode":"95000"},{"name":"ยุโป","zipcode":"95000"},{"name":"หน้าถ้ำ","zipcode":"95000"},{"name":"สะเตง","zipcode":"95000"},{"name":"สะเตงนอก","zipcode":"95000"},{"name":"ท่าสาป","zipcode":"95000"},{"name":"พร่อน","zipcode":"95160"},{"name":"ลิดล","zipcode":"95160"},{"name":"ลำพะยา","zipcode":"95160"},{"name":"บุดี","zipcode":"95000"}]}]}
