{"province_id":76,"province_name":"นราธิวาส","districts":[{"name":"จะแนะ","subdistricts":[{"name":"ดุซงญอ","zipcode":"96220"},{"name":"ผดุงมาตร","zipcode":"96220"},{"name":"จะแนะ","zipcode":"96220"},{"name":"ช้างเผือก","zipcode":"96220"}]},{"name":"ตากใบ","subdistricts":[{"name":"เกาะสะท้อน","zipcode":"96110"},{"name":"ศาลาใหม่","zipcode":"96110"},{"name":"ไพรวัน","zipcode":"96110"},{"name":"นานาค","zipcode":"96110"},{"name":"บางขุนทอง","zipcode":"96110"},{"name":"พร่อน","zipcode":"96110"},{"name":"เจ๊ะเห","zipcode":"96110"},{"name":"โฆษิต","zipcode":"96110"}]},{"name":"บาเจาะ","subdistricts":[{"name":"บาเระเหนือ","zipcode":"96170"},{"name":"กาเยาะมาตี","zipcode":"96170"},{"name":"บาเจาะ","zipcode":"96170"},{"name":"บาเระใต้","zipcode":"96170"},{"name":"ปะลุกาสาเมาะ","zipcode":"96170"},{"name":"ลุโบะสาวอ","zipcode":"96170"}]},{"name":"ยี่งอ","subdistricts":[{"name":"ตะปอเยาะ","zipcode":"96180"},{"name":"ลุโบะบายะ","zipcode":"96180"},{"name":"ละหาร","zipcode":"96180"},{"name":"ลุโบะบือซา","zipcode":"96180"},{"name":"จอเบาะ","zipcode":"96180"},{"name":"ยี่งอ","zipcode":"96180"}]},{"name":"ระแงะ","subdistricts":[{"name":"บาโงสะโต","zipcode":"96130"},{"name":"บองอ","zipcode":"96220"},{"name":"ตันหยงมัส","zipcode":"96130"},{"name":"เฉลิม","zipcode":"96130"},{"name":"กาลิซา","zipcode":"96130"},{"name":"ตันหยงลิมอ","zipcode":"96130"},{"name":"มะรือโบตก","zipcode":"96130"}]},{"name":"รือเสาะ","subdistricts":[{"name":"บาตง","zipcode":"96150"},{"name":"เรียง","zipcode":"96150"},{"name":"โคกสะตอ","zipcode":"96150"},{"name":"รือเสาะ","zipcode":"96150"},{"name":"ลาโละ","zipcode":"96150"},{"name":"สามัคคี","zipcode":"96150"},{"name":"สุวารี","zipcode":"96150"},{"name":"สาวอ","zipcode":"96150"},{"name":"รือเสาะออก","zipcode":"96150"}]},{"name":"ศรีสาคร","subdistricts":[{"name":"ศรีสาคร","zipcode":"96210"},{"name":"ซากอ","zipcode":"96210"},{"name":"ศรีบรรพต","zipcode":"96210"},{"name":"เชิงคีรี","zipcode":"96210"},{"name":"ตะมะยูง","zipcode":"96210"},{"name":"กาหลง","zipcode":"96210"}]},{"name":"สุคิริน","subdistricts":[{"name":"เกียร์","zipcode":"96190"},{"name":"มาโมง","zipcode":"96190"},{"name":"ภูเขาทอง","zipcode":"96190"},{"name":"สุคิริน","zipcode":"96190"},{"name":"ร่มไทร","zipcode":"96190"}]},{"name":"สุไหงปาดี","subdistricts":[{"name":"ปะลุรู","zipcode":"96140"},{"name":"กาวะ","zipcode":"96140"},{"name":"สากอ","zipcode":"96140"},{"name":"สุไหงปาดี","zipcode":"96140"},{"name":"ริโก๋","zipcode":"96140"},{"name":"โต๊ะเด็ง","zipcode":"96140"}]},{"name":"สุไหงโก-ลก","subdistricts":[{"name":"มูโนะ","zipcode":"96120"},{"name":"สุไหงโก-ลก","zipcode":"96120"},{"name":"ปูโยะ","zipcode":"96120"},{"name":"ปาเสมัส","zipcode":"96120"}]},{"name":"เจาะไอร้อง","subdistricts":[{"name":"มะรือโบออก","zipcode":"96130"},{"name":"จวบ","zipcode":"96130"},{"name":"บูกิต","zipcode":"96130"}]},{"name":"เมืองนราธิวาส","subdistricts":[{"name":"บางนาค","zipcode":"96000"},{"name":"กะลุวอเหนือ","zipcode":"96000"},{"name":"บางปอ","zipcode":"96000"},{"name":"ลำภู","zipcode":"96000"},{"name":"โคกเคียน","zipcode":"96000"},{"name":"กะลุวอ","zipcode":"96000"},{"name":"มะนังตายอ","zipcode":"96000"}]},{"name":"แว้ง","subdistricts":[{"name":"โละจูด","zipcode":"96160"},{"name":"กายูคละ","zipcode":"96160"},{"name":"แม่ดง","zipcode":"96160"},{"name":"ฆอเลาะ","zipcode":"96160"},{"name":"แว้ง","zipcode":"96160"},{"name":"เอราวัณ","zipcode":"96160"}]}]}
