{"province_id":77,"province_name":"บึงกาฬ","districts":[{"name":"บึงโขงหลง","subdistricts":[{"name":"โพธิ์หมากแข้ง","zipcode":"38220"},{"name":"ท่าดอกคำ","zipcode":"38220"},{"name":"บึงโขงหลง","zipcode":"38220"},{"name":"ดงบัง","zipcode":"38220"}]},{"name":"บุ่งคล้า","subdistricts":[{"name":"โคกกว้าง","zipcode":"38000"},{"name":"บุ่งคล้า","zipcode":"38000"},{"name":"หนองเดิน","zipcode":"38000"}]},{"name":"ปากคาด","subdistricts":[{"name":"สมสนุก","zipcode":"38190"},{"name":"โนนศิลา","zipcode":"38190"},{"name":"นากั้ง","zipcode":"38190"},{"name":"หนองยอง","zipcode":"38190"},{"name":"ปากคาด","zipcode":"38190"},{"name":"นาดง","zipcode":"38190"}]},{"name":"พรเจริญ","subdistricts":[{"name":"วังชมภู","zipcode":"38180"},{"name":"ป่าแฝก","zipcode":"38180"},{"name":"หนองหัวช้าง","zipcode":"38180"},{"name":"ศรีชมภู","zipcode":"38180"},{"name":"พรเจริญ","zipcode":"38180"},{"name":"ดอนหญ้านาง","zipcode":"38180"},{"name":"ศรีสำราญ","zipcode":"38180"}]},{"name":"ศรีวิไล","subdistricts":[{"name":"นาแสง","zipcode":"38210"},{"name":"นาสะแบง","zipcode":"38210"},{"name":"ศรีวิไล","zipcode":"38210"},{"name":"นาสิงห์","zipcode":"38210"},{"name":"ชุมภูพร","zipcode":"38210"}]},{"name":"เซกา","subdistricts":[{"name":"ซาง","zipcode":"38150"},{"name":"บ้านต้อง","zipcode":"38150"},{"name":"ท่าสะอาด","zipcode":"38150"},{"name":"หนองทุ่ม","zipcode":"38150"},{"name":"เซกา","zipcode":"38150"},{"name":"ป่งไฮ","zipcode":"38150"},{"name":"น้ำจั้น","zipcode":"38150"},{"name":"ท่ากกแดง","zipcode":"38150"},{"name":"โสกก่าม","zipcode":"38150"}]},{"name":"เมืองบึงกาฬ","subdistricts":[{"name":"โนนสมบูรณ์","zipcode":"38000"},{"name":"หนองเลิง","zipcode":"38000"},{"name":"นาสวรรค์","zipcode":"38000"},{"name":"วิศิษฐ์","zipcode":"38000"},{"name":"ไคสี","zipcode":"38000"},{"name":"บึงกาฬ","zipcode":"38000"},{"name":"คำนาดี","zipcode":"38000"},{"name":"หอคำ","zipcode":"38000"},{"name":"นาสวรรค์","zipcode":"38000"},{"name":"หนองเข็ง","zipcode":"38000"},{"name":"ชัยพร","zipcode":"38000"},{"name":"โป่งเปื่อย","zipcode":"38000"},{"name":"บึงโขงหลง","zipcode":"38000"}]},{"name":"โซ่พิสัย","subdistricts":[{"name":"บัวตูม","zipcode":"38170"},{"name":"โซ่","zipcode":"38170"},{"name":"เหล่าทอง","zipcode":"38170"},{"name":"ศรีชมภู","zipcode":"38170"},{"name":"ถ้ำเจริญ","zipcode":"38170"},{"name":"คำแก้ว","zipcode":"38170"},{"name":"หนองพันทา","zipcode":"38170"}]}]}