{"province_id":8,"province_name":"สิงห์บุรี","districts":[{"name":"ค่ายบางระจัน","subdistricts":[{"name":"โพสังโฆ","zipcode":"16150"},{"name":"โพทะเล","zipcode":"16150"},{"name":"หนองกระทุ่ม","zipcode":"16150"},{"name":"ท่าข้าม","zipcode":"16150"},{"name":"บางระจัน","zipcode":"16150"},{"name":"คอทราย","zipcode":"16150"}]},{"name":"ท่าช้าง","subdistricts":[{"name":"พิกุลทอง","zipcode":"16140"},{"name":"โพประจักษ์","zipcode":"16140"},{"name":"วิหารขาว","zipcode":"16140"},{"name":"ถอนสมอ","zipcode":"16140"}]},{"name":"บางระจัน","subdistricts":[{"name":"บ้านจ่า","zipcode":"16130"},{"name":"โพชนไก่","zipcode":"16130"},{"name":"ไม้ดัด","zipcode":"16130"},{"name":"พักทัน","zipcode":"16130"},{"name":"แม่ลา","zipcode":"16130"},{"name":"เชิงกลัด","zipcode":"16130"},{"name":"สิงห์","zipcode":"16130"},{"name":"สระแจง","zipcode":"16130"}]},{"name":"พรหมบุรี","subdistricts":[{"name":"บ้านหม้อ","zipcode":"16120"},{"name":"พรหมบุรี","zipcode":"16160"},{"name":"โรงช้าง","zipcode":"16120"},{"name":"บ้านแป้ง","zipcode":"16120"},{"name":"บางน้ำเชี่ยว","zipcode":"16120"},{"name":"พระงาม","zipcode":"16120"},{"name":"หัวป่า","zipcode":"16120"}]},{"name":"อินทร์บุรี","subdistricts":[{"name":"น้ำตาล","zipcode":"16110"},{"name":"ชีน้ำร้าย","zipcode":"16110"},{"name":"โพธิ์ชัย","zipcode":"16110"},{"name":"ทับยา","zipcode":"16110"},{"name":"ทองเอน","zipcode":"16110"},{"name":"อินทร์บุรี","zipcode":"16110"},{"name":"ท่างาม","zipcode":"16110"},{"name":"งิ้วราย","zipcode":"16110"},{"name":"ห้วยชัน","zipcode":"16110"},{"name":"ประศุก","zipcode":"16110"}]},{"name":"เมืองสิงห์บุรี","subdistricts":[{"name":"จักรสีห์","zipcode":"16000"},{"name":"หัวไผ่","zipcode":"16000"},{"name":"โพกรวม","zipcode":"16000"},{"name":"บางกระบือ","zipcode":"16000"},{"name":"บางพุทรา","zipcode":"16000"},{"name":"ต้นโพธิ์","zipcode":"16000"},{"name":"ม่วงหมู่","zipcode":"16000"},{"name":"บางมัญ","zipcode":"16000"}]}]}
