{"province_id":9,"province_name":"ชัยนาท","districts":[{"name":"มโนรมย์","subdistricts":[{"name":"อู่ตะเภา","zipcode":"17170"},{"name":"หางน้ำสาคร","zipcode":"17170"},{"name":"ศิลาดาน","zipcode":"17110"},{"name":"คุ้งสำเภา","zipcode":"17110"},{"name":"ไร่พัฒนา","zipcode":"17170"},{"name":"ท่าฉนวน","zipcode":"17110"},{"name":"วัดโคก","zipcode":"17110"}]},{"name":"วัดสิงห์","subdistricts":[{"name":"หนองขุ่น","zipcode":"17120"},{"name":"หนองน้อย","zipcode":"17120"},{"name":"วัดสิงห์","zipcode":"17120"},{"name":"บ่อแร่","zipcode":"17120"},{"name":"หนองบัว","zipcode":"17120"},{"name":"มะขามเฒ่า","zipcode":"17120"},{"name":"วังหมัน","zipcode":"17120"}]},{"name":"สรรคบุรี","subdistricts":[{"name":"บางขุด","zipcode":"17140"},{"name":"ห้วยกรด","zipcode":"17140"},{"name":"ห้วยกรดพัฒนา","zipcode":"17140"},{"name":"แพรกศรีราชา","zipcode":"17140"},{"name":"ดงคอน","zipcode":"17140"},{"name":"โพงาม","zipcode":"17140"},{"name":"เที่ยงแท้","zipcode":"17140"},{"name":"ดอนกำ","zipcode":"17140"}]},{"name":"สรรพยา","subdistricts":[{"name":"โพนางดำออก","zipcode":"17150"},{"name":"เขาแก้ว","zipcode":"17150"},{"name":"สรรพยา","zipcode":"17150"},{"name":"บางหลวง","zipcode":"17150"},{"name":"โพนางดำตก","zipcode":"17150"},{"name":"ตลุก","zipcode":"17150"},{"name":"หาดอาษา","zipcode":"17150"}]},{"name":"หนองมะโมง","subdistricts":[{"name":"หนองมะโมง","zipcode":"17120"},{"name":"กุดจอก","zipcode":"17120"},{"name":"วังตะเคียน","zipcode":"17120"},{"name":"สะพานหิน","zipcode":"17120"}]},{"name":"หันคา","subdistricts":[{"name":"บ้านเชี่ยน","zipcode":"17130"},{"name":"เด่นใหญ่","zipcode":"17130"},{"name":"ห้วยงู","zipcode":"17160"},{"name":"ไพรนกยูง","zipcode":"17130"},{"name":"สามง่ามท่าโบสถ์","zipcode":"17160"},{"name":"หันคา","zipcode":"17130"},{"name":"วังไก่เถื่อน","zipcode":"17130"},{"name":"หนองแซง","zipcode":"17160"}]},{"name":"เนินขาม","subdistricts":[{"name":"กะบกเตี้ย","zipcode":"17130"},{"name":"สุขเดือนห้า","zipcode":"17130"},{"name":"เนินขาม","zipcode":"17130"}]},{"name":"เมืองชัยนาท","subdistricts":[{"name":"นางลือ","zipcode":"17000"},{"name":"บ้านกล้วย","zipcode":"17000"},{"name":"ธรรมามูล","zipcode":"17000"},{"name":"เขาท่าพระ","zipcode":"17000"},{"name":"ท่าชัย","zipcode":"17000"},{"name":"เสือโฮก","zipcode":"17000"},{"name":"ในเมือง","zipcode":"17000"},{"name":"หาดท่าเสา","zipcode":"17000"},{"name":"ชัยนาท","zipcode":"17000"}]}]}
